NGAsubRSN,DatabaseRegion,NGAsubEQID,NGAsubSSN,Earthquake_Name,YEAR,MODY,HRMN,Earthquake_Magnitude,Hypocenter_Latitude_deg,Hypocenter_Longitude_deg,Hypocenter_Depth_km,Strike_deg,Dip_deg,Rake_deg,Ztor_km,Zbor_km,Intra_Inter_Flag,Finite_Fault_Model,Multiple_Event,Number_of_Segment,Length_km,Width_km,Source_review_flag,Fault_Type,Subduction_Zone_Name,Alternate_Saturation_Magnitude_10MPa,Preferred_Saturation_Magnitude_10MPa,Alternate_Fault_maximum_width_km,Preferred_Fault_maximum_width_km,Magnitude_break_interface,VolcanicArcFlag_Hypocenter,Interface_Event_FromHypocenterDepth,InterfaceFlag_FromHypocenterDepth,Instrument_Type,Accelerograph_Seismograph,Unfiltered_PGA_H1_g,Unfiltered_PGA_H2_g,Unfiltered_PGA_V_g,Late_P_trigger_flag_1ptYes_0ptNo,Shortest_Usable_Period_for_PSa_Ave_Component_sec,Longest_Usable_Period_for_PSa_Ave_Component_sec,Magnitude_Type,DbQualityFlag,EpiD_km,HypD_km,Rjb_km,ClstD_km,Rrms_km,Rx_km,Ry_km,Ry0_km,U_km,LocalStrikeParallelDirection,RmaxForAnalysis_km,RmaxForAnalysisModel,PcLat,PcLon,PcZ,Epsilon_Phi_pt7,Station_review_flag,VolcanicArcFlag_ClosestPoint,Distance_fraction_in_VolcanicArcFlag_0,Distance_fraction_in_VolcanicArcFlag_1,Distance_fraction_in_VolcanicArcFlag_2,Distance_fraction_in_VolcanicArcFlag_3,StationDatabaseRegion,Station_Name,Station_Latitude_deg,Station_Longitude_deg,Sensor_Depth_m,Geomatrix_Site_Code_1st_Letter,Vs30_Selected_for_Analysis_m_s,Sigma_of_Vs30_Selected_for_Analysis_ln_Units,Vs30_Measured_Inferred_Class,Vs30_Code,Z1pt0_selected_for_analysis_m,Z1pt5_selected_for_analysis_m,Z2pt5_selected_for_analysis_m,Sigma_Z1pt0,Sigma_Z1pt5,Sigma_Z2pt5,Network,VolcanicArcFlag_Station,C1C2Class_M1_Rcutoff10km,C1NGAsubEQID_M1_Rcutoff10km,Rclosest_M1_Rcutoff10km,C1C2Class_M1_Rcutoff20km,C1NGAsubEQID_M1_Rcutoff20km,Rclosest_M1_Rcutoff20km,C1C2Class_M1_Rcutoff40km,C1NGAsubEQID_M1_Rcutoff40km,Rclosest_M1_Rcutoff40km,C1C2Class_M1_Rcutoff80km,C1NGAsubEQID_M1_Rcutoff80km,Rclosest_M1_Rcutoff80km,C1C2Class_M2_Rcutoff10km,C1NGAsubEQID_M2_Rcutoff10km,Rclosest_M2_Rcutoff10km,FractC2WithinRmax_M2_Rcutoff10km,C1C2Class_M2_Rcutoff20km,C1NGAsubEQID_M2_Rcutoff20km,Rclosest_M2_Rcutoff20km,FractC2WithinRmax_M2_Rcutoff20km,C1C2Class_M2_Rcutoff40km,C1NGAsubEQID_M2_Rcutoff40km,Rclosest_M2_Rcutoff40km,FractC2WithinRmax_M2_Rcutoff40km,C1C2Class_M2_Rcutoff80km,C1NGAsubEQID_M2_Rcutoff80km,Rclosest_M2_Rcutoff80km,FractC2WithinRmax_M2_Rcutoff80km,dtH1,PGA_g,PGV_cm_sec,PGD_cm,T = 0.01,T = 0.02,T = 0.022,T = 0.025,T = 0.029,T = 0.03,T = 0.032,T = 0.035,T = 0.036,T = 0.04,T = 0.042,T = 0.044,T = 0.045,T = 0.046,T = 0.048,T = 0.05,T = 0.055,T = 0.06,T = 0.065,T = 0.067,T = 0.07,T = 0.075,T = 0.08,T = 0.085,T = 0.09,T = 0.095,T = 0.1,T = 0.11,T = 0.12,T = 0.13,T = 0.133,T = 0.14,T = 0.15,T = 0.16,T = 0.17,T = 0.18,T = 0.19,T = 0.2,T = 0.22,T = 0.24,T = 0.25,T = 0.26,T = 0.28,T = 0.29,T = 0.3,T = 0.32,T = 0.34,T = 0.35,T = 0.36,T = 0.38,T = 0.4,T = 0.42,T = 0.44,T = 0.45,T = 0.46,T = 0.48,T = 0.5,T = 0.55,T = 0.6,T = 0.65,T = 0.667,T = 0.7,T = 0.75,T = 0.8,T = 0.85,T = 0.9,T = 0.95,T = 1.0,T = 1.1,T = 1.2,T = 1.3,T = 1.4,T = 1.5,T = 1.6,T = 1.7,T = 1.8,T = 1.9,T = 2.0,T = 2.2,T = 2.4,T = 2.5,T = 2.6,T = 2.8,T = 3.0,T = 3.2,T = 3.4,T = 3.5,T = 3.6,T = 3.8,T = 4.0,T = 4.2,T = 4.4,T = 4.6,T = 4.8,T = 5.0,T = 5.5,T = 6.0,T = 6.5,T = 7.0,T = 7.5,T = 8.0,T = 8.5,T = 9.0,T = 9.5,T = 10.0,T = 11.0,T = 12.0,T = 13.0,T = 14.0,T = 15.0,T = 20.0,EarthquakeTime,EarthquakeMagnitudeType,BackAzimuth,RuptureDistanceVar,JoynerBooreDistanceVar,GC2_ry,GC2_rx,GC2_ry0,GC2_U,GC2_T,DataProvider,StationDescription,SamplingRate,SourceFile,Rehd_median_km,Rhm_median_km,Rasp_median_km,Rrms_median_km,Rehd_unit_median_km,Rhm_unit_median_km,Rasp_unit_median_km,Rrms_unit_median_km,Database_Name
3000398.0,CentralAmerica&Mexico,3000105,3000129.0,105,2012,905.0,1442.0,7.66,10.0242,-85.3884,20.7,308.0,17.0,102.0,11.317,29.03,0.0,0.0,0.0,1.0,90.7,60.6,0.0,2.0,Central_America_S,-888.0,7.6,-888.0,36.0,7.5,2.0,-999,-999.0,SMA,A,0.134600696,0.102991575,0.118288786,-999.0,-999.0,17.542570137076723,M,-999.0,42.832204,47.5719213,15.3964778,32.8584284,52.5645993,73.33,7.089999999999996,0.0,52.44,308.0000324,80.7997187878625,RmaxTruncRegr_km,10.2399,-85.2647,-29.028,-0.552497951188745,-999.0,2.0,0.0,0.0,1.0,0.0,CentralAmerica&Mexico,GTGA,10.349,-85.178,-999.0,-999.0,281.0,0.282842712,0.0,4C-CSA,-999.0,-999.0,-999.0,-999.0,-999.0,-999.0,LIS,2.0,C1,0.0,0.0,C1,0.0,0.0,C1,0.0,0.0,C1,0.0,0.0,C1,0.0,0.0,0.0,C1,0.0,0.0,0.0,C1,0.0,0.0,0.0,C1,0.0,0.0,0.0,0.005,0.13063,21.14,9.9405,0.1311074,0.1315083,0.1310947,0.1309777,0.1316065,0.1317319,0.1320155,0.1316433,0.1314496,0.1322656,0.1327849,0.1317023,0.1320631,0.1323957,0.1325648,0.1329042,0.1337342,0.1352205,0.1355488,0.1358728,0.1367863,0.1398149,0.1395156,0.148433,0.1467844,0.1469392,0.1528534,0.1565685,0.1681522,0.178948,0.1770746,0.1794062,0.1789082,0.1947783,0.2109613,0.2255347,0.2331742,0.2342128,0.2530968,0.2896052,0.2958392,0.2908356,0.302303,0.3230883,0.3236369,0.3636166,0.4664795,0.5087311,0.5342649,0.5535477,0.5201626,0.4325527,0.3893391,0.3856885,0.3737759,0.3659445,0.3405156,0.3305232,0.3770409,0.4080453,0.3992209,0.3242948,0.2594893,0.248933,0.2928073,0.3281425,0.2971202,0.2647287,0.2650055,0.2708485,0.2590841,0.2244483,0.1769993,0.1498016,0.1366515,0.1478257,0.1467023,0.1227447,0.1046453,0.09388392,0.07796253,0.06677089,0.05454622,0.05154974,0.04891981,0.04336935,0.0394132,0.03739205,0.03375989,0.03273549,0.03143424,0.03103271,0.0300271,0.02954309,0.02834816,0.0247366,0.01842397,0.01677799,0.01665142,0.0137198,0.01207156,0.01107913,0.00968821,0.008278165,0.007103878,0.005862389,0.004729908,0.003910555,0.003195575,0.002621038,-999.0,-999,-999,-999.0,-999.0,-999.0,-999.0,-999.0,-999.0,-999.0,-999.0,-999,-999,-999.0,-999,67.2446382902959,69.7319900811482,75.6060664677107,78.7652943507468,74.4234009108651,77.7029544539144,84.7423105391984,88.0464890641097,GP
3000415.0,CentralAmerica&Mexico,3000105,3000146.0,105,2012,905.0,1442.0,7.66,10.0242,-85.3884,20.7,308.0,17.0,102.0,11.317,29.03,0.0,0.0,0.0,1.0,90.7,60.6,0.0,2.0,Central_America_S,-888.0,7.6,-888.0,36.0,7.5,2.0,-999,-999.0,SMA,A,0.160095061,0.134602819,0.049864302,-999.0,-999.0,20.851488212532427,M,-999.0,95.7307476,97.9431776,46.1531569,52.1529397,87.3645447,46.05,-91.5,-46.15,-46.15,308.0000324,80.7997187878625,RmaxTruncRegr_km,9.8149,-84.9944,-23.2249,0.160625094543525,-999.0,2.0,0.0,0.0,1.0,0.0,CentralAmerica&Mexico,PJAC,9.609,-84.623,-999.0,-999.0,425.0,0.420594817,0.0,4C-CSA,-999.0,-999.0,-999.0,-999.0,-999.0,-999.0,LIS,2.0,C1,0.0,0.0,C1,0.0,0.0,C1,0.0,0.0,C1,0.0,0.0,C1,0.0,0.0,0.0,C1,0.0,0.0,0.0,C1,0.0,0.0,0.0,C1,0.0,0.0,0.0,0.005,0.12206,12.113,4.4975,0.1229182,0.1225849,0.1243254,0.1268923,0.1272041,0.1266939,0.1255265,0.1246689,0.1259438,0.1315903,0.1340201,0.1367299,0.1378773,0.1392076,0.1411297,0.142586,0.1410802,0.1396373,0.1417696,0.1409589,0.1421286,0.1391458,0.1419941,0.1391968,0.1432291,0.1604977,0.1633893,0.1676957,0.2154335,0.2266702,0.2301524,0.2230593,0.2550241,0.3269193,0.3029189,0.2569964,0.271043,0.3134012,0.2986774,0.3829226,0.3901947,0.3255945,0.3563024,0.3726504,0.3910835,0.394823,0.416206,0.4116952,0.3670329,0.32008,0.3247962,0.3186717,0.2836194,0.2577437,0.2300985,0.1897023,0.19088,0.1740121,0.1834652,0.2313868,0.2491971,0.2783189,0.259302,0.2090661,0.2006112,0.2325536,0.2741626,0.2612107,0.1757742,0.1686638,0.1273755,0.1046642,0.0966442,0.08879819,0.08145476,0.06812353,0.05808433,0.04860291,0.03794101,0.03605193,0.03657616,0.03623302,0.02924656,0.02664059,0.02604548,0.0251981,0.02420769,0.02302665,0.01936161,0.01527705,0.01252138,0.01126587,0.009934118,0.00876303,0.007869027,0.006542053,0.005715941,0.005076961,0.004308841,0.003574166,0.003409491,0.003183091,0.002868513,0.002528607,0.002212574,0.001858792,0.001445962,0.001147636,0.0009873013,0.0008601737,0.0004883809,-999,-999,-999.0,-999.0,-999.0,-999.0,-999.0,-999.0,-999.0,-999.0,-999,-999,-999.0,-999,95.4172971661924,100.16302003339,109.092213452744,112.633272990733,88.9409506787824,96.3928128793351,112.557588513859,118.738607277878,GP
3000419.0,CentralAmerica&Mexico,3000105,3000150.0,105,2012,905.0,1442.0,7.66,10.0242,-85.3884,20.7,308.0,17.0,102.0,11.317,29.03,0.0,0.0,0.0,1.0,90.7,60.6,0.0,2.0,Central_America_S,-888.0,7.6,-888.0,36.0,7.5,2.0,-999,-999.0,SMA,A,0.323250881,0.43643836,0.209041476,-999.0,-999.0,20.40985926207022,M,-999.0,54.5066743,58.304953,4.6806159,23.9562939,48.3661708,43.34,-50.03,-4.68,-4.68,308.0000324,80.7997187878625,RmaxTruncRegr_km,9.7973,-85.0083,-22.468,-0.0495015034767371,-999.0,2.0,0.0,0.0,1.0,0.0,CentralAmerica&Mexico,PPQR,9.82,-84.936,-999.0,-999.0,392.0,0.52,0.0,4C-CSA,-999.0,-999.0,-999.0,-999.0,-999.0,-999.0,LIS,2.0,C1,0.0,0.0,C1,0.0,0.0,C1,0.0,0.0,C1,0.0,0.0,C1,0.0,0.0,0.0,C1,0.0,0.0,0.0,C1,0.0,0.0,0.0,C1,0.0,0.0,0.0,0.005,0.25919,28.631,10.245,0.2597682,0.2611359,0.26178,0.2636114,0.2642871,0.2631662,0.2614216,0.2656778,0.2658212,0.2656864,0.2665374,0.2701809,0.2706552,0.2702751,0.2715921,0.2702754,0.2747608,0.2864795,0.2993275,0.3146323,0.3246,0.2995009,0.2978048,0.2927297,0.3042036,0.31802,0.3087072,0.3143133,0.308852,0.3392991,0.3461705,0.3744497,0.414157,0.4048965,0.3896011,0.4414765,0.4570702,0.4442602,0.5286213,0.6224192,0.6220238,0.6310419,0.6891029,0.6789722,0.6718774,0.7263384,0.6660458,0.6234986,0.6483301,0.6933592,0.8254582,0.854662,0.8027266,0.77934,0.73436,0.609368,0.5364084,0.5673951,0.8503363,0.8674666,0.8187574,0.7331394,0.6634175,0.5837026,0.5487778,0.4641953,0.3501843,0.3068921,0.2596978,0.2623914,0.2505156,0.20073,0.1741126,0.157341,0.1407835,0.1253482,0.1099617,0.1049405,0.09882087,0.09026765,0.08590892,0.08131675,0.07253205,0.06534409,0.05540607,0.04860982,0.04620706,0.04396881,0.04105921,0.03717084,0.03270311,0.02954801,0.02774318,0.02606335,0.02441949,0.0205926,0.01731067,0.01458665,0.01234996,0.01104629,0.009340426,0.008129757,0.007256689,0.006307699,0.00537604,0.004011914,0.003061912,0.002502291,0.002107546,0.001813499,0.001017238,-999,-999,-999.0,-999.0,-999.0,-999.0,-999.0,-999.0,-999.0,-999.0,-999,-999,-999.0,-999,63.0793847688008,66.8367365291851,76.4343304521252,80.8091572134568,65.1498630813361,70.8416485342941,82.9189830539498,88.4232344102927,GP
3000421.0,CentralAmerica&Mexico,3000105,3000152.0,105,2012,905.0,1442.0,7.66,10.0242,-85.3884,20.7,308.0,17.0,102.0,11.317,29.03,0.0,0.0,0.0,1.0,90.7,60.6,0.0,2.0,Central_America_S,-888.0,7.6,-888.0,36.0,7.5,2.0,-999,-999.0,SMA,A,0.216179616,0.184567466,0.073521823,-999.0,-999.0,19.954642175428702,M,-999.0,63.5194334,66.8072482,9.1932985,30.4379456,59.7855023,65.95,-49.85,-4.5,-4.5,308.0000324,80.7997187878625,RmaxTruncRegr_km,9.9437,-84.8919,-28.7882,-0.385394590381466,-999.0,2.0,0.0,0.0,1.0,0.0,CentralAmerica&Mexico,PPUN,9.981,-84.81,-999.0,-999.0,225.0,0.282842712,0.0,4C-CSA,-999.0,-999.0,-999.0,-999.0,-999.0,-999.0,LIS,2.0,C1,0.0,0.0,C1,0.0,0.0,C1,0.0,0.0,C1,0.0,0.0,C1,0.0,0.0,0.0,C1,0.0,0.0,0.0,C1,0.0,0.0,0.0,C1,0.0,0.0,0.0,0.005,0.15984,21.217,9.4456,0.1648767,0.1757359,0.1785784,0.1821442,0.1793892,0.1822359,0.1837251,0.1833865,0.1863094,0.1800724,0.181288,0.1863672,0.1867727,0.1870673,0.1873098,0.1830464,0.1707623,0.1760349,0.1720368,0.1724064,0.1733025,0.1750069,0.1855939,0.1866816,0.2018342,0.2002502,0.2019134,0.225092,0.2404869,0.2774599,0.3191761,0.3826424,0.3982225,0.3582746,0.2909469,0.2646519,0.2949161,0.2850859,0.3260258,0.3239396,0.3335727,0.3189031,0.2598893,0.2824705,0.3039633,0.3621273,0.3882281,0.3874353,0.3999495,0.4246744,0.416161,0.3685628,0.3333451,0.3169698,0.3125933,0.3038915,0.2965006,0.3342297,0.290827,0.2716086,0.2862105,0.3165597,0.3569476,0.3079307,0.268365,0.2564949,0.2356227,0.2550723,0.3498037,0.3754571,0.3394269,0.2855583,0.2431283,0.2150753,0.1803134,0.1509399,0.1438335,0.1330375,0.1345409,0.1158729,0.1068238,0.09313526,0.07562561,0.0583302,0.04979317,0.04538307,0.0430181,0.04045641,0.03528341,0.03047441,0.02646873,0.02467161,0.0222669,0.02017258,0.01906631,0.0185683,0.01660424,0.01402518,0.01160835,0.0112753,0.00993902,0.008825622,0.008044748,0.007222393,0.006429959,0.005157629,0.004007274,0.003258859,0.002666569,0.002222331,-999.0,-999,-999,-999.0,-999.0,-999.0,-999.0,-999.0,-999.0,-999.0,-999.0,-999,-999,-999.0,-999,74.6760578645532,78.8482512038196,87.4207671727696,91.5635999994817,76.3724121425002,82.2340586854217,93.7828828179008,98.9807754725833,GP
3000425.0,CentralAmerica&Mexico,3000105,3000156.0,105,2012,905.0,1442.0,7.66,10.0242,-85.3884,20.7,308.0,17.0,102.0,11.317,29.03,0.0,0.0,0.0,1.0,90.7,60.6,0.0,2.0,Central_America_S,-888.0,7.6,-888.0,36.0,7.5,2.0,-999,-999.0,SMA,A,0.119306405,0.096057638,0.054044845,-999.0,-999.0,22.47583538096773,M,-999.0,126.1347077,127.8219641,70.8025235,76.5220368,121.6548742,98.6,-103.3,-57.95,-57.95,308.0000324,80.7997187878625,RmaxTruncRegr_km,9.9492,-84.8875,-29.028,0.537767882976939,-999.0,2.0,0.0,0.0,1.0,0.0,CentralAmerica&Mexico,SCCH,9.915,-84.242,-999.0,-999.0,519.0,0.429418211,0.0,4C-CSA,-999.0,-999.0,-999.0,-999.0,-999.0,-999.0,LIS,2.0,C1,0.0,0.0,C1,0.0,0.0,C1,0.0,0.0,C1,0.0,0.0,C1,0.0,0.0,0.0,C1,0.0,0.0,0.0,C1,0.0,0.0,0.0,C1,0.0,0.0,0.0,0.005,0.092756,6.7771,2.3521,0.09285568,0.09308331,0.09320953,0.09333468,0.09355882,0.09374874,0.09377728,0.0940339,0.09400722,0.09367484,0.09390216,0.0941122,0.09388372,0.0934373,0.0936249,0.09520496,0.09580073,0.09472789,0.09725913,0.09788033,0.1017654,0.1064175,0.1079006,0.1039883,0.1015326,0.1052327,0.1068886,0.1063609,0.109774,0.1332246,0.1335751,0.1267437,0.1348143,0.1455322,0.1357297,0.1528911,0.1604275,0.1611281,0.1845979,0.2031843,0.2228573,0.2375738,0.2663878,0.263117,0.2486624,0.2622695,0.3161005,0.3111463,0.2737048,0.2558359,0.2282159,0.2449665,0.2645251,0.2710099,0.2772054,0.3119828,0.3473684,0.4067439,0.3661239,0.2700363,0.2353695,0.1788825,0.1457845,0.1228591,0.08807287,0.07365641,0.0635298,0.05298115,0.0404147,0.03798189,0.03598088,0.02765856,0.02323946,0.02287563,0.01850501,0.01772191,0.01783437,0.01587278,0.01426028,0.01075596,0.00947699,0.008299076,0.008022869,0.006791919,0.006650409,0.006097015,0.00611105,0.006172761,0.006321865,0.005862519,0.004782498,0.004688377,0.004552132,0.00442068,0.004024441,0.003912834,0.003270111,0.002913478,0.002552217,0.002345582,0.002299445,0.002302266,0.002342448,0.002289707,0.002184258,0.001960619,0.001630342,0.001355826,0.001176836,0.0009668886,0.000401293,-999,-999,-999.0,-999.0,-999.0,-999.0,-999.0,-999.0,-999.0,-999.0,-999,-999,-999.0,-999,132.688305795613,136.561618935804,143.784527542581,147.146672562661,125.902189517219,133.021770229746,146.848545193676,151.768295586733,GP
3001438.0,CentralAmerica&Mexico,3000177,3000409.0,177,1995,914.0,1404.0,7.38,16.848,-98.608,23.0,289.0,15.0,85.0,16.262,30.52,0.0,0.0,0.0,1.0,51.6,55.1,0.0,2.0,Central_America_N,6.699999999999999,7.300000000000001,12.5,25.0,7.45,2.0,-999,-999.0,-999,A,0.0785320627217189,0.0704325529198098,0.047487838481344,-999.0,-999.0,6.796160498242237,M,-999.0,47.4255216,52.7084443,14.2339088,21.6114971,50.9170206,-13.07,31.47,5.670000000000002,57.27,288.9999465,97.070663259456,RmaxTruncRegr_km,16.6997,-98.8841,-16.262,-1.19600181891345,-999.0,2.0,0.0,0.0,1.0,0.0,CentralAmerica&Mexico,COPL,16.605,-98.974,0.0,-999.0,460.0,0.557135531,0.0,4C-CSA,-999.0,-999.0,-999.0,-999.0,-999.0,-999.0,COSMOS,2.0,C1,0.0,0.0,C1,0.0,0.0,C1,0.0,0.0,C1,0.0,0.0,C1,0.0,0.0,0.0,C1,0.0,0.0,0.0,C1,0.0,0.0,0.0,C1,0.0,0.0,0.0,0.01,0.074243,8.63,3.1659,0.0744912,0.0762409,0.0782426,0.07853977,0.08246683,0.0823165,0.08942904,0.09490791,0.09888046,0.105721,0.1080866,0.1105623,0.1108846,0.1103377,0.1171346,0.1195697,0.1292749,0.1301449,0.1288697,0.125936,0.1186167,0.1271643,0.1294717,0.1358213,0.1623869,0.1748712,0.1493175,0.1547055,0.1832084,0.2000556,0.1877949,0.1811662,0.1869346,0.1608376,0.1646928,0.1643849,0.1911409,0.1799286,0.174471,0.1614735,0.1719644,0.1516213,0.1284233,0.1335733,0.1400191,0.1375511,0.1710644,0.1874399,0.1921411,0.1870805,0.1668158,0.1433929,0.1285862,0.1302097,0.1347699,0.1444408,0.1410844,0.1230428,0.158832,0.1553811,0.1482147,0.1451747,0.1373484,0.1441269,0.1134217,0.1040458,0.1027403,0.09381923,0.1105633,0.1173851,0.1129734,0.1100736,0.0924679,0.09505214,0.08418044,0.06796474,0.05926719,0.05466943,0.04022321,0.02743255,0.02342868,0.02076127,0.01666476,0.01444537,0.01342958,0.01543219,0.01646632,0.01770521,0.01936358,0.01987622,0.01878877,0.01722261,0.01473237,0.01307541,0.01206311,0.009372137,0.00706772,0.006336955,-999.0,-999.0,-999.0,-999.0,-999.0,-999.0,-999.0,-999.0,-999.0,-999.0,-999.0,-999.0,-999.0,-999,-999,-999.0,-999.0,-999.0,-999.0,-999.0,-999.0,-999.0,-999.0,-999,-999,-999.0,-999,33.9986455979435,35.0419968065319,37.4904014275287,38.9324908268282,30.5640427362557,32.9195371707459,38.4508537095537,41.1816522509109,GP
3001441.0,CentralAmerica&Mexico,3000177,3000394.0,177,1995,914.0,1404.0,7.38,16.848,-98.608,23.0,289.0,15.0,85.0,16.262,30.52,0.0,0.0,0.0,1.0,51.6,55.1,0.0,2.0,Central_America_N,6.699999999999999,7.300000000000001,12.5,25.0,7.45,2.0,-999,-999.0,-999,A,0.0612925170466043,0.0495019597357531,0.031918204049059,-999.0,-999.0,5.146291075034106,M,-999.0,105.8932561,108.3622706,82.8486464,86.5756745,109.9870056,36.4,108.68,82.88,134.48,288.9999465,97.070663259456,RmaxTruncRegr_km,16.954,-98.793,-24.2724,1.05751961508214,-999.0,2.0,0.0,0.0,1.0,0.0,CentralAmerica&Mexico,OCTT,17.25,-99.511,-999.0,-999.0,519.0,0.429418211,0.0,4C-CSA,-999.0,-999.0,-999.0,-999.0,-999.0,-999.0,COSMOS,2.0,C1,0.0,0.0,C1,0.0,0.0,C1,0.0,0.0,C1,0.0,0.0,C1,0.0,0.0,0.0,C1,0.0,0.0,0.0,C1,0.0,0.0,0.0,C1,0.0,0.0,0.0,0.01,0.059122,2.72,0.36454,0.05931679,0.05992305,0.06167793,0.06162973,0.06141883,0.06194284,0.0621714,0.06300197,0.06321584,0.06810819,0.07280565,0.07545725,0.07438438,0.07255036,0.07721376,0.0770461,0.07803769,0.09537565,0.0961926,0.09749655,0.09646114,0.09503512,0.1051394,0.1152788,0.1039607,0.1185476,0.1311671,0.1510036,0.131479,0.144128,0.1398639,0.1534785,0.1676818,0.1738955,0.176265,0.176251,0.1802802,0.2045227,0.2075344,0.2161819,0.1927985,0.1860771,0.2157927,0.2309334,0.2152174,0.1758143,0.1697852,0.1568981,0.1496822,0.1457369,0.1476825,0.126115,0.1098508,0.10359,0.1010138,0.09257421,0.08295365,0.06111461,0.05800821,0.04897821,0.04800601,0.04109173,0.02825386,0.02630866,0.03347054,0.02999115,0.03014237,0.02828039,0.01857484,0.01389349,0.01284937,0.01518309,0.01478214,0.0118121,0.009260741,0.008780676,0.008068107,0.007362485,0.006280338,0.004894837,0.004274901,0.003763682,0.003486401,0.003062536,0.002739904,0.002412704,0.002291344,0.002149046,0.002013016,0.001766837,0.001840303,0.001834189,0.001652193,0.001417743,0.001354128,-999.0,-999.0,-999.0,-999.0,-999.0,-999.0,-999.0,-999.0,-999.0,-999.0,-999.0,-999.0,-999.0,-999.0,-999.0,-999.0,-999,-999,-999.0,-999.0,-999.0,-999.0,-999.0,-999.0,-999.0,-999.0,-999,-999,-999.0,-999,120.793616654874,121.216389418504,122.077121729722,122.521414338791,115.021546001513,116.769588272333,120.196264605029,121.83315293826,GP
