NGAsubRSN,DatabaseRegion,NGAsubEQID,NGAsubSSN,Earthquake_Name,YEAR,MODY,HRMN,Earthquake_Magnitude,Hypocenter_Latitude_deg,Hypocenter_Longitude_deg,Hypocenter_Depth_km,Strike_deg,Dip_deg,Rake_deg,Ztor_km,Zbor_km,Intra_Inter_Flag,Finite_Fault_Model,Multiple_Event,Number_of_Segment,Length_km,Width_km,Source_review_flag,Fault_Type,Subduction_Zone_Name,Alternate_Saturation_Magnitude_10MPa,Preferred_Saturation_Magnitude_10MPa,Alternate_Fault_maximum_width_km,Preferred_Fault_maximum_width_km,Magnitude_break_interface,VolcanicArcFlag_Hypocenter,Interface_Event_FromHypocenterDepth,InterfaceFlag_FromHypocenterDepth,Instrument_Type,Accelerograph_Seismograph,Unfiltered_PGA_H1_g,Unfiltered_PGA_H2_g,Unfiltered_PGA_V_g,Late_P_trigger_flag_1ptYes_0ptNo,Shortest_Usable_Period_for_PSa_Ave_Component_sec,Longest_Usable_Period_for_PSa_Ave_Component_sec,Magnitude_Type,DbQualityFlag,EpiD_km,HypD_km,Rjb_km,ClstD_km,Rrms_km,Rx_km,Ry_km,Ry0_km,U_km,LocalStrikeParallelDirection,RmaxForAnalysis_km,RmaxForAnalysisModel,PcLat,PcLon,PcZ,Epsilon_Phi_pt7,Station_review_flag,VolcanicArcFlag_ClosestPoint,Distance_fraction_in_VolcanicArcFlag_0,Distance_fraction_in_VolcanicArcFlag_1,Distance_fraction_in_VolcanicArcFlag_2,Distance_fraction_in_VolcanicArcFlag_3,StationDatabaseRegion,Station_Name,Station_Latitude_deg,Station_Longitude_deg,Sensor_Depth_m,Geomatrix_Site_Code_1st_Letter,Vs30_Selected_for_Analysis_m_s,Sigma_of_Vs30_Selected_for_Analysis_ln_Units,Vs30_Measured_Inferred_Class,Vs30_Code,Z1pt0_selected_for_analysis_m,Z1pt5_selected_for_analysis_m,Z2pt5_selected_for_analysis_m,Sigma_Z1pt0,Sigma_Z1pt5,Sigma_Z2pt5,Network,VolcanicArcFlag_Station,C1C2Class_M1_Rcutoff10km,C1NGAsubEQID_M1_Rcutoff10km,Rclosest_M1_Rcutoff10km,C1C2Class_M1_Rcutoff20km,C1NGAsubEQID_M1_Rcutoff20km,Rclosest_M1_Rcutoff20km,C1C2Class_M1_Rcutoff40km,C1NGAsubEQID_M1_Rcutoff40km,Rclosest_M1_Rcutoff40km,C1C2Class_M1_Rcutoff80km,C1NGAsubEQID_M1_Rcutoff80km,Rclosest_M1_Rcutoff80km,C1C2Class_M2_Rcutoff10km,C1NGAsubEQID_M2_Rcutoff10km,Rclosest_M2_Rcutoff10km,FractC2WithinRmax_M2_Rcutoff10km,C1C2Class_M2_Rcutoff20km,C1NGAsubEQID_M2_Rcutoff20km,Rclosest_M2_Rcutoff20km,FractC2WithinRmax_M2_Rcutoff20km,C1C2Class_M2_Rcutoff40km,C1NGAsubEQID_M2_Rcutoff40km,Rclosest_M2_Rcutoff40km,FractC2WithinRmax_M2_Rcutoff40km,C1C2Class_M2_Rcutoff80km,C1NGAsubEQID_M2_Rcutoff80km,Rclosest_M2_Rcutoff80km,FractC2WithinRmax_M2_Rcutoff80km,dtH1,PGA_g,PGV_cm_sec,PGD_cm,T = 0.01,T = 0.02,T = 0.022,T = 0.025,T = 0.029,T = 0.03,T = 0.032,T = 0.035,T = 0.036,T = 0.04,T = 0.042,T = 0.044,T = 0.045,T = 0.046,T = 0.048,T = 0.05,T = 0.055,T = 0.06,T = 0.065,T = 0.067,T = 0.07,T = 0.075,T = 0.08,T = 0.085,T = 0.09,T = 0.095,T = 0.1,T = 0.11,T = 0.12,T = 0.13,T = 0.133,T = 0.14,T = 0.15,T = 0.16,T = 0.17,T = 0.18,T = 0.19,T = 0.2,T = 0.22,T = 0.24,T = 0.25,T = 0.26,T = 0.28,T = 0.29,T = 0.3,T = 0.32,T = 0.34,T = 0.35,T = 0.36,T = 0.38,T = 0.4,T = 0.42,T = 0.44,T = 0.45,T = 0.46,T = 0.48,T = 0.5,T = 0.55,T = 0.6,T = 0.65,T = 0.667,T = 0.7,T = 0.75,T = 0.8,T = 0.85,T = 0.9,T = 0.95,T = 1.0,T = 1.1,T = 1.2,T = 1.3,T = 1.4,T = 1.5,T = 1.6,T = 1.7,T = 1.8,T = 1.9,T = 2.0,T = 2.2,T = 2.4,T = 2.5,T = 2.6,T = 2.8,T = 3.0,T = 3.2,T = 3.4,T = 3.5,T = 3.6,T = 3.8,T = 4.0,T = 4.2,T = 4.4,T = 4.6,T = 4.8,T = 5.0,T = 5.5,T = 6.0,T = 6.5,T = 7.0,T = 7.5,T = 8.0,T = 8.5,T = 9.0,T = 9.5,T = 10.0,T = 11.0,T = 12.0,T = 13.0,T = 14.0,T = 15.0,T = 20.0,EarthquakeTime,EarthquakeMagnitudeType,BackAzimuth,RuptureDistanceVar,JoynerBooreDistanceVar,GC2_ry,GC2_rx,GC2_ry0,GC2_U,GC2_T,DataProvider,StationDescription,SamplingRate,SourceFile,Rehd_median_km,Rhm_median_km,Rasp_median_km,Rrms_median_km,Rehd_unit_median_km,Rhm_unit_median_km,Rasp_unit_median_km,Rrms_unit_median_km,Database_Name
3001442.0,CentralAmerica&Mexico,3000177,3000418.0,177,1995,914.0,1404.0,7.38,16.848,-98.608,23.0,289.0,15.0,85.0,16.262,30.52,0.0,0.0,0.0,1.0,51.6,55.1,0.0,2.0,Central_America_N,6.699999999999999,7.300000000000001,12.5,25.0,7.45,2.0,-999,-999.0,-999,A,0.0425055593382681,0.0321510644524671,0.0196056903718014,-999.0,-999.0,4.030634259392736,M,-999.0,112.2443787,114.5766143,89.4694746,91.6753966,116.4471415,16.54,115.3,89.5,141.1,288.9999465,97.070663259456,RmaxTruncRegr_km,16.7964,-98.8495,-19.3086,0.400565637190976,-999.0,2.0,0.0,0.0,1.0,0.0,CentralAmerica&Mexico,POZU,17.1,-99.63,-999.0,-999.0,517.0,0.429418211,0.0,4C-CSA,-999.0,-999.0,-999.0,-999.0,-999.0,-999.0,COSMOS,2.0,C1,0.0,0.0,C1,0.0,0.0,C1,0.0,0.0,C1,0.0,0.0,C1,0.0,0.0,0.0,C1,0.0,0.0,0.0,C1,0.0,0.0,0.0,C1,0.0,0.0,0.0,0.004,0.034079,1.2946,0.24147,0.03462608,0.03683906,0.03711127,0.03846776,0.04185937,0.04273083,0.04422446,0.05046305,0.05492208,0.06067773,0.06404144,0.06823921,0.06890259,0.06922592,0.07262854,0.07858933,0.08871791,0.08684213,0.08999223,0.08963305,0.08793276,0.09363275,0.1053818,0.1044079,0.09744855,0.09760951,0.1063833,0.1033017,0.1094205,0.1114287,0.1099994,0.1053017,0.09098127,0.08355398,0.06811916,0.06995089,0.07612675,0.07196882,0.07127932,0.05761939,0.05712266,0.05721662,0.05411907,0.05143098,0.05049884,0.04714864,0.0460443,0.0426111,0.04400333,0.038414,0.03368303,0.03226154,0.02931793,0.02996045,0.03093122,0.02792875,0.02925205,0.02725444,0.02615817,0.0190767,0.0183175,0.01720217,0.0157226,0.01653104,0.0176053,0.01738882,0.01683101,0.01450743,0.01005945,0.01045202,0.01138349,0.01159447,0.01108031,0.008996873,0.0069932,0.005822488,0.005011783,0.004160821,0.003609273,0.002934752,0.002877173,0.00320407,0.003980614,0.003453717,0.002704004,0.002531362,0.002328402,0.002163945,0.001787647,0.001683608,-999.0,-999.0,-999.0,-999.0,-999.0,-999.0,-999.0,-999.0,-999.0,-999.0,-999.0,-999.0,-999.0,-999.0,-999.0,-999.0,-999.0,-999.0,-999.0,-999.0,-999.0,-999,-999,-999.0,-999.0,-999.0,-999.0,-999.0,-999.0,-999.0,-999.0,-999,-999,-999.0,-999,118.246364931853,118.796096891025,119.920663816964,120.501093387381,112.65086815621,114.520555254722,118.237524625859,120.023895311219,GP
3001445.0,CentralAmerica&Mexico,3000177,3000421.0,177,1995,914.0,1404.0,7.38,16.848,-98.608,23.0,289.0,15.0,85.0,16.262,30.52,0.0,0.0,0.0,1.0,51.6,55.1,0.0,2.0,Central_America_N,6.699999999999999,7.300000000000001,12.5,25.0,7.45,2.0,-999,-999.0,-999,A,0.10247052426928,0.0810278774773992,0.0590342142787155,-999.0,-999.0,3.273318768734577,M,-999.0,67.6105829,71.415621,38.0087567,41.3414832,71.9920229,-6.09,63.35000000000001,37.55,89.15,288.9999465,97.070663259456,RmaxTruncRegr_km,16.6997,-98.8841,-16.262,0.252458893800024,-999.0,2.0,0.0,0.0,1.0,0.0,CentralAmerica&Mexico,VIGA,16.757,-99.236,-999.0,-999.0,429.0,0.429418211,0.0,4C-CSA,-999.0,-999.0,-999.0,-999.0,-999.0,-999.0,COSMOS,2.0,C1,0.0,0.0,C1,0.0,0.0,C1,0.0,0.0,C1,0.0,0.0,C1,0.0,0.0,0.0,C1,0.0,0.0,0.0,C1,0.0,0.0,0.0,C1,0.0,0.0,0.0,0.005,0.097376,3.5891,0.74465,0.0979907,0.1024247,0.1093656,0.1150375,0.1162753,0.1181348,0.1286071,0.1468183,0.1486884,0.1566509,0.1785727,0.1926276,0.2030181,0.2095506,0.2231981,0.2386708,0.229599,0.2170147,0.2398873,0.2218944,0.2090529,0.1942376,0.2176411,0.2366078,0.2843296,0.3121268,0.2987768,0.3099898,0.3305699,0.3866428,0.3784801,0.3501617,0.2755377,0.2514266,0.2469682,0.2440633,0.2044047,0.1888018,0.1532609,0.1483518,0.1477034,0.1368429,0.1129152,0.1047288,0.1036652,0.1149939,0.1115751,0.1098466,0.09446563,0.09462974,0.09727892,0.0972105,0.08250838,0.07077934,0.06634635,0.06993409,0.07174186,0.0916781,0.08972287,0.07671335,0.06494889,0.0654222,0.0556085,0.04607401,0.03753359,0.03883195,0.03616628,0.02954577,0.03777488,0.03694321,0.03335072,0.02559126,0.01737734,0.01805525,0.02176869,0.02238091,0.02072213,0.01848267,0.01442988,0.01009424,0.008346939,0.007588729,0.006907541,0.006474976,0.005979876,-999.0,-999.0,-999.0,-999.0,-999.0,-999.0,-999.0,-999.0,-999.0,-999.0,-999.0,-999.0,-999.0,-999.0,-999.0,-999.0,-999.0,-999.0,-999.0,-999.0,-999.0,-999.0,-999.0,-999.0,-999.0,-999.0,-999,-999,-999.0,-999.0,-999.0,-999.0,-999.0,-999.0,-999.0,-999.0,-999,-999,-999.0,-999,62.3507836443754,63.4204143152439,65.5582677993597,66.6701828345729,54.554603993687,57.7943156800782,64.3386657250241,67.2885631459459,GP
4000252.0,Japan,4000001,4000252.0,Tohoku,2011,311.0,546.0,9.12,38.1165,142.823,17.4965,200.0,12.3,88.0,8.65,47.263,0.0,1.0,0.0,3.0,482.0,186.0,0.0,2.0,Japan_Pac,8.2,7.6,74.0,37.0,8.31,2.0,-999,-999.0,-999,A,0.0313399488782272,0.039114330295712,0.0181545725462937,-999.0,0.0,191.84868511,M,-999.0,476.7452879,477.0662397,179.4478895,185.5676564,351.0681252,282.89,381.55,140.54999999999995,622.55,200.7603133,243.773131786193,RmaxTruncRegr_km,36.0075,140.6872,-47.2632,-0.33207031438363,-999.0,2.0,0.0,0.0,0.9407,0.0593,Japan,40320,35.0482,139.0925,-999.0,-999.0,270.5365579,0.405171473,0.0,2J_3J,240.0,240.0,543.0,1.702,1.364,1.157,JMA,3.0,C1,0.0,0.0,C1,0.0,0.0,C1,0.0,0.0,C1,0.0,0.0,C1,0.0,0.0,0.0,C1,0.0,0.0,0.0,C1,0.0,0.0,0.0,C1,0.0,0.0,0.0,0.01,0.03333,7.558,39.674,0.03337192,0.03349864,0.03353915,0.03360831,0.03370002,0.03372534,0.03377955,0.03387221,0.03390782,0.03405946,0.03415139,0.0342645,0.03431547,0.03438064,0.03440437,0.03451634,0.03484327,0.03550798,0.0364811,0.03791867,0.03933818,0.04100229,0.04165952,0.04073213,0.04079975,0.04021737,0.04132888,0.04511123,0.049031,0.05322977,0.05395225,0.05439124,0.06193692,0.06288906,0.0659707,0.07227721,0.07339639,0.0762777,0.08756831,0.1113729,0.1155283,0.1111007,0.1153264,0.1309053,0.1356155,0.1347134,0.1257715,0.1196121,0.1189927,0.1174076,0.09642818,0.08870616,0.08190921,0.08052181,0.08186382,0.07935774,0.07646332,0.06187361,0.05642336,0.04849647,0.05391786,0.05428982,0.05381013,0.0515317,0.04461718,0.03662757,0.03286694,0.03413957,0.03815474,0.0342933,0.03314281,0.02787424,0.02377809,0.02231623,0.02106544,0.01816724,0.01685558,0.01965033,0.01849202,0.01861688,0.01736709,0.01591916,0.01330192,0.01085779,0.01089027,0.01012607,0.009437399,0.009023627,0.008525915,0.007914862,0.007373759,0.006502834,0.00595336,0.005639181,0.004933731,0.005088703,0.005087045,0.005156475,0.006059753,0.006421463,0.007101032,0.00631912,0.005420777,0.004369976,0.003723844,0.003613188,0.004058728,0.004377283,0.004313225,0.003885305,0.005454561,-999,-999,-999.0,-999.0,-999.0,-999.0,-999.0,-999.0,-999.0,-999.0,-999,-999,-999.0,-999,458.38141973201,468.465106084245,490.381724469023,497.993599633149,387.484964345108,411.083954528928,453.264621035755,467.1641303827,GP
4000013.0,Japan,4000001,4000013.0,Tohoku,2011,311.0,546.0,9.12,38.1165,142.823,17.4965,200.0,12.3,88.0,8.65,47.263,0.0,1.0,0.0,3.0,482.0,186.0,0.0,2.0,Japan_Pac,8.2,7.6,74.0,37.0,8.31,2.0,-999,-999.0,-999,A,0.128175436900244,0.121745765651086,0.0498630104005389,-999.0,0.0,91.857467065,M,-999.0,273.1179747,273.6778318,105.5274219,115.6280539,217.8145354,277.65,-231.18,0.0,9.82,200.7603133,243.773131786193,RmaxTruncRegr_km,39.9509,142.471,-47.2632,0.187320880575403,-999.0,2.0,0.0,0.0,1.0,0.0,Japan,41203,40.2722,141.3037,-999.0,-999.0,365.3050875,0.288291031,0.0,2J_3J,235.0,339.0,392.0,1.702,1.364,1.157,JMA,2.0,C1,0.0,0.0,C1,0.0,0.0,C1,0.0,0.0,C1,0.0,0.0,C1,0.0,0.0,0.0,C1,0.0,0.0,0.0,C1,0.0,0.0,0.0,C1,0.0,0.0,0.0,0.01,0.12305,14.003,88.266,0.1231984,0.1236439,0.1238415,0.1239838,0.1238632,0.1235809,0.12375,0.1254575,0.1258714,0.1260945,0.1259375,0.1265798,0.1264143,0.1265524,0.1276196,0.1294392,0.1329615,0.1347175,0.1403501,0.1426862,0.143792,0.1472781,0.1399023,0.1349432,0.1430394,0.1453825,0.1450332,0.1458552,0.1464618,0.1606337,0.1611204,0.1768519,0.2121301,0.236778,0.239535,0.2779193,0.3022085,0.3391001,0.5231706,0.5380306,0.5184139,0.4522822,0.4150989,0.4514652,0.4528119,0.3797192,0.3448051,0.3256916,0.2918022,0.2872828,0.2905693,0.2446862,0.2115253,0.197973,0.1888649,0.1629018,0.1778179,0.1907158,0.184671,0.163195,0.1687872,0.172999,0.171159,0.1439076,0.1575742,0.139833,0.1343705,0.1396089,0.1399534,0.120751,0.1238215,0.1023665,0.08768308,0.088406,0.09769076,0.09764215,0.08959763,0.07679095,0.06808733,0.06929313,0.0599674,0.04792634,0.04526376,0.03851571,0.03479688,0.03035579,0.02984853,0.03087005,0.02970131,0.03071418,0.02656013,0.02248591,0.01865413,0.01556844,0.01574383,0.01494269,0.01340403,0.00980657,0.008091498,0.00698399,0.00659865,0.006636175,0.007324266,0.007243679,0.008425775,0.008173144,0.007987616,0.007785735,0.007389037,0.006904926,0.005385679,-999,-999,-999.0,-999.0,-999.0,-999.0,-999.0,-999.0,-999.0,-999.0,-999,-999,-999.0,-999,281.942388942918,290.837070149449,308.115274650057,315.841904898963,254.300377544645,273.44166228999,313.832825836749,329.529764291277,GP
4000014.0,Japan,4000001,4000014.0,Tohoku,2011,311.0,546.0,9.12,38.1165,142.823,17.4965,200.0,12.3,88.0,8.65,47.263,0.0,1.0,0.0,3.0,482.0,186.0,0.0,2.0,Japan_Pac,8.2,7.6,74.0,37.0,8.31,2.0,-999,-999.0,-999,A,0.132469472894527,0.0921472127983449,0.0535862722404355,-999.0,0.0,59.320781501,M,-999.0,247.5597966,248.1773165,64.7027839,80.126527,179.7892218,236.77,-235.39,0.0,5.61,200.7603133,243.773131786193,RmaxTruncRegr_km,39.9909,142.4902,-47.2632,-0.897279012390273,-999.0,2.0,0.0,0.0,1.0,0.0,Japan,41204,40.1894,141.7754,-999.0,-999.0,359.3278861,0.376482266,0.0,2J_3J,224.0,248.0,314.0,1.702,1.364,1.157,JMA,2.0,C1,0.0,0.0,C1,0.0,0.0,C1,0.0,0.0,C1,0.0,0.0,C1,0.0,0.0,0.0,C1,0.0,0.0,0.0,C1,0.0,0.0,0.0,C1,0.0,0.0,0.0,0.01,0.11167,13.839,75.594,0.1117842,0.1121268,0.1122619,0.1126382,0.1129922,0.1133165,0.1135451,0.1136202,0.1135354,0.1139311,0.1150855,0.1162433,0.1163182,0.1162601,0.1165302,0.1165532,0.1171252,0.1171691,0.1223193,0.121191,0.1210103,0.1196367,0.1403529,0.1477578,0.1617682,0.1654227,0.170953,0.1917557,0.214046,0.2337639,0.250871,0.2812026,0.3094254,0.3271085,0.3369223,0.2953913,0.295066,0.2875104,0.3102716,0.347577,0.3309881,0.3281129,0.3219126,0.2850096,0.2572344,0.2138983,0.1993898,0.1900523,0.1750664,0.1680232,0.1730736,0.170629,0.1667514,0.177857,0.177587,0.1706526,0.1740786,0.1830697,0.2351236,0.310822,0.3088973,0.2894496,0.2841041,0.3035703,0.2805786,0.2782467,0.2523566,0.2579748,0.2217225,0.1693879,0.1357637,0.1251096,0.1355257,0.1416206,0.1145791,0.09799941,0.08396687,0.07210818,0.0616012,0.04657659,0.04586789,0.0434088,0.03995156,0.03495141,0.03115961,0.03096868,0.02969364,0.02619906,0.01957269,0.01837745,0.01697418,0.01632874,0.01545676,0.01332632,0.01124585,0.01020563,0.009521107,0.00864346,0.009434739,0.009983617,0.009042869,0.007878022,0.007690872,0.006510594,0.007004577,0.006781962,0.005337376,0.004318893,0.00425948,0.004802397,0.005473337,-999,-999,-999.0,-999.0,-999.0,-999.0,-999.0,-999.0,-999.0,-999.0,-999,-999,-999.0,-999,252.631147342692,261.88308216876,280.390674724451,289.517164270498,207.175348337901,234.398800567763,288.788072072305,312.097550587058,GP
4000015.0,Japan,4000001,4000015.0,Tohoku,2011,311.0,546.0,9.12,38.1165,142.823,17.4965,200.0,12.3,88.0,8.65,47.263,0.0,1.0,0.0,3.0,482.0,186.0,0.0,2.0,Japan_Pac,8.2,7.6,74.0,37.0,8.31,2.0,-999,-999.0,-999,A,0.297994663975182,0.346639824639969,0.167420031670686,-999.0,0.0,64.619749928,M,-999.0,198.0311612,198.8025863,85.1002692,97.3440593,166.301832,258.67,-122.66,0.0,118.34,200.7603133,243.773131786193,RmaxTruncRegr_km,39.0361,142.0393,-47.2632,1.22612621670764,-999.0,2.0,0.0,0.0,1.0,0.0,Japan,41206,39.2929,141.1095,-999.0,-999.0,377.7768291,0.333294122,0.0,2J_3J,96.0,201.0,1367.0,1.702,1.364,1.157,JMA,2.0,C1,0.0,0.0,C1,0.0,0.0,C1,0.0,0.0,C1,0.0,0.0,C1,0.0,0.0,0.0,C1,0.0,0.0,0.0,C1,0.0,0.0,0.0,C1,0.0,0.0,0.0,0.01,0.3568,30.425,51.754,0.3600256,0.3927219,0.404963,0.4903736,0.6008688,0.6157891,0.6370543,0.6488648,0.6398824,0.5923073,0.5667552,0.5473245,0.5307063,0.5120764,0.4839953,0.4646968,0.4985818,0.4880783,0.4624151,0.4848317,0.5063756,0.5879757,0.6126166,0.6438602,0.6275122,0.6930534,0.6920983,0.6604658,0.6034372,0.7275544,0.7316387,0.7877109,0.8403434,0.6867138,0.6398324,0.6131143,0.6308923,0.7070648,0.8024523,1.140019,1.135721,1.024617,0.8998663,0.9593783,0.8888782,0.8175279,0.8793603,0.8773528,0.9084073,0.893151,0.848878,0.8017323,0.7705187,0.7272331,0.6684533,0.6106004,0.6101263,0.7751251,0.6197701,0.396657,0.3609708,0.3621064,0.3537891,0.3562351,0.3873028,0.3438841,0.3270296,0.3817886,0.4252003,0.4461064,0.4644325,0.3990325,0.2926644,0.2333088,0.1742647,0.1555057,0.140792,0.1133156,0.07187434,0.05679357,0.05322325,0.04901785,0.04387964,0.03390326,0.03536309,0.03920911,0.03687931,0.03439184,0.03309149,0.0282192,0.02719637,0.02470796,0.02113055,0.01879579,0.01897418,0.01710227,0.01578992,0.01417783,0.013554,0.01128953,0.01002078,0.008283364,0.007860362,0.007669494,0.007595975,0.006508548,0.006286244,0.005900392,0.005039871,0.004317232,0.003874232,-999,-999,-999.0,-999.0,-999.0,-999.0,-999.0,-999.0,-999.0,-999.0,-999,-999,-999.0,-999,218.100193624031,229.66903130014,243.599910055882,249.571973245428,211.711924285722,224.268301567422,252.593305198537,265.050691796102,GP
4000016.0,Japan,4000001,4000016.0,Tohoku,2011,311.0,546.0,9.12,38.1165,142.823,17.4965,200.0,12.3,88.0,8.65,47.263,0.0,1.0,0.0,3.0,482.0,186.0,0.0,2.0,Japan_Pac,8.2,7.6,74.0,37.0,8.31,2.0,-999,-999.0,-999,A,0.219512323579181,0.216526333873783,0.103902877843096,-999.0,0.0,24.698513733,M,-999.0,184.6708718,185.4978663,76.7545079,90.13914,156.8834509,250.54,-106.18,0.0,134.82,200.7603133,243.773131786193,RmaxTruncRegr_km,38.8977,141.975,-47.2632,0.342987246577311,-999.0,2.0,0.0,0.0,1.0,0.0,Japan,41207,39.1292,141.1381,-999.0,-999.0,353.6568315,0.273291855,0.0,2J_3J,181.0,375.0,1635.0,1.702,1.364,1.157,JMA,2.0,C1,0.0,0.0,C1,0.0,0.0,C1,0.0,0.0,C1,0.0,0.0,C1,0.0,0.0,0.0,C1,0.0,0.0,0.0,C1,0.0,0.0,0.0,C1,0.0,0.0,0.0,0.01,0.21709,27.973,52.657,0.2178424,0.2209212,0.2226175,0.2299129,0.2398524,0.2397245,0.2382769,0.2323553,0.2370549,0.2577016,0.2606031,0.2665006,0.2718628,0.2755035,0.2719802,0.2639632,0.2746716,0.2810883,0.3292024,0.3387832,0.3704466,0.3956444,0.4242102,0.4643593,0.5021279,0.4915204,0.4962051,0.5007347,0.6356476,0.6491012,0.6543372,0.6961362,0.5925282,0.565792,0.5566821,0.4931132,0.4638835,0.5038468,0.5506839,0.5900385,0.529727,0.5231238,0.4883408,0.5087282,0.5417541,0.5503834,0.5413053,0.5517956,0.5722738,0.5376936,0.5119747,0.4910949,0.4777704,0.4865319,0.4993225,0.4679661,0.4885485,0.4738348,0.4376195,0.4188852,0.3774925,0.3565053,0.363911,0.3395298,0.3597578,0.3455274,0.3748941,0.3271957,0.3649344,0.3780875,0.3724162,0.2917827,0.2433316,0.2192037,0.2500956,0.2793292,0.2468422,0.1982247,0.1755123,0.1632196,0.1581375,0.1680146,0.1519341,0.1398787,0.1143287,0.1039681,0.1093972,0.1111137,0.1078622,0.0913832,0.07610866,0.06659696,0.05627595,0.05142755,0.04170721,0.03091233,0.02901559,0.02519277,0.02019202,0.01666827,0.01602504,0.0140612,0.01435306,0.01578473,0.01335236,0.01215906,0.01156772,0.00928458,0.00697783,0.005752813,0.00499486,-999,-999,-999.0,-999.0,-999.0,-999.0,-999.0,-999.0,-999.0,-999.0,-999,-999,-999.0,-999,207.415772402928,216.594632617864,232.344585161206,237.358033853159,202.007768020358,214.793547209777,242.638095680404,255.486253161266,GP
