NGAsubRSN,DatabaseRegion,NGAsubEQID,NGAsubSSN,Earthquake_Name,YEAR,MODY,HRMN,Earthquake_Magnitude,Hypocenter_Latitude_deg,Hypocenter_Longitude_deg,Hypocenter_Depth_km,Strike_deg,Dip_deg,Rake_deg,Ztor_km,Zbor_km,Intra_Inter_Flag,Finite_Fault_Model,Multiple_Event,Number_of_Segment,Length_km,Width_km,Source_review_flag,Fault_Type,Subduction_Zone_Name,Alternate_Saturation_Magnitude_10MPa,Preferred_Saturation_Magnitude_10MPa,Alternate_Fault_maximum_width_km,Preferred_Fault_maximum_width_km,Magnitude_break_interface,VolcanicArcFlag_Hypocenter,Interface_Event_FromHypocenterDepth,InterfaceFlag_FromHypocenterDepth,Instrument_Type,Accelerograph_Seismograph,Unfiltered_PGA_H1_g,Unfiltered_PGA_H2_g,Unfiltered_PGA_V_g,Late_P_trigger_flag_1ptYes_0ptNo,Shortest_Usable_Period_for_PSa_Ave_Component_sec,Longest_Usable_Period_for_PSa_Ave_Component_sec,Magnitude_Type,DbQualityFlag,EpiD_km,HypD_km,Rjb_km,ClstD_km,Rrms_km,Rx_km,Ry_km,Ry0_km,U_km,LocalStrikeParallelDirection,RmaxForAnalysis_km,RmaxForAnalysisModel,PcLat,PcLon,PcZ,Epsilon_Phi_pt7,Station_review_flag,VolcanicArcFlag_ClosestPoint,Distance_fraction_in_VolcanicArcFlag_0,Distance_fraction_in_VolcanicArcFlag_1,Distance_fraction_in_VolcanicArcFlag_2,Distance_fraction_in_VolcanicArcFlag_3,StationDatabaseRegion,Station_Name,Station_Latitude_deg,Station_Longitude_deg,Sensor_Depth_m,Geomatrix_Site_Code_1st_Letter,Vs30_Selected_for_Analysis_m_s,Sigma_of_Vs30_Selected_for_Analysis_ln_Units,Vs30_Measured_Inferred_Class,Vs30_Code,Z1pt0_selected_for_analysis_m,Z1pt5_selected_for_analysis_m,Z2pt5_selected_for_analysis_m,Sigma_Z1pt0,Sigma_Z1pt5,Sigma_Z2pt5,Network,VolcanicArcFlag_Station,C1C2Class_M1_Rcutoff10km,C1NGAsubEQID_M1_Rcutoff10km,Rclosest_M1_Rcutoff10km,C1C2Class_M1_Rcutoff20km,C1NGAsubEQID_M1_Rcutoff20km,Rclosest_M1_Rcutoff20km,C1C2Class_M1_Rcutoff40km,C1NGAsubEQID_M1_Rcutoff40km,Rclosest_M1_Rcutoff40km,C1C2Class_M1_Rcutoff80km,C1NGAsubEQID_M1_Rcutoff80km,Rclosest_M1_Rcutoff80km,C1C2Class_M2_Rcutoff10km,C1NGAsubEQID_M2_Rcutoff10km,Rclosest_M2_Rcutoff10km,FractC2WithinRmax_M2_Rcutoff10km,C1C2Class_M2_Rcutoff20km,C1NGAsubEQID_M2_Rcutoff20km,Rclosest_M2_Rcutoff20km,FractC2WithinRmax_M2_Rcutoff20km,C1C2Class_M2_Rcutoff40km,C1NGAsubEQID_M2_Rcutoff40km,Rclosest_M2_Rcutoff40km,FractC2WithinRmax_M2_Rcutoff40km,C1C2Class_M2_Rcutoff80km,C1NGAsubEQID_M2_Rcutoff80km,Rclosest_M2_Rcutoff80km,FractC2WithinRmax_M2_Rcutoff80km,dtH1,PGA_g,PGV_cm_sec,PGD_cm,T = 0.01,T = 0.02,T = 0.022,T = 0.025,T = 0.029,T = 0.03,T = 0.032,T = 0.035,T = 0.036,T = 0.04,T = 0.042,T = 0.044,T = 0.045,T = 0.046,T = 0.048,T = 0.05,T = 0.055,T = 0.06,T = 0.065,T = 0.067,T = 0.07,T = 0.075,T = 0.08,T = 0.085,T = 0.09,T = 0.095,T = 0.1,T = 0.11,T = 0.12,T = 0.13,T = 0.133,T = 0.14,T = 0.15,T = 0.16,T = 0.17,T = 0.18,T = 0.19,T = 0.2,T = 0.22,T = 0.24,T = 0.25,T = 0.26,T = 0.28,T = 0.29,T = 0.3,T = 0.32,T = 0.34,T = 0.35,T = 0.36,T = 0.38,T = 0.4,T = 0.42,T = 0.44,T = 0.45,T = 0.46,T = 0.48,T = 0.5,T = 0.55,T = 0.6,T = 0.65,T = 0.667,T = 0.7,T = 0.75,T = 0.8,T = 0.85,T = 0.9,T = 0.95,T = 1.0,T = 1.1,T = 1.2,T = 1.3,T = 1.4,T = 1.5,T = 1.6,T = 1.7,T = 1.8,T = 1.9,T = 2.0,T = 2.2,T = 2.4,T = 2.5,T = 2.6,T = 2.8,T = 3.0,T = 3.2,T = 3.4,T = 3.5,T = 3.6,T = 3.8,T = 4.0,T = 4.2,T = 4.4,T = 4.6,T = 4.8,T = 5.0,T = 5.5,T = 6.0,T = 6.5,T = 7.0,T = 7.5,T = 8.0,T = 8.5,T = 9.0,T = 9.5,T = 10.0,T = 11.0,T = 12.0,T = 13.0,T = 14.0,T = 15.0,T = 20.0,EarthquakeTime,EarthquakeMagnitudeType,BackAzimuth,RuptureDistanceVar,JoynerBooreDistanceVar,GC2_ry,GC2_rx,GC2_ry0,GC2_U,GC2_T,DataProvider,StationDescription,SamplingRate,SourceFile,Rehd_median_km,Rhm_median_km,Rasp_median_km,Rrms_median_km,Rehd_unit_median_km,Rhm_unit_median_km,Rasp_unit_median_km,Rrms_unit_median_km,Database_Name
3000369.0,CentralAmerica&Mexico,3000105,3000101.0,105,2012,905.0,1442.0,7.66,10.0242,-85.3884,20.7,308.0,17.0,102.0,11.317,29.03,0.0,0.0,0.0,1.0,90.7,60.6,0.0,2.0,Central_America_S,-888.0,7.6,-888.0,36.0,7.5,2.0,-999,-999.0,SMA,A,0.141741105,0.133585014,0.043235865,-999.0,-999.0,18.46302134562275,M,-999.0,128.5936216,130.2490289,74.23432,79.707961,125.061828,110.11,-98.15,-52.8,-52.8,308.0000324,80.7997187878625,RmaxTruncRegr_km,9.9492,-84.8875,-29.028,0.724982154125809,-999.0,2.0,0.0,0.0,1.0,0.0,CentralAmerica&Mexico,AALA,10.025,-84.214,-999.0,-999.0,568.0,0.501597448,0.0,4C-CSA,-999.0,-999.0,-999.0,-999.0,-999.0,-999.0,LIS,2.0,C1,0.0,0.0,C1,0.0,0.0,C1,0.0,0.0,C1,0.0,0.0,C1,0.0,0.0,0.0,C1,0.0,0.0,0.0,C1,0.0,0.0,0.0,C1,0.0,0.0,0.0,0.005,0.099512,9.0779,3.9712,0.09959974,0.100821,0.1009086,0.1003608,0.1008226,0.1008564,0.101236,0.1007966,0.1010475,0.1017145,0.1020116,0.1021795,0.1020251,0.1023503,0.103117,0.1022826,0.1036426,0.1041153,0.1046099,0.1049403,0.105721,0.1067832,0.1060403,0.1040157,0.1086329,0.1170288,0.1207054,0.1296637,0.1433424,0.1490996,0.1405879,0.1609868,0.1611082,0.1852715,0.1901196,0.1855579,0.1812939,0.1978094,0.2236496,0.2240485,0.2069758,0.2003009,0.2404125,0.2487323,0.2657804,0.207772,0.1838086,0.1802121,0.1894267,0.1925364,0.2141364,0.2345738,0.2352022,0.2284533,0.2456237,0.2996005,0.3527482,0.3628622,0.3752491,0.3680571,0.3628338,0.3151244,0.2242317,0.1848343,0.1479801,0.1414344,0.1539492,0.1481334,0.1092156,0.07678309,0.06033591,0.0580544,0.04996694,0.04231374,0.04070866,0.04153804,0.04478468,0.04542484,0.03934954,0.02884569,0.02905424,0.03497112,0.0374097,0.02836635,0.0231767,0.02581893,0.0257085,0.02419245,0.02148598,0.01911675,0.01625963,0.01424546,0.01300688,0.01201884,0.01098305,0.008975615,0.007172311,0.005884923,0.005113863,0.004252669,0.004189988,0.003925349,0.003733807,0.003443507,0.00319814,0.002793611,0.002358981,0.00193936,0.001536753,0.001246507,-999.0,-999,-999,-999.0,-999.0,-999.0,-999.0,-999.0,-999.0,-999.0,-999.0,-999,-999,-999.0,-999,137.285711406872,140.794961729884,147.427666102254,150.555436397374,130.764202005808,137.26848826756,150.658389333009,155.802520939044,GP
3000370.0,CentralAmerica&Mexico,3000105,3000102.0,105,2012,905.0,1442.0,7.66,10.0242,-85.3884,20.7,308.0,17.0,102.0,11.317,29.03,0.0,0.0,0.0,1.0,90.7,60.6,0.0,2.0,Central_America_S,-888.0,7.6,-888.0,36.0,7.5,2.0,-999,-999.0,SMA,A,0.044969148,0.032220785,0.032937475,-999.0,0.0856604873644445,20.81719147827267,M,-999.0,123.0099775,124.7395068,68.7582299,74.6345694,119.4604596,107.1,-93.42,-48.07,-48.07,308.0000324,80.7997187878625,RmaxTruncRegr_km,9.9492,-84.8875,-29.028,-0.657382804787656,-999.0,2.0,0.0,0.0,1.0,0.0,CentralAmerica&Mexico,ACAR,10.03,-84.265,-999.0,-999.0,586.0,0.256124969,0.0,4C-CSA,-999.0,-999.0,-999.0,-999.0,-999.0,-999.0,LIS,2.0,C1,0.0,0.0,C1,0.0,0.0,C1,0.0,0.0,C1,0.0,0.0,C1,0.0,0.0,0.0,C1,0.0,0.0,0.0,C1,0.0,0.0,0.0,C1,0.0,0.0,0.0,0.005,0.041689,5.8765,4.4693,0.0417259,0.04181708,0.04184404,0.04189805,0.04198249,0.04199047,0.04203759,0.0421219,0.04214279,0.04224859,0.04232309,0.04238153,0.04240228,0.04241762,0.04247028,0.04250253,0.04287659,0.04309298,0.04342632,0.04377245,0.04397978,0.04427741,0.04417436,0.04467846,0.04459481,0.04592964,0.04912026,0.05109698,0.0570083,0.05718072,0.05793678,0.05824533,0.06026078,0.05977127,0.06760704,0.07371025,0.0735798,0.06978684,0.06858,0.08099995,0.07865755,0.07562727,0.08246744,0.07663086,0.079904,0.09443518,0.09844106,0.09114011,0.08843757,0.08361799,0.08947356,0.09199965,0.1016704,0.1032926,0.1037715,0.1120894,0.1199635,0.1118966,0.1056086,0.08413955,0.0796645,0.08114392,0.08956651,0.08275331,0.08262982,0.08372541,0.08387853,0.08186907,0.06720611,0.05707304,0.04981761,0.03934982,0.03629362,0.0369465,0.041972,0.04756114,0.04464898,0.04445709,0.04044415,0.03616948,0.03344167,0.03350823,0.03460987,0.03063143,0.02868405,0.02725547,0.02639508,0.02335256,0.02019548,0.01584189,0.01250577,0.01304018,0.01345384,0.01402528,0.0145584,0.01392943,0.01073587,0.009305837,0.008300659,0.007432124,0.006422634,0.005468979,0.005048065,0.004647085,0.004239455,0.003545755,0.00285118,0.002216923,0.00170793,0.001457721,0.0006878241,-999,-999,-999.0,-999.0,-999.0,-999.0,-999.0,-999.0,-999.0,-999.0,-999,-999,-999.0,-999,131.772121270342,135.373554758151,142.173595628582,145.373671568321,125.406057951731,131.965435849334,145.612188077711,150.80152836182,GP
3000372.0,CentralAmerica&Mexico,3000105,3000104.0,105,2012,905.0,1442.0,7.66,10.0242,-85.3884,20.7,308.0,17.0,102.0,11.317,29.03,0.0,0.0,0.0,1.0,90.7,60.6,0.0,2.0,Central_America_S,-888.0,7.6,-888.0,36.0,7.5,2.0,-999,-999.0,SMA,A,0.106051382,0.124401614,0.062712373,-999.0,0.0408128332496108,20.23775476761267,M,-999.0,122.9180294,124.6488345,68.364467,74.2719673,119.161741,105.02,-94.91,-49.56,-49.56,308.0000324,80.7997187878625,RmaxTruncRegr_km,9.9492,-84.8875,-29.028,0.392902486578228,-999.0,2.0,0.0,0.0,1.0,0.0,CentralAmerica&Mexico,AFBR,10.007,-84.266,-999.0,-999.0,448.0,0.244131112,0.0,4C-CSA,-999.0,-999.0,-999.0,-999.0,-999.0,-999.0,LIS,2.0,C1,0.0,0.0,C1,0.0,0.0,C1,0.0,0.0,C1,0.0,0.0,C1,0.0,0.0,0.0,C1,0.0,0.0,0.0,C1,0.0,0.0,0.0,C1,0.0,0.0,0.0,0.005,0.087584,11.887,3.81,0.08761787,0.08786284,0.08786272,0.08822703,0.08849984,0.08859733,0.08875763,0.08901177,0.08903658,0.08883443,0.08880274,0.0886294,0.08892279,0.0891766,0.08934302,0.08949708,0.08955054,0.08921448,0.08840699,0.08811246,0.08874303,0.08906749,0.08739077,0.08949523,0.09018331,0.09267825,0.09716473,0.101338,0.09362514,0.1005596,0.1038704,0.1173862,0.1343891,0.1279814,0.1333464,0.1450806,0.1501717,0.1465816,0.1504661,0.1868315,0.1932609,0.2190602,0.2522955,0.2425904,0.260305,0.262916,0.2334673,0.238089,0.2456152,0.226554,0.2255087,0.2719745,0.3116446,0.3143154,0.3156234,0.3126214,0.3197904,0.3428642,0.2107795,0.1735,0.1867586,0.2022784,0.2088475,0.1605643,0.1544922,0.1585187,0.1729243,0.1878854,0.1633395,0.1132308,0.07421447,0.06652556,0.06132232,0.05399733,0.05334467,0.05870526,0.04987267,0.03841117,0.03377322,0.02690402,0.02824971,0.03075874,0.02665685,0.02010725,0.01929025,0.01582096,0.01453534,0.01352946,0.01318216,0.0131809,0.01246704,0.01186581,0.01170423,0.01053675,0.009817938,0.008827345,0.007915259,0.006666727,0.006178459,0.005967981,0.0057715,0.005582095,0.005260895,0.004662948,0.00421167,0.003418757,0.002728614,0.002027333,0.001533567,0.001265938,0.0005575728,-999,-999,-999.0,-999.0,-999.0,-999.0,-999.0,-999.0,-999.0,-999.0,-999,-999,-999.0,-999,131.236430338875,134.907555978218,141.819631083026,145.063823751897,124.786797919531,131.482974887403,145.241888559253,150.349014006857,GP
3000375.0,CentralAmerica&Mexico,3000105,3000107.0,105,2012,905.0,1442.0,7.66,10.0242,-85.3884,20.7,308.0,17.0,102.0,11.317,29.03,0.0,0.0,0.0,1.0,90.7,60.6,0.0,2.0,Central_America_S,-888.0,7.6,-888.0,36.0,7.5,2.0,-999,-999.0,SMA,A,0.110129395,0.119306519,0.039565024,-999.0,0.0344710513599947,21.10854917381933,M,-999.0,95.7016316,97.9147194,40.2458188,49.6220789,90.3880967,79.39,-79.4,-34.05,-34.05,308.0000324,80.7997187878625,RmaxTruncRegr_km,9.9492,-84.8875,-29.028,-0.475724070792593,-999.0,2.0,0.0,0.0,1.0,0.0,CentralAmerica&Mexico,AORT,9.912,-84.522,-999.0,-999.0,425.0,0.420594817,0.0,4C-CSA,-999.0,-999.0,-999.0,-999.0,-999.0,-999.0,LIS,2.0,C1,0.0,0.0,C1,0.0,0.0,C1,0.0,0.0,C1,0.0,0.0,C1,0.0,0.0,0.0,C1,0.0,0.0,0.0,C1,0.0,0.0,0.0,C1,0.0,0.0,0.0,0.005,0.083474,7.868,3.225,0.08362706,0.08412484,0.08428898,0.08447802,0.08570186,0.08583291,0.08547659,0.08648106,0.08660614,0.08624644,0.08688413,0.0884899,0.08828995,0.08880021,0.08920917,0.08900701,0.09307547,0.09536765,0.09061182,0.09051041,0.08903222,0.0922681,0.098751,0.1044535,0.1101088,0.1177825,0.1212937,0.1569563,0.1882514,0.1896622,0.1881851,0.208199,0.2330735,0.1979771,0.1736085,0.1830422,0.1715145,0.1613109,0.2125269,0.2902347,0.262251,0.2626224,0.2190422,0.221391,0.2413317,0.2461483,0.2151041,0.2252666,0.249665,0.3135847,0.3468924,0.2962806,0.2651933,0.2349323,0.2001545,0.1706912,0.154934,0.1762617,0.1271635,0.1427533,0.1588749,0.1856288,0.1847499,0.1597138,0.1311372,0.1012638,0.08499365,0.07640015,0.07130465,0.06553693,0.05631148,0.04432934,0.03382494,0.02887303,0.02714435,0.02757374,0.02594738,0.02351896,0.01899959,0.01704142,0.01675557,0.01652435,0.01597023,0.01497728,0.01348713,0.01178339,0.01096496,0.01021603,0.008978026,0.008198928,0.007596807,0.006976881,0.006739133,0.007018266,0.006740056,0.005977967,0.004978754,0.004568463,0.004456311,0.004549904,0.00438652,0.004227908,0.003909876,0.003464943,0.00311437,0.002585011,0.001969734,0.001615667,0.001320949,0.001087401,0.0004077383,-999,-999,-999.0,-999.0,-999.0,-999.0,-999.0,-999.0,-999.0,-999.0,-999,-999,-999.0,-999,101.704765507164,106.297919634731,114.863925922235,118.791597538376,96.634478105317,104.305449340767,118.804152508278,124.239509626962,GP
3000376.0,CentralAmerica&Mexico,3000105,3000108.0,105,2012,905.0,1442.0,7.66,10.0242,-85.3884,20.7,308.0,17.0,102.0,11.317,29.03,0.0,0.0,0.0,1.0,90.7,60.6,0.0,2.0,Central_America_S,-888.0,7.6,-888.0,36.0,7.5,2.0,-999,-999.0,SMA,A,0.193745734,0.180491049,0.099829765,-999.0,0.0243735201623998,16.666559440878032,M,-999.0,104.6720989,106.6992891,51.1919995,58.8493467,101.2689099,98.09,-77.1,-31.75,-31.75,308.0000324,80.7997187878625,RmaxTruncRegr_km,9.9492,-84.8875,-29.028,0.670391183271749,-999.0,2.0,0.0,0.0,1.0,0.0,CentralAmerica&Mexico,APMR,10.057,-84.433,-999.0,-999.0,425.0,0.420594817,0.0,4C-CSA,-999.0,-999.0,-999.0,-999.0,-999.0,-999.0,LIS,2.0,C1,0.0,0.0,C1,0.0,0.0,C1,0.0,0.0,C1,0.0,0.0,C1,0.0,0.0,0.0,C1,0.0,0.0,0.0,C1,0.0,0.0,0.0,C1,0.0,0.0,0.0,0.005,0.14813,15.74,4.068,0.1483917,0.1494931,0.1492112,0.1502437,0.1508947,0.1511949,0.1510064,0.1518602,0.1516131,0.1520838,0.1546723,0.1560168,0.1562031,0.1567107,0.1594508,0.1627567,0.1613116,0.1646927,0.1611236,0.1614804,0.1619952,0.1639943,0.1681065,0.1847706,0.2048076,0.1988339,0.194725,0.225281,0.2462316,0.268381,0.2830132,0.3388737,0.3664556,0.370713,0.4839639,0.4685418,0.431051,0.4566356,0.5009297,0.3926391,0.3963851,0.4195608,0.4630736,0.510882,0.5230868,0.3962025,0.3276236,0.3116512,0.2898538,0.3071231,0.3517989,0.4298404,0.4521366,0.4189149,0.3726772,0.3198994,0.2691916,0.2170227,0.2505495,0.3079312,0.3043986,0.2872172,0.26706,0.2766986,0.2771367,0.3008222,0.3320999,0.3241069,0.2446086,0.199666,0.146153,0.1401086,0.1243826,0.116713,0.1310296,0.1162851,0.09951122,0.0835099,0.061671,0.04652828,0.04208351,0.03748615,0.02893168,0.02323203,0.01924999,0.01714548,0.01570407,0.01443438,0.01229332,0.01183764,0.01159225,0.01071448,0.01053589,0.009935485,0.009109245,0.006857147,0.00571974,0.004953394,0.00430265,0.003957666,0.004235306,0.004286613,0.004435225,0.004252811,0.003825006,0.003133922,0.002427368,0.001893531,0.001539546,0.00133018,-999.0,-999,-999,-999.0,-999.0,-999.0,-999.0,-999.0,-999.0,-999.0,-999.0,-999,-999,-999.0,-999,114.203666130878,118.030896814499,125.294207427307,128.706508806836,108.996949326567,115.593370327304,129.605956394576,134.888813273378,GP
3000378.0,CentralAmerica&Mexico,3000105,3000079.0,105,2012,905.0,1442.0,7.66,10.0242,-85.3884,20.7,308.0,17.0,102.0,11.317,29.03,0.0,0.0,0.0,1.0,90.7,60.6,0.0,2.0,Central_America_S,-888.0,7.6,-888.0,36.0,7.5,2.0,-999,-999.0,SMA,A,0.268184973,0.229436745,0.093610077,-999.0,-999.0,23.572771309329227,M,-999.0,99.1565658,101.2941979,46.659966,54.9524996,96.1461155,97.19,-70.56,-25.21,-25.21,308.0000324,80.7997187878625,RmaxTruncRegr_km,9.9492,-84.8875,-29.028,0.942842160601731,-999.0,2.0,0.0,0.0,1.0,0.0,CentralAmerica&Mexico,ASRM,10.087,-84.485,-999.0,-999.0,425.0,0.420594817,0.0,4C-CSA,-999.0,-999.0,-999.0,-999.0,-999.0,-999.0,LIS,2.0,C1,0.0,0.0,C1,0.0,0.0,C1,0.0,0.0,C1,0.0,0.0,C1,0.0,0.0,0.0,C1,0.0,0.0,0.0,C1,0.0,0.0,0.0,C1,0.0,0.0,0.0,0.005,0.19679,22.04,5.4426,0.197014,0.1982394,0.1984547,0.1982461,0.1990978,0.1992262,0.1999438,0.2003444,0.2011675,0.201792,0.2026339,0.2021398,0.2022199,0.202682,0.2035896,0.2031095,0.2053826,0.2078789,0.2101815,0.2114712,0.2139887,0.2136687,0.2124491,0.2126531,0.2126635,0.2181525,0.2455696,0.2699768,0.2565434,0.2866349,0.3085487,0.3223318,0.2612106,0.2832149,0.290098,0.3041365,0.2944862,0.2828267,0.2869612,0.3029782,0.3105104,0.3196312,0.3554188,0.3805385,0.3832285,0.4287494,0.5090697,0.5347296,0.5361024,0.5368964,0.4823633,0.489789,0.4615411,0.4423688,0.4272196,0.3713595,0.3263139,0.3033,0.3507675,0.3875353,0.3852536,0.4040125,0.4062282,0.4272169,0.445198,0.4748578,0.5248027,0.6158481,0.6590052,0.5065548,0.3529782,0.238329,0.1725877,0.1415857,0.1248551,0.110471,0.09523626,0.08016627,0.05921599,0.05202328,0.04872942,0.04452273,0.03524734,0.03023007,0.02793411,0.02454021,0.02309568,0.02166137,0.01867438,0.01590646,0.01334982,0.0117209,0.01142734,0.01070435,0.009729102,0.007338546,0.006579714,0.006031699,0.005417652,0.005222238,0.004911906,0.004566167,0.004239766,0.003871945,0.003634768,0.00322461,0.002629478,0.002100283,0.001753138,0.001463924,0.0006985884,-999,-999,-999.0,-999.0,-999.0,-999.0,-999.0,-999.0,-999.0,-999.0,-999,-999,-999.0,-999,109.58088496642,113.363681402205,120.600993531619,124.017762890154,105.107807596917,111.574239607715,125.273471452509,130.614888736366,GP
3000390.0,CentralAmerica&Mexico,3000105,3000121.0,105,2012,905.0,1442.0,7.66,10.0242,-85.3884,20.7,308.0,17.0,102.0,11.317,29.03,0.0,0.0,0.0,1.0,90.7,60.6,0.0,2.0,Central_America_S,-888.0,7.6,-888.0,36.0,7.5,2.0,-999,-999.0,SMA,A,0.148877112,0.145819708,0.116247297,-999.0,0.0556155797516151,18.97493695061453,M,-999.0,55.4541865,59.1916954,28.1785715,40.4556137,62.8337266,86.11,5.009999999999998,0.0,50.36,308.0000324,80.7997187878625,RmaxTruncRegr_km,10.2284,-85.2497,-29.028,-0.177322783681685,-999.0,2.0,0.0,0.0,1.0,0.0,CentralAmerica&Mexico,GCNS,10.428,-85.091,-999.0,-999.0,429.0,0.429418211,0.0,4C-CSA,-999.0,-999.0,-999.0,-999.0,-999.0,-999.0,LIS,2.0,C1,0.0,0.0,C1,0.0,0.0,C1,0.0,0.0,C1,0.0,0.0,C1,0.0,0.0,0.0,C1,0.0,0.0,0.0,C1,0.0,0.0,0.0,C1,0.0,0.0,0.0,0.005,0.13311,15.803,6.3391,0.1332935,0.1338588,0.133954,0.1342942,0.1350922,0.1351303,0.1350048,0.1351089,0.1352565,0.1352979,0.1355146,0.1357891,0.1361466,0.1368966,0.1383461,0.1391062,0.1418004,0.14578,0.1477364,0.1483453,0.1453611,0.1461082,0.148408,0.1567094,0.1651526,0.1724986,0.1838351,0.1835204,0.2246821,0.269066,0.2807937,0.2868919,0.3196688,0.3431095,0.3138711,0.3265474,0.3335445,0.3375414,0.3927782,0.4420837,0.4229988,0.4185365,0.3974167,0.3743761,0.3388948,0.3274246,0.3475711,0.4009422,0.4360739,0.4270966,0.4190406,0.401919,0.3944258,0.3982729,0.39345,0.410288,0.3768355,0.4295872,0.342822,0.266001,0.2720204,0.2782525,0.2565935,0.2608147,0.2588403,0.2224087,0.2039281,0.1941862,0.1679038,0.1726839,0.1398275,0.1407146,0.149375,0.1181219,0.1070201,0.1071073,0.08896706,0.07754049,0.06214666,0.05376162,0.05040625,0.04852903,0.04701517,0.0325515,0.0261139,0.02394314,0.02290228,0.02429239,0.02732579,0.02848571,0.02698368,0.0240866,0.02333122,0.02033622,0.0189834,0.0146425,0.01262897,0.01056511,0.01032931,0.009841285,0.008499078,0.008183911,0.007744524,0.00701886,0.006189078,0.004361575,0.003428195,0.002774091,0.002298523,0.001894224,-999.0,-999,-999,-999.0,-999.0,-999.0,-999.0,-999.0,-999.0,-999.0,-999.0,-999,-999,-999.0,-999,77.8111746519363,80.2761393137394,85.889527013927,88.8683512660606,83.5531656964598,87.3453473037933,94.7502685394089,97.9765999138361,GP
