NGAsubRSN,DatabaseRegion,NGAsubEQID,NGAsubSSN,Earthquake_Name,YEAR,MODY,HRMN,Earthquake_Magnitude,Hypocenter_Latitude_deg,Hypocenter_Longitude_deg,Hypocenter_Depth_km,Strike_deg,Dip_deg,Rake_deg,Ztor_km,Zbor_km,Intra_Inter_Flag,Finite_Fault_Model,Multiple_Event,Number_of_Segment,Length_km,Width_km,Source_review_flag,Fault_Type,Subduction_Zone_Name,Alternate_Saturation_Magnitude_10MPa,Preferred_Saturation_Magnitude_10MPa,Alternate_Fault_maximum_width_km,Preferred_Fault_maximum_width_km,Magnitude_break_interface,VolcanicArcFlag_Hypocenter,Interface_Event_FromHypocenterDepth,InterfaceFlag_FromHypocenterDepth,Instrument_Type,Accelerograph_Seismograph,Unfiltered_PGA_H1_g,Unfiltered_PGA_H2_g,Unfiltered_PGA_V_g,Late_P_trigger_flag_1ptYes_0ptNo,Shortest_Usable_Period_for_PSa_Ave_Component_sec,Longest_Usable_Period_for_PSa_Ave_Component_sec,Magnitude_Type,DbQualityFlag,EpiD_km,HypD_km,Rjb_km,ClstD_km,Rrms_km,Rx_km,Ry_km,Ry0_km,U_km,LocalStrikeParallelDirection,RmaxForAnalysis_km,RmaxForAnalysisModel,PcLat,PcLon,PcZ,Epsilon_Phi_pt7,Station_review_flag,VolcanicArcFlag_ClosestPoint,Distance_fraction_in_VolcanicArcFlag_0,Distance_fraction_in_VolcanicArcFlag_1,Distance_fraction_in_VolcanicArcFlag_2,Distance_fraction_in_VolcanicArcFlag_3,StationDatabaseRegion,Station_Name,Station_Latitude_deg,Station_Longitude_deg,Sensor_Depth_m,Geomatrix_Site_Code_1st_Letter,Vs30_Selected_for_Analysis_m_s,Sigma_of_Vs30_Selected_for_Analysis_ln_Units,Vs30_Measured_Inferred_Class,Vs30_Code,Z1pt0_selected_for_analysis_m,Z1pt5_selected_for_analysis_m,Z2pt5_selected_for_analysis_m,Sigma_Z1pt0,Sigma_Z1pt5,Sigma_Z2pt5,Network,VolcanicArcFlag_Station,C1C2Class_M1_Rcutoff10km,C1NGAsubEQID_M1_Rcutoff10km,Rclosest_M1_Rcutoff10km,C1C2Class_M1_Rcutoff20km,C1NGAsubEQID_M1_Rcutoff20km,Rclosest_M1_Rcutoff20km,C1C2Class_M1_Rcutoff40km,C1NGAsubEQID_M1_Rcutoff40km,Rclosest_M1_Rcutoff40km,C1C2Class_M1_Rcutoff80km,C1NGAsubEQID_M1_Rcutoff80km,Rclosest_M1_Rcutoff80km,C1C2Class_M2_Rcutoff10km,C1NGAsubEQID_M2_Rcutoff10km,Rclosest_M2_Rcutoff10km,FractC2WithinRmax_M2_Rcutoff10km,C1C2Class_M2_Rcutoff20km,C1NGAsubEQID_M2_Rcutoff20km,Rclosest_M2_Rcutoff20km,FractC2WithinRmax_M2_Rcutoff20km,C1C2Class_M2_Rcutoff40km,C1NGAsubEQID_M2_Rcutoff40km,Rclosest_M2_Rcutoff40km,FractC2WithinRmax_M2_Rcutoff40km,C1C2Class_M2_Rcutoff80km,C1NGAsubEQID_M2_Rcutoff80km,Rclosest_M2_Rcutoff80km,FractC2WithinRmax_M2_Rcutoff80km,dtH1,PGA_g,PGV_cm_sec,PGD_cm,T = 0.01,T = 0.02,T = 0.022,T = 0.025,T = 0.029,T = 0.03,T = 0.032,T = 0.035,T = 0.036,T = 0.04,T = 0.042,T = 0.044,T = 0.045,T = 0.046,T = 0.048,T = 0.05,T = 0.055,T = 0.06,T = 0.065,T = 0.067,T = 0.07,T = 0.075,T = 0.08,T = 0.085,T = 0.09,T = 0.095,T = 0.1,T = 0.11,T = 0.12,T = 0.13,T = 0.133,T = 0.14,T = 0.15,T = 0.16,T = 0.17,T = 0.18,T = 0.19,T = 0.2,T = 0.22,T = 0.24,T = 0.25,T = 0.26,T = 0.28,T = 0.29,T = 0.3,T = 0.32,T = 0.34,T = 0.35,T = 0.36,T = 0.38,T = 0.4,T = 0.42,T = 0.44,T = 0.45,T = 0.46,T = 0.48,T = 0.5,T = 0.55,T = 0.6,T = 0.65,T = 0.667,T = 0.7,T = 0.75,T = 0.8,T = 0.85,T = 0.9,T = 0.95,T = 1.0,T = 1.1,T = 1.2,T = 1.3,T = 1.4,T = 1.5,T = 1.6,T = 1.7,T = 1.8,T = 1.9,T = 2.0,T = 2.2,T = 2.4,T = 2.5,T = 2.6,T = 2.8,T = 3.0,T = 3.2,T = 3.4,T = 3.5,T = 3.6,T = 3.8,T = 4.0,T = 4.2,T = 4.4,T = 4.6,T = 4.8,T = 5.0,T = 5.5,T = 6.0,T = 6.5,T = 7.0,T = 7.5,T = 8.0,T = 8.5,T = 9.0,T = 9.5,T = 10.0,T = 11.0,T = 12.0,T = 13.0,T = 14.0,T = 15.0,T = 20.0,EarthquakeTime,EarthquakeMagnitudeType,BackAzimuth,RuptureDistanceVar,JoynerBooreDistanceVar,GC2_ry,GC2_rx,GC2_ry0,GC2_U,GC2_T,DataProvider,StationDescription,SamplingRate,SourceFile,Rehd_median_km,Rhm_median_km,Rasp_median_km,Rrms_median_km,Rehd_unit_median_km,Rhm_unit_median_km,Rasp_unit_median_km,Rrms_unit_median_km,Database_Name
3000391.0,CentralAmerica&Mexico,3000105,3000122.0,105,2012,905.0,1442.0,7.66,10.0242,-85.3884,20.7,308.0,17.0,102.0,11.317,29.03,0.0,0.0,0.0,1.0,90.7,60.6,0.0,2.0,Central_America_S,-888.0,7.6,-888.0,36.0,7.5,2.0,-999,-999.0,SMA,A,0.21006225,0.145819814,0.083311176,-999.0,0.0335641931531007,19.96234094703675,M,-999.0,54.6201697,58.4110687,23.9415022,37.6273878,60.2691999,81.87,-16.09,0.0,29.26,308.0000324,80.7997187878625,RmaxTruncRegr_km,10.1115,-85.0979,-29.028,0.0340772341884102,-999.0,2.0,0.0,0.0,1.0,0.0,CentralAmerica&Mexico,GJTS,10.281,-84.963,-999.0,-999.0,429.0,0.429418211,0.0,4C-CSA,-999.0,-999.0,-999.0,-999.0,-999.0,-999.0,LIS,2.0,C1,0.0,0.0,C1,0.0,0.0,C1,0.0,0.0,C1,0.0,0.0,C1,0.0,0.0,0.0,C1,0.0,0.0,0.0,C1,0.0,0.0,0.0,C1,0.0,0.0,0.0,0.005,0.16839,11.508,6.542,0.1686449,0.1694671,0.1695329,0.1697866,0.1701746,0.1705625,0.1708735,0.1726825,0.1730208,0.1746515,0.1787256,0.1820272,0.1835988,0.1855127,0.1887043,0.1907424,0.1993576,0.2171821,0.2135822,0.2115163,0.2153592,0.217261,0.2275188,0.2305185,0.2249388,0.2246232,0.2319664,0.2341232,0.2322124,0.2335798,0.2377551,0.2360391,0.2692665,0.2576731,0.2480718,0.268618,0.2876414,0.2915682,0.3648693,0.4663173,0.4295796,0.4015271,0.4709346,0.4910053,0.4720237,0.4968943,0.6463063,0.6547276,0.6193889,0.4814591,0.3871385,0.3499914,0.3273815,0.325528,0.3335592,0.3571494,0.3341843,0.2284105,0.2074248,0.2261167,0.2093338,0.1802033,0.1728384,0.1761091,0.1831159,0.1652612,0.1394386,0.1359671,0.1325727,0.1143856,0.1269909,0.1241606,0.1160301,0.1068795,0.1077353,0.1065956,0.09363642,0.07702072,0.0565153,0.05254439,0.050893,0.04829135,0.04658218,0.043158,0.04058258,0.039252,0.03604775,0.03367187,0.02898807,0.02638175,0.02357332,0.02003374,0.0173867,0.01523358,0.01333289,0.01114091,0.009648789,0.008666692,0.007758785,0.007773961,0.007522528,0.006755355,0.005750804,0.005371192,0.004820314,0.003908576,0.003237657,0.002642109,0.002156181,0.001770554,-999.0,-999,-999,-999.0,-999.0,-999.0,-999.0,-999.0,-999.0,-999.0,-999.0,-999,-999,-999.0,-999,76.0300898982521,78.7788660043901,84.8663810082411,88.0390503069443,81.1032163889989,85.3284089851265,93.841498933827,97.3465777082528,GP
3000392.0,CentralAmerica&Mexico,3000105,3000123.0,105,2012,905.0,1442.0,7.66,10.0242,-85.3884,20.7,308.0,17.0,102.0,11.317,29.03,0.0,0.0,0.0,1.0,90.7,60.6,0.0,2.0,Central_America_S,-888.0,7.6,-888.0,36.0,7.5,2.0,-999,-999.0,SMA,A,0.102990687,0.112167986,0.06495667,-999.0,0.0666430452523002,17.117313633581222,M,-999.0,119.6227894,121.4005838,69.8018643,75.5971233,120.6098431,106.23,95.74,50.39,141.09,308.0000324,80.7997187878625,RmaxTruncRegr_km,10.4518,-85.5403,-29.028,0.266626479050961,-999.0,2.0,0.0,0.0,1.0,0.0,CentralAmerica&Mexico,GLCR,11.073,-85.632,-999.0,-999.0,517.0,0.429418211,0.0,4C-CSA,-999.0,-999.0,-999.0,-999.0,-999.0,-999.0,LIS,2.0,C1,0.0,0.0,C1,0.0,0.0,C1,0.0,0.0,C1,0.0,0.0,C1,0.0,0.0,0.0,C1,0.0,0.0,0.0,C1,0.0,0.0,0.0,C1,0.0,0.0,0.0,0.005,0.078113,12.3,5.7733,0.07814693,0.0782211,0.07824069,0.07828069,0.07831434,0.07834691,0.07840498,0.07844722,0.07854297,0.07868816,0.07870508,0.07866564,0.07864282,0.0786121,0.07869285,0.07896104,0.07898278,0.07900079,0.07977796,0.07998162,0.08010754,0.08119239,0.08144532,0.08261266,0.08232324,0.08176507,0.08156689,0.07977644,0.08210203,0.08781635,0.0896176,0.09064322,0.09076309,0.097687,0.09878115,0.09392923,0.1061265,0.1112225,0.1094857,0.1192796,0.1269616,0.136299,0.125972,0.1309913,0.1401135,0.1609936,0.1646226,0.166441,0.1647962,0.164407,0.1703411,0.1788214,0.1877048,0.1939934,0.2032266,0.2371233,0.278172,0.3153474,0.280816,0.2181331,0.1897655,0.2009898,0.2232501,0.2165278,0.1915163,0.1969986,0.1949435,0.2229134,0.2032982,0.1708647,0.1461303,0.1305944,0.1334382,0.1285443,0.1098314,0.09734887,0.07933266,0.06281698,0.04458007,0.03309,0.03163937,0.03000195,0.02205606,0.01992375,0.02006825,0.01726144,0.01593903,0.01476869,0.01238971,0.01045759,0.01005812,0.009141576,0.009213923,0.007969095,0.007051112,0.006920229,0.00679413,0.007440357,0.007526141,0.007543223,0.007213562,0.006837021,0.006608379,0.006434507,0.006421751,0.005662956,0.004733113,0.004051694,0.003261269,0.002649213,-999.0,-999,-999,-999.0,-999.0,-999.0,-999.0,-999.0,-999.0,-999.0,-999.0,-999,-999,-999.0,-999,126.007057389154,129.418049303204,136.016746803351,139.184470785152,120.502513318629,125.855370322592,137.984073552819,143.0597297538,GP
3000393.0,CentralAmerica&Mexico,3000105,3000124.0,105,2012,905.0,1442.0,7.66,10.0242,-85.3884,20.7,308.0,17.0,102.0,11.317,29.03,0.0,0.0,0.0,1.0,90.7,60.6,0.0,2.0,Central_America_S,-888.0,7.6,-888.0,36.0,7.5,2.0,-999,-999.0,SMA,A,0.108089027,0.119305955,0.060364806,-999.0,0.0257247828041638,17.61788029705025,M,-999.0,66.8346918,69.9668924,20.7211854,35.6650012,68.7128673,78.1,50.1,4.75,95.45,308.0000324,80.7997187878625,RmaxTruncRegr_km,10.4518,-85.5403,-29.028,-0.960207587299233,-999.0,2.0,0.0,0.0,1.0,0.0,CentralAmerica&Mexico,GLIB,10.621,-85.461,-999.0,-999.0,382.0,0.377359245,0.0,4C-CSA,-999.0,-999.0,-999.0,-999.0,-999.0,-999.0,LIS,2.0,C1,0.0,0.0,C1,0.0,0.0,C1,0.0,0.0,C1,0.0,0.0,C1,0.0,0.0,0.0,C1,0.0,0.0,0.0,C1,0.0,0.0,0.0,C1,0.0,0.0,0.0,0.005,0.089406,17.33,12.471,0.08956333,0.0899772,0.08991903,0.09014507,0.09076256,0.09093336,0.08991251,0.09113087,0.09152102,0.09253505,0.09167188,0.09246848,0.09366473,0.094816,0.09608828,0.09573445,0.09962777,0.09942485,0.1019114,0.1032657,0.1040687,0.1167061,0.1229089,0.1272694,0.1457277,0.1547932,0.1604023,0.1637449,0.1615278,0.1683695,0.163784,0.1564916,0.1644963,0.1833382,0.2190666,0.2450383,0.1917616,0.1798299,0.1700965,0.2295882,0.2468066,0.2471476,0.2857365,0.292787,0.2876461,0.2432261,0.2206226,0.2222055,0.2022479,0.1558121,0.1574321,0.1711749,0.1878631,0.190261,0.1949137,0.199087,0.22453,0.216159,0.2374405,0.2210085,0.2231763,0.2210329,0.1965116,0.1913547,0.2278114,0.2381247,0.213131,0.1644892,0.1233178,0.1297361,0.09794153,0.09032799,0.07981615,0.08423204,0.07902616,0.07679695,0.07700463,0.07323814,0.06894322,0.07354313,0.08146331,0.08436207,0.0751982,0.05588577,0.04819656,0.0356733,0.03193757,0.03007268,0.02806714,0.02591285,0.0278073,0.0268649,0.0237121,0.02386035,0.02352036,0.02339071,0.02375375,0.02228602,0.0195799,0.01676392,0.01427497,0.01277556,0.0115224,0.01032442,0.009216942,0.007471886,0.005976357,0.004947335,0.004472657,0.003723117,-999.0,-999,-999,-999.0,-999.0,-999.0,-999.0,-999.0,-999.0,-999.0,-999.0,-999,-999,-999.0,-999,79.7272996768052,83.0374850943954,90.2260798880947,93.8681998699475,81.1406001358229,86.4577484245448,96.8587132509522,101.212334312555,GP
3000394.0,CentralAmerica&Mexico,3000105,3000125.0,105,2012,905.0,1442.0,7.66,10.0242,-85.3884,20.7,308.0,17.0,102.0,11.317,29.03,0.0,0.0,0.0,1.0,90.7,60.6,0.0,2.0,Central_America_S,-888.0,7.6,-888.0,36.0,7.5,2.0,-999,-999.0,SMA,A,0.69748649,1.61115023,0.798436784,-999.0,-999.0,19.434693094269843,M,-999.0,28.8684017,35.5228746,0.0,13.5230551,32.636187,9.24,22.300000000000004,0.0,67.65,308.0000324,80.7997187878625,RmaxTruncRegr_km,9.951,-85.6702,-12.9322,0.696510401653675,-999.0,2.0,0.0,0.0,1.0,0.0,CentralAmerica&Mexico,GNSR,9.979,-85.648,-999.0,-999.0,519.0,0.429418211,0.0,4C-CSA,-999.0,-999.0,-999.0,-999.0,-999.0,-999.0,LIS,2.0,C1,0.0,0.0,C1,0.0,0.0,C1,0.0,0.0,C1,0.0,0.0,C1,0.0,0.0,0.0,C1,0.0,0.0,0.0,C1,0.0,0.0,0.0,C1,0.0,0.0,0.0,0.005,0.71099,20.634,7.5441,0.7475022,1.129707,1.249199,1.38662,1.38704,1.295352,1.206388,1.117744,1.11946,1.014606,1.017231,1.064407,1.079326,1.080121,1.062637,1.108128,1.093877,1.090342,1.111215,1.174002,1.164324,1.282249,1.186805,1.134795,1.204343,1.311466,1.436564,1.542899,1.901114,1.708069,1.71935,1.796657,1.734976,1.98728,1.875073,1.661524,1.428469,1.375573,1.312016,1.246241,1.29431,1.211987,1.032797,0.9476534,0.8277296,0.8148296,0.7776325,0.7745153,0.8606935,0.7710261,0.6578618,0.6372985,0.5458311,0.4902332,0.441656,0.4140043,0.3975737,0.4680535,0.4467548,0.2936511,0.261086,0.2290833,0.2374694,0.281462,0.2637384,0.2008205,0.1959194,0.1732842,0.159286,0.1545933,0.1277303,0.1105763,0.09893113,0.1025412,0.09560359,0.08207309,0.07273231,0.06833883,0.0469276,0.04030828,0.0416094,0.0381836,0.03358087,0.02963518,0.02608532,0.02772162,0.02545194,0.02274782,0.01921883,0.01634656,0.01432413,0.01363419,0.01233958,0.01185931,0.01201895,0.01174783,0.01056735,0.009429535,0.007898965,0.006948463,0.006221822,0.005784721,0.005431059,0.005045755,0.004886106,0.004722659,0.004273104,0.003993096,0.003479515,0.002789388,-999.0,-999,-999,-999.0,-999.0,-999.0,-999.0,-999.0,-999.0,-999.0,-999.0,-999,-999,-999.0,-999,39.9063050217157,43.006119609286,50.175390709436,53.920311403634,48.0121955679519,53.2850775039341,63.8238792005452,68.4663050071966,GP
3000395.0,CentralAmerica&Mexico,3000105,3000126.0,105,2012,905.0,1442.0,7.66,10.0242,-85.3884,20.7,308.0,17.0,102.0,11.317,29.03,0.0,0.0,0.0,1.0,90.7,60.6,0.0,2.0,Central_America_S,-888.0,7.6,-888.0,36.0,7.5,2.0,-999,-999.0,SMA,A,0.245751757,0.202923262,0.140720728,-999.0,-999.0,19.374033445877824,M,-999.0,15.1803867,25.6697125,0.0,21.6178881,34.7930689,36.92,16.83,0.0,62.18,308.0000324,80.7997187878625,RmaxTruncRegr_km,10.1002,-85.4885,-20.6733,-0.54518527975997,-999.0,2.0,0.0,0.0,1.0,0.0,CentralAmerica&Mexico,GNYA,10.145,-85.453,-999.0,-999.0,517.0,0.429418211,0.0,4C-CSA,-999.0,-999.0,-999.0,-999.0,-999.0,-999.0,LIS,2.0,C1,0.0,0.0,C1,0.0,0.0,C1,0.0,0.0,C1,0.0,0.0,C1,0.0,0.0,0.0,C1,0.0,0.0,0.0,C1,0.0,0.0,0.0,C1,0.0,0.0,0.0,0.005,0.20215,18.055,10.852,0.2044365,0.2072468,0.2091175,0.2143735,0.2134495,0.2204547,0.2314444,0.2482873,0.2499598,0.271946,0.2652563,0.2739777,0.2948444,0.3163874,0.3463697,0.3567798,0.3828701,0.349312,0.3402957,0.3265845,0.3230599,0.3280394,0.3400121,0.3731079,0.4249114,0.4750075,0.5772465,0.6947095,0.6320669,0.5554023,0.5728825,0.5715129,0.4821855,0.4816125,0.53286,0.5034046,0.4640918,0.4624693,0.4788886,0.3879906,0.4408166,0.4341097,0.4264229,0.4202815,0.4130161,0.5047709,0.5095329,0.4751336,0.4450485,0.4088727,0.4616216,0.4035006,0.3445793,0.3487508,0.347111,0.3065431,0.2871461,0.3093087,0.3348902,0.2956052,0.2736906,0.2402287,0.2234658,0.2181659,0.2208686,0.2176369,0.181442,0.1593977,0.1457868,0.1212881,0.1207962,0.112896,0.1263184,0.128235,0.1134135,0.09280033,0.0958665,0.1103886,0.1031481,0.06914603,0.06126282,0.05690937,0.05348575,0.05068415,0.05126171,0.04876712,0.04484337,0.03868588,0.02942657,0.02589685,0.02492843,0.02407836,0.02281366,0.02416347,0.02436729,0.02274902,0.02134196,0.02104634,0.01919083,0.01658358,0.01478907,0.01315865,0.01190961,0.01061597,0.009467958,0.007154137,0.005726974,0.004631069,0.003693139,0.002997198,-999.0,-999,-999,-999.0,-999.0,-999.0,-999.0,-999.0,-999.0,-999.0,-999.0,-999,-999,-999.0,-999,45.3345200411471,48.07316090513,55.4184771725751,59.0663121328868,56.3348987793316,59.3018597319669,64.4671154723227,67.5309167510831,GP
3000396.0,CentralAmerica&Mexico,3000105,3000127.0,105,2012,905.0,1442.0,7.66,10.0242,-85.3884,20.7,308.0,17.0,102.0,11.317,29.03,0.0,0.0,0.0,1.0,90.7,60.6,0.0,2.0,Central_America_S,-888.0,7.6,-888.0,36.0,7.5,2.0,-999,-999.0,SMA,A,0.574099649,0.389530904,0.225357681,-999.0,-999.0,21.892951998098816,M,-999.0,36.528556,41.9860143,0.0,22.5340153,40.6853216,40.06,38.3,0.0,83.65,308.0000324,80.7997187878625,RmaxTruncRegr_km,10.2393,-85.627,-21.5494,0.715358879152413,-999.0,2.0,0.0,0.0,1.0,0.0,CentralAmerica&Mexico,GSTC,10.286,-85.59,-999.0,-999.0,392.0,0.52,0.0,4C-CSA,-999.0,-999.0,-999.0,-999.0,-999.0,-999.0,LIS,2.0,C1,0.0,0.0,C1,0.0,0.0,C1,0.0,0.0,C1,0.0,0.0,C1,0.0,0.0,0.0,C1,0.0,0.0,0.0,C1,0.0,0.0,0.0,C1,0.0,0.0,0.0,0.005,0.46975,24.356,7.5094,0.4720553,0.4787467,0.4779461,0.481759,0.4835805,0.4874493,0.4889025,0.5126177,0.5123375,0.5283296,0.5368269,0.5521511,0.5621558,0.5726799,0.5646914,0.547006,0.5747888,0.5822209,0.6697379,0.7302513,0.8023155,0.8649616,0.8608693,0.8335482,0.8460405,0.7973148,0.8040148,0.9014642,0.7740736,0.7519257,0.7782434,0.9396507,0.9433289,0.9387709,0.9877023,0.9082009,0.8314292,0.7755563,0.7751192,0.8156264,0.8987453,0.9907486,1.215424,1.392785,1.504789,1.477842,1.535596,1.594746,1.619371,1.510814,1.616051,1.498858,1.398057,1.338816,1.266101,1.101109,0.8979685,0.6017698,0.3921959,0.3260906,0.3341322,0.3583405,0.3244339,0.3119857,0.3596252,0.3064393,0.246065,0.1783617,0.1951655,0.1597604,0.1451368,0.1295168,0.1118845,0.08760968,0.08083848,0.07966175,0.07590891,0.07439482,0.06646493,0.05538417,0.04647166,0.03880922,0.02854912,0.02309005,0.02127595,0.01830007,0.01735522,0.0176032,0.01847318,0.01878859,0.01797412,0.01605897,0.01526595,0.0157875,0.01580588,0.01481306,0.01196808,0.009309022,0.007538923,0.007527047,0.00726481,0.006903601,0.006322504,0.005769436,0.00556784,0.004786828,0.004254868,0.003507877,0.002823862,0.002359562,0.001102624,-999,-999,-999.0,-999.0,-999.0,-999.0,-999.0,-999.0,-999.0,-999.0,-999,-999,-999.0,-999,51.380311873101,55.0016525083982,63.5077612548273,67.7965070185387,59.5640480758132,62.9600445544578,71.4096082567381,76.31157160375,GP
3000397.0,CentralAmerica&Mexico,3000105,3000128.0,105,2012,905.0,1442.0,7.66,10.0242,-85.3884,20.7,308.0,17.0,102.0,11.317,29.03,0.0,0.0,0.0,1.0,90.7,60.6,0.0,2.0,Central_America_S,-888.0,7.6,-888.0,36.0,7.5,2.0,-999,-999.0,SMA,A,0.117268227,0.093201237,0.099422263,-999.0,-999.0,21.12485996468896,M,-999.0,93.802077,96.0589385,43.6706671,52.4380772,94.116599,86.48,78.4,33.05,123.75,308.0000324,80.7997187878625,RmaxTruncRegr_km,10.4518,-85.5403,-29.028,-0.0243816555144363,-999.0,2.0,0.0,0.0,1.0,0.0,CentralAmerica&Mexico,GSTR,10.837,-85.618,-999.0,-999.0,353.0,0.256124969,0.0,4C-CSA,-999.0,-999.0,-999.0,-999.0,-999.0,-999.0,LIS,2.0,C1,0.0,0.0,C1,0.0,0.0,C1,0.0,0.0,C1,0.0,0.0,C1,0.0,0.0,0.0,C1,0.0,0.0,0.0,C1,0.0,0.0,0.0,C1,0.0,0.0,0.0,0.005,0.10646,9.7455,5.9495,0.1065856,0.1069466,0.1071429,0.1073351,0.1080622,0.1078492,0.1081246,0.1081054,0.1086942,0.1100496,0.1103121,0.1101843,0.1102293,0.1100002,0.1102506,0.1104286,0.1120007,0.1109438,0.1124671,0.113854,0.1171018,0.1225955,0.1269169,0.1306207,0.1195812,0.1298711,0.1387681,0.1638439,0.1564515,0.1599459,0.166884,0.177065,0.1812896,0.1877034,0.1786161,0.1935182,0.2182593,0.257429,0.2526953,0.2105368,0.2101848,0.2222086,0.2155914,0.2214468,0.2531263,0.3068374,0.2762256,0.235351,0.2322258,0.221834,0.2177818,0.2157329,0.2444751,0.2357036,0.2250676,0.2345697,0.2424697,0.2829465,0.2691588,0.2079944,0.2046974,0.2272296,0.2423521,0.2116998,0.1783478,0.1301293,0.1114625,0.1075779,0.1020172,0.09395061,0.0859348,0.0725019,0.08045399,0.07348138,0.05110674,0.04365487,0.03837995,0.03987354,0.04145659,0.02946833,0.02456166,0.02072885,0.02076155,0.01666715,0.01545783,0.01476788,0.01437376,0.01419156,0.01449111,0.01491958,0.01472875,0.01633675,0.01683881,0.01618781,0.01480677,0.01147283,0.008096697,0.006193017,0.005429941,0.004994853,0.005303405,0.005994197,0.006593808,0.006578704,0.006450475,0.005832335,0.004805559,0.003727864,0.002984382,0.002424098,0.00100936,-999,-999,-999.0,-999.0,-999.0,-999.0,-999.0,-999.0,-999.0,-999.0,-999,-999,-999.0,-999,100.344577219527,104.12424034816,111.650224501193,115.287913016539,95.9412344183341,101.730321882193,115.092810617257,120.389255642079,GP
