NGAsubRSN,DatabaseRegion,NGAsubEQID,NGAsubSSN,Earthquake_Name,YEAR,MODY,HRMN,Earthquake_Magnitude,Hypocenter_Latitude_deg,Hypocenter_Longitude_deg,Hypocenter_Depth_km,Strike_deg,Dip_deg,Rake_deg,Ztor_km,Zbor_km,Intra_Inter_Flag,Finite_Fault_Model,Multiple_Event,Number_of_Segment,Length_km,Width_km,Source_review_flag,Fault_Type,Subduction_Zone_Name,Alternate_Saturation_Magnitude_10MPa,Preferred_Saturation_Magnitude_10MPa,Alternate_Fault_maximum_width_km,Preferred_Fault_maximum_width_km,Magnitude_break_interface,VolcanicArcFlag_Hypocenter,Interface_Event_FromHypocenterDepth,InterfaceFlag_FromHypocenterDepth,Instrument_Type,Accelerograph_Seismograph,Unfiltered_PGA_H1_g,Unfiltered_PGA_H2_g,Unfiltered_PGA_V_g,Late_P_trigger_flag_1ptYes_0ptNo,Shortest_Usable_Period_for_PSa_Ave_Component_sec,Longest_Usable_Period_for_PSa_Ave_Component_sec,Magnitude_Type,DbQualityFlag,EpiD_km,HypD_km,Rjb_km,ClstD_km,Rrms_km,Rx_km,Ry_km,Ry0_km,U_km,LocalStrikeParallelDirection,RmaxForAnalysis_km,RmaxForAnalysisModel,PcLat,PcLon,PcZ,Epsilon_Phi_pt7,Station_review_flag,VolcanicArcFlag_ClosestPoint,Distance_fraction_in_VolcanicArcFlag_0,Distance_fraction_in_VolcanicArcFlag_1,Distance_fraction_in_VolcanicArcFlag_2,Distance_fraction_in_VolcanicArcFlag_3,StationDatabaseRegion,Station_Name,Station_Latitude_deg,Station_Longitude_deg,Sensor_Depth_m,Geomatrix_Site_Code_1st_Letter,Vs30_Selected_for_Analysis_m_s,Sigma_of_Vs30_Selected_for_Analysis_ln_Units,Vs30_Measured_Inferred_Class,Vs30_Code,Z1pt0_selected_for_analysis_m,Z1pt5_selected_for_analysis_m,Z2pt5_selected_for_analysis_m,Sigma_Z1pt0,Sigma_Z1pt5,Sigma_Z2pt5,Network,VolcanicArcFlag_Station,C1C2Class_M1_Rcutoff10km,C1NGAsubEQID_M1_Rcutoff10km,Rclosest_M1_Rcutoff10km,C1C2Class_M1_Rcutoff20km,C1NGAsubEQID_M1_Rcutoff20km,Rclosest_M1_Rcutoff20km,C1C2Class_M1_Rcutoff40km,C1NGAsubEQID_M1_Rcutoff40km,Rclosest_M1_Rcutoff40km,C1C2Class_M1_Rcutoff80km,C1NGAsubEQID_M1_Rcutoff80km,Rclosest_M1_Rcutoff80km,C1C2Class_M2_Rcutoff10km,C1NGAsubEQID_M2_Rcutoff10km,Rclosest_M2_Rcutoff10km,FractC2WithinRmax_M2_Rcutoff10km,C1C2Class_M2_Rcutoff20km,C1NGAsubEQID_M2_Rcutoff20km,Rclosest_M2_Rcutoff20km,FractC2WithinRmax_M2_Rcutoff20km,C1C2Class_M2_Rcutoff40km,C1NGAsubEQID_M2_Rcutoff40km,Rclosest_M2_Rcutoff40km,FractC2WithinRmax_M2_Rcutoff40km,C1C2Class_M2_Rcutoff80km,C1NGAsubEQID_M2_Rcutoff80km,Rclosest_M2_Rcutoff80km,FractC2WithinRmax_M2_Rcutoff80km,dtH1,PGA_g,PGV_cm_sec,PGD_cm,T = 0.01,T = 0.02,T = 0.022,T = 0.025,T = 0.029,T = 0.03,T = 0.032,T = 0.035,T = 0.036,T = 0.04,T = 0.042,T = 0.044,T = 0.045,T = 0.046,T = 0.048,T = 0.05,T = 0.055,T = 0.06,T = 0.065,T = 0.067,T = 0.07,T = 0.075,T = 0.08,T = 0.085,T = 0.09,T = 0.095,T = 0.1,T = 0.11,T = 0.12,T = 0.13,T = 0.133,T = 0.14,T = 0.15,T = 0.16,T = 0.17,T = 0.18,T = 0.19,T = 0.2,T = 0.22,T = 0.24,T = 0.25,T = 0.26,T = 0.28,T = 0.29,T = 0.3,T = 0.32,T = 0.34,T = 0.35,T = 0.36,T = 0.38,T = 0.4,T = 0.42,T = 0.44,T = 0.45,T = 0.46,T = 0.48,T = 0.5,T = 0.55,T = 0.6,T = 0.65,T = 0.667,T = 0.7,T = 0.75,T = 0.8,T = 0.85,T = 0.9,T = 0.95,T = 1.0,T = 1.1,T = 1.2,T = 1.3,T = 1.4,T = 1.5,T = 1.6,T = 1.7,T = 1.8,T = 1.9,T = 2.0,T = 2.2,T = 2.4,T = 2.5,T = 2.6,T = 2.8,T = 3.0,T = 3.2,T = 3.4,T = 3.5,T = 3.6,T = 3.8,T = 4.0,T = 4.2,T = 4.4,T = 4.6,T = 4.8,T = 5.0,T = 5.5,T = 6.0,T = 6.5,T = 7.0,T = 7.5,T = 8.0,T = 8.5,T = 9.0,T = 9.5,T = 10.0,T = 11.0,T = 12.0,T = 13.0,T = 14.0,T = 15.0,T = 20.0,EarthquakeTime,EarthquakeMagnitudeType,BackAzimuth,RuptureDistanceVar,JoynerBooreDistanceVar,GC2_ry,GC2_rx,GC2_ry0,GC2_U,GC2_T,DataProvider,StationDescription,SamplingRate,SourceFile,Rehd_median_km,Rhm_median_km,Rasp_median_km,Rrms_median_km,Rehd_unit_median_km,Rhm_unit_median_km,Rasp_unit_median_km,Rrms_unit_median_km,Database_Name
4000017.0,Japan,4000001,4000017.0,Tohoku,2011,311.0,546.0,9.12,38.1165,142.823,17.4965,200.0,12.3,88.0,8.65,47.263,0.0,1.0,0.0,3.0,482.0,186.0,0.0,2.0,Japan_Pac,8.2,7.6,74.0,37.0,8.31,2.0,-999,-999.0,-999,A,0.676813258505991,0.386817174315388,0.192131268943353,-999.0,0.0,64.619749928,M,-999.0,137.9373213,139.042555,32.0050927,57.0800844,116.8032402,205.97,-92.09,0.0,148.91,200.7603133,243.773131786193,RmaxTruncRegr_km,38.7835,141.9221,-47.2632,0.473873938373568,-999.0,2.0,0.0,0.0,1.0,0.0,Japan,41208,38.8806,141.5743,-999.0,-999.0,329.45,0.391784049,0.0,2J_3J,4.0,20.0,96.0,1.702,1.364,1.157,JMA,2.0,C1,0.0,0.0,C1,0.0,0.0,C1,0.0,0.0,C1,0.0,0.0,C1,0.0,0.0,0.0,C1,0.0,0.0,0.0,C1,0.0,0.0,0.0,C1,0.0,0.0,0.0,0.01,0.51125,34.849,180.16,0.5133027,0.5229201,0.5304371,0.5384152,0.5453249,0.539793,0.527665,0.5590392,0.5500667,0.5629069,0.5730562,0.5525955,0.5405549,0.5375187,0.5488827,0.543013,0.5864611,0.5691755,0.5911654,0.604523,0.6286015,0.6430094,0.6278177,0.6147358,0.6227013,0.63408,0.6961203,0.7944226,0.8788674,0.875029,0.8604432,0.9105174,1.018027,1.086602,0.9681582,0.8747737,0.9008944,0.9313096,1.051448,1.496842,1.61026,1.497798,1.586432,1.454217,1.5162,1.612013,1.81979,1.691139,1.718327,1.622189,1.529092,1.699261,1.879125,1.915917,2.055556,1.884372,1.663206,1.132573,1.01449,0.7955835,0.7290002,0.7082396,0.6009942,0.5679623,0.5191101,0.4269761,0.3661687,0.3441845,0.2690392,0.2443694,0.2054451,0.185594,0.1372156,0.1210158,0.1142863,0.1094043,0.09841038,0.1008805,0.08266693,0.06155458,0.05553478,0.05055342,0.05234923,0.05261911,0.0556704,0.05197004,0.04932008,0.04497264,0.03790776,0.03059878,0.02718867,0.02572351,0.02300518,0.01990697,0.0196082,0.01780211,0.01636474,0.01329083,0.01297638,0.01386717,0.01269024,0.01289761,0.0139706,0.01245207,0.01108122,0.01186456,0.01042278,0.008051508,0.007899713,0.008450248,0.00516026,-999,-999,-999.0,-999.0,-999.0,-999.0,-999.0,-999.0,-999.0,-999.0,-999,-999,-999.0,-999,159.520168269261,172.013494052134,190.13811503013,197.644335829897,157.016762775878,174.64953870665,210.959119342834,224.368097078705,GP
4000018.0,Japan,4000001,4000018.0,Tohoku,2011,311.0,546.0,9.12,38.1165,142.823,17.4965,200.0,12.3,88.0,8.65,47.263,0.0,1.0,0.0,3.0,482.0,186.0,0.0,2.0,Japan_Pac,8.2,7.6,74.0,37.0,8.31,2.0,-999,-999.0,-999,A,0.46521230038347,0.560735934193181,0.327857366866134,-999.0,0.0,60.064240207,M,-999.0,170.5736702,171.4686691,71.2578418,85.5072517,148.5260852,245.88,-42.63,0.0,198.37,200.7603133,243.773131786193,RmaxTruncRegr_km,38.3605,141.7278,-47.2632,1.38833576563398,-999.0,2.0,0.0,0.0,1.0,0.0,Japan,41209,38.5741,140.9561,-999.0,-999.0,226.5434029,0.35613683,0.0,2J_3J,69.0,708.0,1882.0,1.702,1.364,1.157,JMA,2.0,C1,0.0,0.0,C1,0.0,0.0,C1,0.0,0.0,C1,0.0,0.0,C1,0.0,0.0,0.0,C1,0.0,0.0,0.0,C1,0.0,0.0,0.0,C1,0.0,0.0,0.0,0.01,0.49313,79.89,155.83,0.4936754,0.4953792,0.4969169,0.4987598,0.4987296,0.4992786,0.5010703,0.5052971,0.5048217,0.5075507,0.5126589,0.5133511,0.5148032,0.5224963,0.5360729,0.5394377,0.5261233,0.5462703,0.5397274,0.5340852,0.5458952,0.5545311,0.5460564,0.5335734,0.5094713,0.5534027,0.5665391,0.6315236,0.6788442,0.7576364,0.766468,0.7842711,0.7960018,0.8662667,0.9540088,0.9022284,0.8260057,0.8032079,0.735945,0.7975314,0.7529811,0.8459967,0.7585157,0.7526417,0.8240765,0.9014819,1.069936,1.073451,1.151472,1.308677,1.203586,1.220923,1.273458,1.289529,1.291773,1.260288,1.313734,1.229024,1.151158,1.081047,1.074306,1.162369,1.149606,0.9279147,0.9533464,1.000727,1.045703,1.165071,1.346728,1.628555,1.356567,1.119397,0.9693815,0.7508708,0.5745133,0.4757346,0.4167877,0.3937725,0.3989174,0.3264111,0.2845306,0.2753006,0.2464701,0.2062437,0.2054414,0.2179791,0.2208953,0.2205852,0.2007906,0.1705506,0.1465297,0.1397968,0.1114419,0.1055215,0.09488823,0.08386765,0.04958263,0.04154128,0.0349305,0.03423681,0.03201758,0.03278697,0.0282166,0.02177262,0.01901761,0.01709811,0.01804124,0.01631509,0.01692713,0.01776327,0.01081733,-999,-999,-999.0,-999.0,-999.0,-999.0,-999.0,-999.0,-999.0,-999.0,-999,-999,-999.0,-999,196.869623889458,207.098247228234,220.030550174368,225.301127610796,195.010099887303,208.668957539018,230.659214454336,238.972923351113,GP
4000024.0,Japan,4000001,4000024.0,Tohoku,2011,311.0,546.0,9.12,38.1165,142.823,17.4965,200.0,12.3,88.0,8.65,47.263,0.0,1.0,0.0,3.0,482.0,186.0,0.0,2.0,Japan_Pac,8.2,7.6,74.0,37.0,8.31,2.0,-999,-999.0,-999,A,0.675282456904244,0.511927138922738,0.185184116328093,-999.0,0.0,35.160863146,M,-999.0,230.6784302,231.341016,78.0435536,91.2392806,158.4437846,254.53,97.66000000000004,0.0,338.66,200.7603133,243.773131786193,RmaxTruncRegr_km,37.1709,141.1934,-47.2632,1.66958964412747,-999.0,2.0,0.0,0.0,1.0,0.0,Japan,41215,37.4009,140.36,-999.0,-999.0,372.3548534,0.332197919,0.0,2J_3J,130.0,217.0,767.0,1.702,1.364,1.157,JMA,2.0,C1,0.0,0.0,C1,0.0,0.0,C1,0.0,0.0,C1,0.0,0.0,C1,0.0,0.0,0.0,C1,0.0,0.0,0.0,C1,0.0,0.0,0.0,C1,0.0,0.0,0.0,0.01,0.53736,46.934,38.192,0.5385522,0.5421638,0.5431908,0.5449339,0.5476282,0.5483693,0.5499335,0.5524812,0.5533823,0.5572135,0.5592354,0.5604689,0.5614249,0.5627434,0.5646561,0.5637371,0.5634764,0.5735755,0.580179,0.5967091,0.6285047,0.6914352,0.6928192,0.8226104,0.9670368,1.052393,1.031491,1.124251,1.116714,1.445567,1.528614,1.491183,1.39974,1.470987,1.35461,1.343266,1.387208,1.323985,1.388681,1.414618,1.459212,1.50566,1.451222,1.426399,1.357756,1.17259,0.9889951,1.095495,1.145655,1.173175,1.268283,1.059867,1.045713,1.08626,1.041955,0.9932922,1.111884,1.195599,1.115663,1.109396,1.114369,1.030368,1.022142,0.9902604,0.9314187,0.8455908,0.7917987,0.6970055,0.5374928,0.4631499,0.3840316,0.346485,0.2645316,0.2257914,0.1741135,0.1479592,0.1247045,0.1152511,0.1210986,0.1245617,0.0978958,0.08865577,0.07363296,0.0625198,0.04957983,0.0426799,0.04352855,0.04324206,0.04142588,0.0391266,0.03476165,0.02853175,0.02114699,0.01972665,0.01768384,0.01823344,0.01581615,0.01640779,0.01560323,0.01315593,0.01208015,0.01120018,0.009786749,0.007851267,0.006611315,0.005713809,0.006381806,0.005396123,0.005316365,0.005073998,0.003801354,-999,-999,-999.0,-999.0,-999.0,-999.0,-999.0,-999.0,-999.0,-999.0,-999,-999,-999.0,-999,238.800130685752,247.962441789806,265.606207226063,273.619405481286,207.352856274093,220.298224003871,250.035877235039,260.994646783393,GP
4000025.0,Japan,4000001,4000025.0,Tohoku,2011,311.0,546.0,9.12,38.1165,142.823,17.4965,200.0,12.3,88.0,8.65,47.263,0.0,1.0,0.0,3.0,482.0,186.0,0.0,2.0,Japan_Pac,8.2,7.6,74.0,37.0,8.31,2.0,-999,-999.0,-999,A,0.494540936232613,0.621236778589019,0.27256580459858,-999.0,0.0,23.181443973,M,-999.0,172.1881776,173.0748278,37.1129005,60.0930733,120.1357334,213.04,55.76999999999998,0.0,296.77,200.7603133,243.773131786193,RmaxTruncRegr_km,37.5307,141.3532,-47.2632,0.746601447677535,-999.0,2.0,0.0,0.0,1.0,0.0,Japan,41216,37.6413,140.9558,-999.0,-999.0,412.0331837,0.333294122,0.0,2J_3J,201.0,217.0,872.0,1.702,1.364,1.157,JMA,2.0,C1,0.0,0.0,C1,0.0,0.0,C1,0.0,0.0,C1,0.0,0.0,C1,0.0,0.0,0.0,C1,0.0,0.0,0.0,C1,0.0,0.0,0.0,C1,0.0,0.0,0.0,0.01,0.56949,28.356,20.682,0.5749685,0.6020905,0.6220508,0.7006457,0.6527552,0.6664984,0.6802032,0.6539108,0.6621997,0.7194431,0.7851936,0.859951,0.8814951,0.8957306,0.9265627,0.9465284,0.911518,0.8573985,0.9976727,1.066901,1.094932,1.231137,1.515764,1.616384,1.877973,2.113896,2.02819,2.169567,1.987091,1.835937,1.752308,1.520031,1.432949,1.379581,1.493711,1.498103,1.428071,1.375441,1.015567,0.941783,0.899529,0.898869,0.849963,0.9141424,0.9502426,1.066506,0.9513053,0.9109918,0.9142878,0.7532234,0.7051932,0.7533177,0.7376493,0.7224662,0.6989299,0.603847,0.6208751,0.6737496,0.5499967,0.4077826,0.3918863,0.3892766,0.4614208,0.3325862,0.3127214,0.298593,0.2812181,0.2458415,0.2575605,0.2457755,0.2734182,0.2972123,0.3104031,0.2739999,0.2116237,0.2090909,0.191477,0.1788702,0.1737527,0.1635188,0.1375865,0.1019896,0.08708166,0.0737628,0.06728807,0.05881132,0.05480664,0.05083893,0.04523304,0.03608529,0.03147293,0.03104302,0.03582224,0.03431999,0.03224647,0.02327934,0.02077601,0.01876986,0.01967983,0.01899252,0.01978383,0.01611659,0.01262367,0.01052978,0.009555546,0.009495005,0.01268403,0.01245665,0.008699445,0.006854148,0.004089134,-999,-999,-999.0,-999.0,-999.0,-999.0,-999.0,-999.0,-999.0,-999.0,-999,-999,-999.0,-999,181.758941920887,194.043501427479,214.019049655813,223.06520788049,164.986972023662,179.137589606612,209.239753002143,219.070057027072,GP
4000026.0,Japan,4000001,4000026.0,Tohoku,2011,311.0,546.0,9.12,38.1165,142.823,17.4965,200.0,12.3,88.0,8.65,47.263,0.0,1.0,0.0,3.0,482.0,186.0,0.0,2.0,Japan_Pac,8.2,7.6,74.0,37.0,8.31,2.0,-999,-999.0,-999,A,0.199921069110569,0.223911740804756,0.157292619083425,-999.0,0.0,35.160863146,M,-999.0,348.2445468,348.6837993,72.4064221,86.4667568,206.4988044,248.2,254.68,13.680000000000009,495.68,200.7603133,243.773131786193,RmaxTruncRegr_km,36.0075,140.6872,-47.2632,0.152866780771844,-999.0,2.0,0.0,0.0,1.0,0.0,Japan,41301,36.0407,139.8832,-999.0,-999.0,225.5,0.292,0.0,2J,628.0,628.0,976.0,1.702,1.364,1.157,JMA,2.0,C1,0.0,0.0,C1,0.0,0.0,C1,0.0,0.0,C1,0.0,0.0,C1,0.0,0.0,0.0,C1,0.0,0.0,0.0,C1,0.0,0.0,0.0,C1,0.0,0.0,0.0,0.01,0.2042,24.94,44.939,0.204622,0.2059933,0.2064437,0.2098969,0.215556,0.2171607,0.2137464,0.2144718,0.2148491,0.2293468,0.2272118,0.2261886,0.2230951,0.2221341,0.2261491,0.2315819,0.248987,0.258966,0.2863595,0.3019212,0.2988885,0.3600346,0.3917387,0.4677457,0.4925722,0.4411764,0.4010071,0.374626,0.3274271,0.338747,0.3532116,0.373873,0.3404674,0.354688,0.353443,0.3879864,0.3891179,0.4011581,0.4469851,0.4740665,0.5126704,0.490439,0.5376362,0.6026789,0.627417,0.5975965,0.5711452,0.568338,0.589375,0.6309879,0.5563608,0.4973402,0.5361314,0.5589117,0.5461218,0.6034858,0.7103841,0.7902808,0.5345204,0.4069771,0.388083,0.3680079,0.3198778,0.3029926,0.3346836,0.3029713,0.2643594,0.2336171,0.1960599,0.1835302,0.1916755,0.1794199,0.1700562,0.1418224,0.1194329,0.1058732,0.0930946,0.09568749,0.09436696,0.1119827,0.1057092,0.09333098,0.08408424,0.08148313,0.07290453,0.05686521,0.05542251,0.05436241,0.05695805,0.06386628,0.06753227,0.06905117,0.06758007,0.06713767,0.0631816,0.06054123,0.06362633,0.05059758,0.03786735,0.02684909,0.02218778,0.01733428,0.01417453,0.01252872,0.01103515,0.009678683,0.01115838,0.01042161,0.00861575,0.00812804,0.006847304,-999,-999,-999.0,-999.0,-999.0,-999.0,-999.0,-999.0,-999.0,-999.0,-999,-999,-999.0,-999,326.722466081811,339.833747291596,366.439176354208,375.040008748353,248.427275600203,275.381913159964,332.934249565031,349.289326565074,GP
4000027.0,Japan,4000001,4000027.0,Tohoku,2011,311.0,546.0,9.12,38.1165,142.823,17.4965,200.0,12.3,88.0,8.65,47.263,0.0,1.0,0.0,3.0,482.0,186.0,0.0,2.0,Japan_Pac,8.2,7.6,74.0,37.0,8.31,2.0,-999,-999.0,-999,A,0.314561650011302,0.260312618764365,0.0852242353714628,-999.0,0.0,30.973993886,M,-999.0,316.5889797,317.072089,110.7562563,120.4190948,209.1262005,288.43,186.52,0.0,427.52,200.7603133,243.773131786193,RmaxTruncRegr_km,36.413,140.8619,-47.2632,1.47250377960857,-999.0,2.0,0.0,0.0,1.0,0.0,Japan,41303,36.7346,139.6882,-999.0,-999.0,491.4533888,0.333294122,0.0,2J_3J,35.0,35.0,146.0,1.702,1.364,1.157,JMA,2.0,C1,0.0,0.0,C1,0.0,0.0,C1,0.0,0.0,C1,0.0,0.0,C1,0.0,0.0,0.0,C1,0.0,0.0,0.0,C1,0.0,0.0,0.0,C1,0.0,0.0,0.0,0.01,0.28207,16.667,28.244,0.2837744,0.288743,0.2903433,0.2928632,0.2971258,0.2981895,0.3009496,0.3054396,0.3071356,0.3149823,0.3192939,0.3240435,0.3270949,0.3300222,0.3324312,0.3458975,0.3367122,0.3355535,0.3790002,0.4028715,0.4393768,0.529205,0.612936,0.73725,0.7454488,0.6203349,0.6216993,0.5601465,0.5231255,0.5948933,0.5880609,0.6704832,0.7424045,0.9181588,0.7914044,0.7049157,0.7339007,0.6944147,0.6646429,0.6691989,0.6302906,0.651641,0.6508715,0.6335148,0.6631095,0.7036064,0.6979405,0.6403478,0.5734826,0.5165898,0.4862159,0.4169838,0.3816671,0.3862172,0.3893629,0.4130161,0.4440279,0.4049059,0.3493449,0.3610622,0.3831012,0.397476,0.3651518,0.2928476,0.2431605,0.2212032,0.1914456,0.1607748,0.1483985,0.08802234,0.08361557,0.06395246,0.0570127,0.05633417,0.05150778,0.04140732,0.04376699,0.04111011,0.03093442,0.03077776,0.02948081,0.03518137,0.03272274,0.02840276,0.02105425,0.01861847,0.02131063,0.02129329,0.02090508,0.01886176,0.01926403,0.02019311,0.01996618,0.01770624,0.01727207,0.01372826,0.01062924,0.007917132,0.006234518,0.005882748,0.005428053,0.005533179,0.005026463,0.00425077,0.004110394,0.003996662,0.004231936,0.004125658,0.004058911,0.003572549,0.005185996,-999,-999,-999.0,-999.0,-999.0,-999.0,-999.0,-999.0,-999.0,-999.0,-999,-999,-999.0,-999,312.72744775189,322.377809109378,344.212857177532,350.542484363647,258.819935498253,277.27607071268,322.298260328258,331.753952552999,GP
4000028.0,Japan,4000001,4000028.0,Tohoku,2011,311.0,546.0,9.12,38.1165,142.823,17.4965,200.0,12.3,88.0,8.65,47.263,0.0,1.0,0.0,3.0,482.0,186.0,0.0,2.0,Japan_Pac,8.2,7.6,74.0,37.0,8.31,2.0,-999,-999.0,-999,A,0.287694300038723,0.335232005987279,0.0733832834007144,-999.0,0.0,20.596978712,M,-999.0,334.720744,335.17772,94.0530911,105.2606005,209.2830657,272.21,223.07,0.0,464.07,200.7603133,243.773131786193,RmaxTruncRegr_km,36.1044,140.7288,-47.2632,1.25474140685998,-999.0,2.0,0.0,0.0,1.0,0.0,Japan,41304,36.3772,139.7363,-999.0,-999.0,292.1812595,0.319756468,0.0,2J_3J,277.0,277.0,676.0,1.702,1.364,1.157,JMA,2.0,C1,0.0,0.0,C1,0.0,0.0,C1,0.0,0.0,C1,0.0,0.0,C1,0.0,0.0,0.0,C1,0.0,0.0,0.0,C1,0.0,0.0,0.0,C1,0.0,0.0,0.0,0.01,0.30978,12.967,28.692,0.3109954,0.315075,0.316476,0.31854,0.3220559,0.3229886,0.3247298,0.3283921,0.3296278,0.3355621,0.3392787,0.3430326,0.345571,0.3476027,0.3506471,0.3579923,0.3788282,0.4283289,0.4934074,0.4899006,0.5150594,0.6457421,0.6936218,0.8783706,1.016301,1.114897,1.106449,0.9711651,0.7961138,0.8848303,0.8896102,0.8715352,0.9901443,0.9966915,1.0525,1.022871,0.9469366,0.9657904,0.7546246,0.5595362,0.5400952,0.5668479,0.5840762,0.5779209,0.5769849,0.4594775,0.3291021,0.2964458,0.2615817,0.2376594,0.2417103,0.2394964,0.2540362,0.2512521,0.2521665,0.2417541,0.2226562,0.191079,0.2790056,0.2142139,0.2194432,0.2103089,0.2103931,0.2455676,0.218728,0.1780468,0.1390474,0.1266137,0.1116222,0.116801,0.1160209,0.08368665,0.0751484,0.07084685,0.05014506,0.04522733,0.04470414,0.04961444,0.04335831,0.0384592,0.03803694,0.03543397,0.02966399,0.02260713,0.01847854,0.0174217,0.01827531,0.01837552,0.01542914,0.01396498,0.01488608,0.01471796,0.01294269,0.01188758,0.01136397,0.009246323,0.009091883,0.01167464,0.008970088,0.007413687,0.007117274,0.005728295,0.005380333,0.004900323,0.005474958,0.004789331,0.005044467,0.006430512,0.006535836,0.005518628,0.005231391,-999,-999,-999.0,-999.0,-999.0,-999.0,-999.0,-999.0,-999.0,-999.0,-999,-999,-999.0,-999,324.330041336526,332.801383677139,357.736159080782,364.450770796993,256.284431901537,278.287507120869,329.627139238162,341.565419620858,GP
