NGAsubRSN,DatabaseRegion,NGAsubEQID,NGAsubSSN,Earthquake_Name,YEAR,MODY,HRMN,Earthquake_Magnitude,Hypocenter_Latitude_deg,Hypocenter_Longitude_deg,Hypocenter_Depth_km,Strike_deg,Dip_deg,Rake_deg,Ztor_km,Zbor_km,Intra_Inter_Flag,Finite_Fault_Model,Multiple_Event,Number_of_Segment,Length_km,Width_km,Source_review_flag,Fault_Type,Subduction_Zone_Name,Alternate_Saturation_Magnitude_10MPa,Preferred_Saturation_Magnitude_10MPa,Alternate_Fault_maximum_width_km,Preferred_Fault_maximum_width_km,Magnitude_break_interface,VolcanicArcFlag_Hypocenter,Interface_Event_FromHypocenterDepth,InterfaceFlag_FromHypocenterDepth,Instrument_Type,Accelerograph_Seismograph,Unfiltered_PGA_H1_g,Unfiltered_PGA_H2_g,Unfiltered_PGA_V_g,Late_P_trigger_flag_1ptYes_0ptNo,Shortest_Usable_Period_for_PSa_Ave_Component_sec,Longest_Usable_Period_for_PSa_Ave_Component_sec,Magnitude_Type,DbQualityFlag,EpiD_km,HypD_km,Rjb_km,ClstD_km,Rrms_km,Rx_km,Ry_km,Ry0_km,U_km,LocalStrikeParallelDirection,RmaxForAnalysis_km,RmaxForAnalysisModel,PcLat,PcLon,PcZ,Epsilon_Phi_pt7,Station_review_flag,VolcanicArcFlag_ClosestPoint,Distance_fraction_in_VolcanicArcFlag_0,Distance_fraction_in_VolcanicArcFlag_1,Distance_fraction_in_VolcanicArcFlag_2,Distance_fraction_in_VolcanicArcFlag_3,StationDatabaseRegion,Station_Name,Station_Latitude_deg,Station_Longitude_deg,Sensor_Depth_m,Geomatrix_Site_Code_1st_Letter,Vs30_Selected_for_Analysis_m_s,Sigma_of_Vs30_Selected_for_Analysis_ln_Units,Vs30_Measured_Inferred_Class,Vs30_Code,Z1pt0_selected_for_analysis_m,Z1pt5_selected_for_analysis_m,Z2pt5_selected_for_analysis_m,Sigma_Z1pt0,Sigma_Z1pt5,Sigma_Z2pt5,Network,VolcanicArcFlag_Station,C1C2Class_M1_Rcutoff10km,C1NGAsubEQID_M1_Rcutoff10km,Rclosest_M1_Rcutoff10km,C1C2Class_M1_Rcutoff20km,C1NGAsubEQID_M1_Rcutoff20km,Rclosest_M1_Rcutoff20km,C1C2Class_M1_Rcutoff40km,C1NGAsubEQID_M1_Rcutoff40km,Rclosest_M1_Rcutoff40km,C1C2Class_M1_Rcutoff80km,C1NGAsubEQID_M1_Rcutoff80km,Rclosest_M1_Rcutoff80km,C1C2Class_M2_Rcutoff10km,C1NGAsubEQID_M2_Rcutoff10km,Rclosest_M2_Rcutoff10km,FractC2WithinRmax_M2_Rcutoff10km,C1C2Class_M2_Rcutoff20km,C1NGAsubEQID_M2_Rcutoff20km,Rclosest_M2_Rcutoff20km,FractC2WithinRmax_M2_Rcutoff20km,C1C2Class_M2_Rcutoff40km,C1NGAsubEQID_M2_Rcutoff40km,Rclosest_M2_Rcutoff40km,FractC2WithinRmax_M2_Rcutoff40km,C1C2Class_M2_Rcutoff80km,C1NGAsubEQID_M2_Rcutoff80km,Rclosest_M2_Rcutoff80km,FractC2WithinRmax_M2_Rcutoff80km,dtH1,PGA_g,PGV_cm_sec,PGD_cm,T = 0.01,T = 0.02,T = 0.022,T = 0.025,T = 0.029,T = 0.03,T = 0.032,T = 0.035,T = 0.036,T = 0.04,T = 0.042,T = 0.044,T = 0.045,T = 0.046,T = 0.048,T = 0.05,T = 0.055,T = 0.06,T = 0.065,T = 0.067,T = 0.07,T = 0.075,T = 0.08,T = 0.085,T = 0.09,T = 0.095,T = 0.1,T = 0.11,T = 0.12,T = 0.13,T = 0.133,T = 0.14,T = 0.15,T = 0.16,T = 0.17,T = 0.18,T = 0.19,T = 0.2,T = 0.22,T = 0.24,T = 0.25,T = 0.26,T = 0.28,T = 0.29,T = 0.3,T = 0.32,T = 0.34,T = 0.35,T = 0.36,T = 0.38,T = 0.4,T = 0.42,T = 0.44,T = 0.45,T = 0.46,T = 0.48,T = 0.5,T = 0.55,T = 0.6,T = 0.65,T = 0.667,T = 0.7,T = 0.75,T = 0.8,T = 0.85,T = 0.9,T = 0.95,T = 1.0,T = 1.1,T = 1.2,T = 1.3,T = 1.4,T = 1.5,T = 1.6,T = 1.7,T = 1.8,T = 1.9,T = 2.0,T = 2.2,T = 2.4,T = 2.5,T = 2.6,T = 2.8,T = 3.0,T = 3.2,T = 3.4,T = 3.5,T = 3.6,T = 3.8,T = 4.0,T = 4.2,T = 4.4,T = 4.6,T = 4.8,T = 5.0,T = 5.5,T = 6.0,T = 6.5,T = 7.0,T = 7.5,T = 8.0,T = 8.5,T = 9.0,T = 9.5,T = 10.0,T = 11.0,T = 12.0,T = 13.0,T = 14.0,T = 15.0,T = 20.0,EarthquakeTime,EarthquakeMagnitudeType,BackAzimuth,RuptureDistanceVar,JoynerBooreDistanceVar,GC2_ry,GC2_rx,GC2_ry0,GC2_U,GC2_T,DataProvider,StationDescription,SamplingRate,SourceFile,Rehd_median_km,Rhm_median_km,Rasp_median_km,Rrms_median_km,Rehd_unit_median_km,Rhm_unit_median_km,Rasp_unit_median_km,Rrms_unit_median_km,Database_Name
4000044.0,Japan,4000001,4000044.0,Tohoku,2011,311.0,546.0,9.12,38.1165,142.823,17.4965,200.0,12.3,88.0,8.65,47.263,0.0,1.0,0.0,3.0,482.0,186.0,0.0,2.0,Japan_Pac,8.2,7.6,74.0,37.0,8.31,2.0,-999,-999.0,-999,A,0.0808719799348175,0.0601142261713565,0.0312159903597162,-999.0,0.0,191.84868511,M,-999.0,442.8518327,443.1973299,150.4761142,157.7240343,313.9366545,283.71,343.13,102.13,584.13,200.7603133,243.773131786193,RmaxTruncRegr_km,36.0075,140.6872,-47.2632,0.200756813303477,-999.0,2.0,0.0,0.0,1.0,0.0,Japan,41324,35.3799,139.2109,-999.0,-999.0,322.5730032,0.291969056,0.0,2J_3J,309.0,309.0,921.0,1.702,1.364,1.157,JMA,2.0,C1,0.0,0.0,C1,0.0,0.0,C1,0.0,0.0,C1,0.0,0.0,C1,0.0,0.0,0.0,C1,0.0,0.0,0.0,C1,0.0,0.0,0.0,C1,0.0,0.0,0.0,0.01,0.067325,12.819,56.005,0.06737623,0.06753372,0.06757721,0.06765148,0.06776612,0.06779765,0.06786406,0.06797207,0.0680104,0.06817583,0.06826644,0.06836347,0.06841601,0.06847309,0.06858855,0.06868066,0.06915363,0.07015274,0.07067665,0.07052402,0.07021228,0.07107537,0.07245375,0.0729882,0.07359143,0.07551195,0.07482685,0.07737747,0.08761784,0.08854199,0.08639847,0.08363815,0.08526307,0.08952518,0.09164416,0.09609973,0.103404,0.1127153,0.1297697,0.1770635,0.1922248,0.2152008,0.2722916,0.2760867,0.2905031,0.2951636,0.2534576,0.2308095,0.2297373,0.2054356,0.18432,0.1737792,0.166448,0.1684298,0.1679855,0.1775885,0.1832157,0.1918884,0.1445045,0.1303994,0.1262282,0.1243353,0.1223413,0.1225139,0.1125144,0.1267185,0.120049,0.1215588,0.09875096,0.06856853,0.07107922,0.08856801,0.08474752,0.07399914,0.07005508,0.07404798,0.08098587,0.08092783,0.06899883,0.06916475,0.0661397,0.05708817,0.04962626,0.04128681,0.03119933,0.02119553,0.02025286,0.01988204,0.01873676,0.01851818,0.01536965,0.01355708,0.01180197,0.01175554,0.01209885,0.01084969,0.009751299,0.0105016,0.009679573,0.008989187,0.007927469,0.007202427,0.006979397,0.006999825,0.006635251,0.005109911,0.004503552,0.004306457,0.004027749,0.003780722,0.006525705,-999,-999,-999.0,-999.0,-999.0,-999.0,-999.0,-999.0,-999.0,-999.0,-999,-999,-999.0,-999,426.762745223191,437.402790415979,457.919773105558,465.907639981362,351.856516966094,376.604423867299,420.602446787659,435.090667216277,GP
4000045.0,Japan,4000001,4000045.0,Tohoku,2011,311.0,546.0,9.12,38.1165,142.823,17.4965,200.0,12.3,88.0,8.65,47.263,0.0,1.0,0.0,3.0,482.0,186.0,0.0,2.0,Japan_Pac,8.2,7.6,74.0,37.0,8.31,2.0,-999,-999.0,-999,A,0.133985849349959,0.108994681228214,0.0388324302528273,-999.0,0.0,59.737754246,M,-999.0,434.2219486,434.5743068,138.0347917,145.9020691,301.6627021,265.55,342.71000000000004,101.71000000000004,583.71,200.7603133,243.773131786193,RmaxTruncRegr_km,36.0075,140.6872,-47.2632,0.721296340781278,-999.0,2.0,0.0,0.0,1.0,0.0,Japan,41325,35.3344,139.4032,-999.0,-999.0,210.8809241,0.372784482,0.0,2J_3J,657.0,657.0,1442.0,1.702,1.364,1.157,JMA,2.0,C1,0.0,0.0,C1,0.0,0.0,C1,0.0,0.0,C1,0.0,0.0,C1,0.0,0.0,0.0,C1,0.0,0.0,0.0,C1,0.0,0.0,0.0,C1,0.0,0.0,0.0,0.01,0.11335,18.275,44.989,0.1135222,0.1139871,0.1140983,0.114329,0.114542,0.1146161,0.114796,0.1150633,0.1151116,0.115464,0.1156405,0.1157892,0.1159209,0.1160061,0.1163875,0.1166963,0.1181102,0.119093,0.1200356,0.1204853,0.1226604,0.1219615,0.1216636,0.12248,0.1223263,0.1227487,0.1221071,0.1289327,0.1287477,0.1373685,0.1427265,0.1497603,0.1466088,0.1428557,0.1498583,0.1623066,0.1881784,0.1767273,0.1752165,0.1742417,0.174967,0.1884737,0.1863394,0.2108233,0.2240084,0.2265293,0.2381261,0.2411126,0.22229,0.2230691,0.2527494,0.298402,0.3107736,0.3156843,0.3104307,0.32637,0.3460668,0.3872145,0.4549994,0.4250222,0.4166079,0.4381775,0.3737558,0.3845932,0.3550687,0.2771406,0.2337049,0.2121951,0.1503978,0.1385495,0.1363622,0.1303978,0.1074342,0.1182164,0.1075858,0.09808097,0.08283066,0.07014158,0.05989807,0.06300908,0.05772527,0.05162583,0.05001355,0.05313292,0.04821055,0.03924517,0.03729314,0.03430853,0.03588437,0.03220795,0.02982257,0.02703306,0.02348265,0.02272213,0.02293058,0.02157428,0.01929414,0.0156186,0.01587157,0.01684146,0.01571816,0.0136881,0.01297601,0.01176665,0.01080639,0.007988193,0.007912519,0.008005634,0.006798718,0.006411816,0.0100864,-999,-999,-999.0,-999.0,-999.0,-999.0,-999.0,-999.0,-999.0,-999.0,-999,-999,-999.0,-999,414.472896615655,425.557015267005,448.622591441183,456.601295688157,338.848235939937,363.581078797447,412.085805202665,427.335293224856,GP
4000048.0,Japan,4000001,4000048.0,Tohoku,2011,311.0,546.0,9.12,38.1165,142.823,17.4965,200.0,12.3,88.0,8.65,47.263,0.0,1.0,0.0,3.0,482.0,186.0,0.0,2.0,Japan_Pac,8.2,7.6,74.0,37.0,8.31,2.0,-999,-999.0,-999,A,0.0592774217240342,0.0518096485264817,0.0272253189842267,-999.0,0.0,193.4657429,M,-999.0,443.7152173,444.0600428,163.5524757,170.2445958,320.8555855,314.72,325.97,84.97000000000003,566.97,200.7603133,243.773131786193,RmaxTruncRegr_km,36.0075,140.6872,-47.2632,0.0860246720153292,-999.0,2.0,0.0,0.0,1.0,0.0,Japan,41337,35.6103,138.9409,-999.0,-999.0,532.6364543,0.382424527,0.0,2J_3J,21.0,39.0,364.0,1.702,1.364,1.157,JMA,2.0,C1,0.0,0.0,C1,0.0,0.0,C1,0.0,0.0,C1,0.0,0.0,C1,0.0,0.0,0.0,C1,0.0,0.0,0.0,C1,0.0,0.0,0.0,C1,0.0,0.0,0.0,0.01,0.05323,9.8694,52.302,0.05344023,0.05423044,0.05461553,0.05513144,0.05499671,0.0547845,0.0555971,0.05630847,0.05676972,0.0561635,0.05697572,0.05682459,0.05781166,0.05897472,0.06053863,0.0613866,0.06298716,0.0638896,0.06905552,0.0720045,0.07543095,0.08011607,0.09557904,0.1032821,0.1180591,0.1223824,0.138077,0.1747431,0.1904072,0.2134548,0.2137031,0.1925558,0.1735935,0.1570671,0.1386499,0.1226534,0.1141426,0.1118917,0.1017964,0.1044491,0.1167237,0.121222,0.111331,0.1098383,0.1053921,0.1160477,0.1167198,0.1069492,0.101869,0.08974533,0.09945694,0.09829596,0.1018963,0.1024195,0.1024593,0.105193,0.09762277,0.09383958,0.08266079,0.08090474,0.08198788,0.08702624,0.07293621,0.07345408,0.07180033,0.06849355,0.06443173,0.05914804,0.06703491,0.06874971,0.06250295,0.04631449,0.04830436,0.05578411,0.06162035,0.05752406,0.06125775,0.06169172,0.06209455,0.04739207,0.03736516,0.02901152,0.02968495,0.03243075,0.03231894,0.02737146,0.02410324,0.02173276,0.02083303,0.02040222,0.01837205,0.01590926,0.01376192,0.0124692,0.01128138,0.01099349,0.01175536,0.01239627,0.009872583,0.008297316,0.008288489,0.007132974,0.005788378,0.005241939,0.004694218,0.004378022,0.003973864,0.004064575,0.004381187,0.003521562,0.004427873,-999,-999,-999.0,-999.0,-999.0,-999.0,-999.0,-999.0,-999.0,-999.0,-999,-999,-999.0,-999,432.471218444107,441.113916674438,462.225654489736,467.658549462138,360.956801122762,385.211228143758,425.557711299594,437.875270841544,GP
4000049.0,Japan,4000001,4000049.0,Tohoku,2011,311.0,546.0,9.12,38.1165,142.823,17.4965,200.0,12.3,88.0,8.65,47.263,0.0,1.0,0.0,3.0,482.0,186.0,0.0,2.0,Japan_Pac,8.2,7.6,74.0,37.0,8.31,2.0,-999,-999.0,-999,A,0.0671068277450052,0.0840143132154655,0.0297341610511461,-999.0,0.0,174.975908,M,-999.0,452.9009383,453.2387753,180.4448327,186.5318947,334.8297707,336.64,322.29,81.28999999999996,563.29,200.7603133,243.773131786193,RmaxTruncRegr_km,36.0075,140.6872,-47.2632,0.770558818447877,-999.0,2.0,0.0,0.0,1.0,0.0,Japan,41338,35.7003,138.7213,-999.0,-999.0,479.7789595,0.333294122,0.0,2J_3J,32.0,96.0,225.0,1.702,1.364,1.157,JMA,2.0,C1,0.0,0.0,C1,0.0,0.0,C1,0.0,0.0,C1,0.0,0.0,C1,0.0,0.0,0.0,C1,0.0,0.0,0.0,C1,0.0,0.0,0.0,C1,0.0,0.0,0.0,0.01,0.071118,15.008,43.223,0.07114237,0.07121349,0.07123482,0.0712738,0.07134255,0.07136378,0.07141224,0.07150442,0.07154228,0.07174547,0.07187392,0.0720879,0.07228578,0.07249684,0.07283175,0.07322522,0.07425774,0.07441787,0.07375082,0.07435333,0.07446983,0.07598017,0.07715148,0.07617095,0.07846109,0.07913513,0.08115596,0.08066496,0.08462358,0.09465379,0.09750741,0.09650987,0.09026016,0.09466991,0.09840036,0.09891905,0.09941513,0.09733439,0.1037796,0.1136544,0.1141181,0.1257465,0.1286185,0.1240259,0.1225657,0.1275669,0.1323721,0.1394641,0.1573589,0.1807069,0.1952863,0.2039552,0.2124901,0.2031159,0.1872512,0.1782744,0.1706972,0.1736328,0.1851131,0.2092462,0.1999935,0.1768447,0.1410077,0.1176732,0.1348239,0.1621581,0.1787423,0.2153506,0.2588542,0.3002967,0.3140542,0.2736066,0.1648857,0.1337908,0.1124416,0.09885161,0.08763833,0.0837024,0.081146,0.05464991,0.04880591,0.04463321,0.0415975,0.03827051,0.03865487,0.03578892,0.03358748,0.02999111,0.02437009,0.02313132,0.02030814,0.01889845,0.01717821,0.0159139,0.01539475,0.01255457,0.01107947,0.01059032,0.009127968,0.007913743,0.007335946,0.006564071,0.00588335,0.005533205,0.004953975,0.004058412,0.003831139,0.003897091,0.004231359,0.003466659,0.003586404,-999,-999,-999.0,-999.0,-999.0,-999.0,-999.0,-999.0,-999.0,-999.0,-999,-999,-999.0,-999,444.500370403541,452.1729370089,473.211352165345,478.400248211331,376.898280270708,399.431258731969,437.785217000332,448.607295624626,GP
4000052.0,Japan,4000001,4000052.0,Tohoku,2011,311.0,546.0,9.12,38.1165,142.823,17.4965,200.0,12.3,88.0,8.65,47.263,0.0,1.0,0.0,3.0,482.0,186.0,0.0,2.0,Japan_Pac,8.2,7.6,74.0,37.0,8.31,2.0,-999,-999.0,-999,A,0.0976187842886658,0.0996366867069228,0.0416237513065114,-999.0,0.0,121.07545271,M,-999.0,466.5835088,466.9114458,176.6416023,182.8553137,342.6963506,305.67,358.13,117.13,599.13,200.7603133,243.773131786193,RmaxTruncRegr_km,36.0075,140.6872,-47.2632,1.17422938552518,-999.0,2.0,0.0,0.0,0.9532,0.0468,Japan,41343,35.3102,138.9304,-999.0,-999.0,304.4772428,0.327384309,0.0,2J_3J,43.0,43.0,1572.0,1.702,1.364,1.157,JMA,3.0,C1,0.0,0.0,C1,0.0,0.0,C1,0.0,0.0,C1,0.0,0.0,C1,0.0,0.0,0.0,C1,0.0,0.0,0.0,C1,0.0,0.0,0.0,C1,0.0,0.0,0.0,0.01,0.098276,29.425,49.212,0.09828824,0.09832466,0.09833488,0.09835187,0.09837787,0.09838495,0.09839974,0.09842355,0.0984319,0.09846725,0.09848604,0.09850576,0.09851531,0.09852406,0.09858711,0.0986638,0.09877426,0.0987086,0.09892134,0.09904467,0.09906377,0.09947932,0.09935918,0.09935575,0.09989106,0.0998851,0.1005181,0.1015207,0.1006973,0.1015083,0.1007193,0.1016856,0.1019523,0.1030568,0.1047002,0.1022144,0.1074294,0.1075227,0.108078,0.1125961,0.1111575,0.1105863,0.1120169,0.1153412,0.1198925,0.1112366,0.1152042,0.1154171,0.1217286,0.1237264,0.1269647,0.1246168,0.1264586,0.131839,0.1359561,0.136373,0.1457112,0.1578507,0.1488488,0.1509302,0.1638956,0.1813738,0.2257628,0.2372172,0.2439677,0.2586827,0.2342092,0.2100527,0.2077299,0.2359571,0.2476121,0.2164359,0.1996708,0.2135646,0.2611178,0.2978607,0.3307791,0.3319277,0.3194036,0.2489785,0.2238803,0.1993805,0.1750574,0.1810417,0.1473007,0.1029863,0.08948207,0.08288988,0.07607549,0.06628671,0.05508074,0.04150657,0.0330184,0.02879938,0.02739678,0.02399161,0.02015154,0.01874403,0.01679203,0.01408388,0.01312404,0.01201927,0.01023889,0.009426762,0.00843676,0.006406011,0.004913665,0.004618234,0.00420186,0.004494294,0.005583742,-999,-999,-999.0,-999.0,-999.0,-999.0,-999.0,-999.0,-999.0,-999.0,-999,-999,-999.0,-999,452.631907958707,463.52541581021,482.505803238226,489.356332264617,380.97169673518,405.122838171289,443.717940095409,457.759844475873,GP
4000054.0,Japan,4000001,4000054.0,Tohoku,2011,311.0,546.0,9.12,38.1165,142.823,17.4965,200.0,12.3,88.0,8.65,47.263,0.0,1.0,0.0,3.0,482.0,186.0,0.0,2.0,Japan_Pac,8.2,7.6,74.0,37.0,8.31,2.0,-999,-999.0,-999,A,0.0542949427627625,0.0499482138905743,0.0203721590847934,-999.0,0.0,152.40789229,M,-999.0,493.8319729,494.1418267,206.1257694,211.4749226,374.6029645,329.64,375.69000000000005,134.69000000000003,616.69,200.7603133,243.773131786193,RmaxTruncRegr_km,36.0075,140.6872,-47.2632,0.741973703691506,-999.0,2.0,0.0,0.0,0.819,0.181,Japan,41346,35.2232,138.621,-999.0,-999.0,292.1393619,0.334135093,0.0,2J_3J,111.0,150.0,1471.0,1.702,1.364,1.157,JMA,3.0,C1,0.0,0.0,C1,0.0,0.0,C1,0.0,0.0,C1,0.0,0.0,C1,0.0,0.0,0.0,C1,0.0,0.0,0.0,C1,0.0,0.0,0.0,C1,0.0,0.0,0.0,0.01,0.053562,13.279,41.423,0.05362504,0.05380293,0.05385824,0.05393689,0.05408074,0.05412037,0.05419273,0.05430552,0.05435497,0.05453756,0.05461766,0.05471881,0.05478344,0.05485076,0.05495324,0.05486675,0.05636038,0.05792633,0.05847409,0.05907635,0.05850935,0.05999522,0.06217125,0.06372911,0.06333017,0.06438544,0.06297518,0.06630975,0.06498693,0.06843327,0.06793315,0.06657334,0.07408837,0.08053077,0.0919659,0.09763282,0.09897034,0.1030193,0.1080388,0.1214111,0.1289432,0.1340171,0.1653572,0.1973205,0.2034024,0.2197826,0.229034,0.229042,0.2274362,0.2018939,0.1875223,0.1725358,0.1499503,0.1428083,0.1408582,0.1315708,0.133551,0.1356288,0.1293291,0.1003751,0.1055512,0.1033819,0.09810458,0.09295253,0.09730202,0.09581085,0.1011889,0.1058716,0.1069692,0.08300915,0.08080543,0.06498561,0.05830174,0.06196215,0.06864716,0.07575992,0.08983844,0.09427166,0.06578802,0.0609903,0.05924673,0.05984062,0.04918286,0.04418262,0.04060995,0.04009461,0.04209878,0.04247386,0.03588604,0.02995631,0.02505886,0.0226474,0.02003222,0.01778483,0.01807563,0.01468381,0.01317102,0.01040535,0.008368932,0.007485009,0.006741836,0.005441026,0.004349791,0.003941779,0.004435425,0.004618621,0.00337085,0.00351748,0.003554021,0.003640554,0.005566923,-999,-999,-999.0,-999.0,-999.0,-999.0,-999.0,-999.0,-999.0,-999.0,-999,-999,-999.0,-999,481.859670521433,492.556370761444,510.523660977895,515.792636260513,413.19025660141,436.680646749323,471.141823991467,484.087772784335,GP
4000055.0,Japan,4000001,4000055.0,Tohoku,2011,311.0,546.0,9.12,38.1165,142.823,17.4965,200.0,12.3,88.0,8.65,47.263,0.0,1.0,0.0,3.0,482.0,186.0,0.0,2.0,Japan_Pac,8.2,7.6,74.0,37.0,8.31,2.0,-999,-999.0,-999,A,0.027065751001163,0.0296772322154411,0.0113183993571256,-999.0,0.0,59.932456122,M,-999.0,518.4583147,518.7534593,227.7463969,232.5988637,400.9688577,334.72,401.27,160.26999999999998,642.27,200.7603133,243.773131786193,RmaxTruncRegr_km,36.0075,140.6872,-47.2632,0.230484937687064,-999.0,2.0,0.0,0.0,0.7371,0.2629,Japan,41347,35.0168,138.4848,-999.0,-999.0,248.4038918,0.348507918,0.0,2J_3J,6.0,422.0,2762.0,1.702,1.364,1.157,JMA,3.0,C1,0.0,0.0,C1,0.0,0.0,C1,0.0,0.0,C1,0.0,0.0,C1,0.0,0.0,0.0,C1,0.0,0.0,0.0,C1,0.0,0.0,0.0,C1,0.0,0.0,0.0,0.01,0.030537,9.8891,30.636,0.03054186,0.03055701,0.0305613,0.03056854,0.03057949,0.03058243,0.03058867,0.03059866,0.03060217,0.03061764,0.03062615,0.0306353,0.03063947,0.03064306,0.03064843,0.03065557,0.03067314,0.03072916,0.0307466,0.03074985,0.03076311,0.03078886,0.03081064,0.03089148,0.03094585,0.03103054,0.03108716,0.03116061,0.03112025,0.03145952,0.03160881,0.03157684,0.0318557,0.03173975,0.03176411,0.03249514,0.03251297,0.03369522,0.03655355,0.04070362,0.04240207,0.04229408,0.04124574,0.04084731,0.04163876,0.04772387,0.04825702,0.04673362,0.04515664,0.04452541,0.0482658,0.05051449,0.05243615,0.05471904,0.05646015,0.06053425,0.06848342,0.09383843,0.09472216,0.07396602,0.07317872,0.0773422,0.0715123,0.0689624,0.08458024,0.09648445,0.09784688,0.09927835,0.1072728,0.1020919,0.09540768,0.08780382,0.08287168,0.08305778,0.08688503,0.08023493,0.07034781,0.06215502,0.05411142,0.0478088,0.04208879,0.0378571,0.031355,0.02999241,0.02975188,0.02722753,0.02407762,0.02316185,0.02365679,0.02304943,0.02107257,0.01981766,0.01802907,0.0161244,0.01489522,0.01149424,0.01365368,0.01334147,0.01055925,0.007918247,0.007153101,0.007016334,0.006372218,0.005319049,0.00475193,0.00443598,0.003610557,0.003494223,0.003537716,0.004042598,0.005015752,-999,-999,-999.0,-999.0,-999.0,-999.0,-999.0,-999.0,-999.0,-999.0,-999,-999,-999.0,-999,505.939898516866,516.491560321605,534.171911730686,539.704673402812,438.920722358343,461.860624260041,494.202393400078,506.937047608345,GP
