NGAsubRSN,DatabaseRegion,NGAsubEQID,NGAsubSSN,Earthquake_Name,YEAR,MODY,HRMN,Earthquake_Magnitude,Hypocenter_Latitude_deg,Hypocenter_Longitude_deg,Hypocenter_Depth_km,Strike_deg,Dip_deg,Rake_deg,Ztor_km,Zbor_km,Intra_Inter_Flag,Finite_Fault_Model,Multiple_Event,Number_of_Segment,Length_km,Width_km,Source_review_flag,Fault_Type,Subduction_Zone_Name,Alternate_Saturation_Magnitude_10MPa,Preferred_Saturation_Magnitude_10MPa,Alternate_Fault_maximum_width_km,Preferred_Fault_maximum_width_km,Magnitude_break_interface,VolcanicArcFlag_Hypocenter,Interface_Event_FromHypocenterDepth,InterfaceFlag_FromHypocenterDepth,Instrument_Type,Accelerograph_Seismograph,Unfiltered_PGA_H1_g,Unfiltered_PGA_H2_g,Unfiltered_PGA_V_g,Late_P_trigger_flag_1ptYes_0ptNo,Shortest_Usable_Period_for_PSa_Ave_Component_sec,Longest_Usable_Period_for_PSa_Ave_Component_sec,Magnitude_Type,DbQualityFlag,EpiD_km,HypD_km,Rjb_km,ClstD_km,Rrms_km,Rx_km,Ry_km,Ry0_km,U_km,LocalStrikeParallelDirection,RmaxForAnalysis_km,RmaxForAnalysisModel,PcLat,PcLon,PcZ,Epsilon_Phi_pt7,Station_review_flag,VolcanicArcFlag_ClosestPoint,Distance_fraction_in_VolcanicArcFlag_0,Distance_fraction_in_VolcanicArcFlag_1,Distance_fraction_in_VolcanicArcFlag_2,Distance_fraction_in_VolcanicArcFlag_3,StationDatabaseRegion,Station_Name,Station_Latitude_deg,Station_Longitude_deg,Sensor_Depth_m,Geomatrix_Site_Code_1st_Letter,Vs30_Selected_for_Analysis_m_s,Sigma_of_Vs30_Selected_for_Analysis_ln_Units,Vs30_Measured_Inferred_Class,Vs30_Code,Z1pt0_selected_for_analysis_m,Z1pt5_selected_for_analysis_m,Z2pt5_selected_for_analysis_m,Sigma_Z1pt0,Sigma_Z1pt5,Sigma_Z2pt5,Network,VolcanicArcFlag_Station,C1C2Class_M1_Rcutoff10km,C1NGAsubEQID_M1_Rcutoff10km,Rclosest_M1_Rcutoff10km,C1C2Class_M1_Rcutoff20km,C1NGAsubEQID_M1_Rcutoff20km,Rclosest_M1_Rcutoff20km,C1C2Class_M1_Rcutoff40km,C1NGAsubEQID_M1_Rcutoff40km,Rclosest_M1_Rcutoff40km,C1C2Class_M1_Rcutoff80km,C1NGAsubEQID_M1_Rcutoff80km,Rclosest_M1_Rcutoff80km,C1C2Class_M2_Rcutoff10km,C1NGAsubEQID_M2_Rcutoff10km,Rclosest_M2_Rcutoff10km,FractC2WithinRmax_M2_Rcutoff10km,C1C2Class_M2_Rcutoff20km,C1NGAsubEQID_M2_Rcutoff20km,Rclosest_M2_Rcutoff20km,FractC2WithinRmax_M2_Rcutoff20km,C1C2Class_M2_Rcutoff40km,C1NGAsubEQID_M2_Rcutoff40km,Rclosest_M2_Rcutoff40km,FractC2WithinRmax_M2_Rcutoff40km,C1C2Class_M2_Rcutoff80km,C1NGAsubEQID_M2_Rcutoff80km,Rclosest_M2_Rcutoff80km,FractC2WithinRmax_M2_Rcutoff80km,dtH1,PGA_g,PGV_cm_sec,PGD_cm,T = 0.01,T = 0.02,T = 0.022,T = 0.025,T = 0.029,T = 0.03,T = 0.032,T = 0.035,T = 0.036,T = 0.04,T = 0.042,T = 0.044,T = 0.045,T = 0.046,T = 0.048,T = 0.05,T = 0.055,T = 0.06,T = 0.065,T = 0.067,T = 0.07,T = 0.075,T = 0.08,T = 0.085,T = 0.09,T = 0.095,T = 0.1,T = 0.11,T = 0.12,T = 0.13,T = 0.133,T = 0.14,T = 0.15,T = 0.16,T = 0.17,T = 0.18,T = 0.19,T = 0.2,T = 0.22,T = 0.24,T = 0.25,T = 0.26,T = 0.28,T = 0.29,T = 0.3,T = 0.32,T = 0.34,T = 0.35,T = 0.36,T = 0.38,T = 0.4,T = 0.42,T = 0.44,T = 0.45,T = 0.46,T = 0.48,T = 0.5,T = 0.55,T = 0.6,T = 0.65,T = 0.667,T = 0.7,T = 0.75,T = 0.8,T = 0.85,T = 0.9,T = 0.95,T = 1.0,T = 1.1,T = 1.2,T = 1.3,T = 1.4,T = 1.5,T = 1.6,T = 1.7,T = 1.8,T = 1.9,T = 2.0,T = 2.2,T = 2.4,T = 2.5,T = 2.6,T = 2.8,T = 3.0,T = 3.2,T = 3.4,T = 3.5,T = 3.6,T = 3.8,T = 4.0,T = 4.2,T = 4.4,T = 4.6,T = 4.8,T = 5.0,T = 5.5,T = 6.0,T = 6.5,T = 7.0,T = 7.5,T = 8.0,T = 8.5,T = 9.0,T = 9.5,T = 10.0,T = 11.0,T = 12.0,T = 13.0,T = 14.0,T = 15.0,T = 20.0,EarthquakeTime,EarthquakeMagnitudeType,BackAzimuth,RuptureDistanceVar,JoynerBooreDistanceVar,GC2_ry,GC2_rx,GC2_ry0,GC2_U,GC2_T,DataProvider,StationDescription,SamplingRate,SourceFile,Rehd_median_km,Rhm_median_km,Rasp_median_km,Rrms_median_km,Rehd_unit_median_km,Rhm_unit_median_km,Rasp_unit_median_km,Rrms_unit_median_km,Database_Name
4000037.0,Japan,4000001,4000037.0,Tohoku,2011,311.0,546.0,9.12,38.1165,142.823,17.4965,200.0,12.3,88.0,8.65,47.263,0.0,1.0,0.0,3.0,482.0,186.0,0.0,2.0,Japan_Pac,8.2,7.6,74.0,37.0,8.31,2.0,-999,-999.0,-999,A,0.0419766551297107,0.04396581118708,0.02000663055455,-999.0,0.0,83.320097589,M,-999.0,413.0103016,413.3807407,112.7428323,122.2487477,271.7805403,197.91,346.75,105.75,587.75,200.7603133,243.773131786193,RmaxTruncRegr_km,36.0075,140.6872,-47.2632,-1.1973287090052,-999.0,2.0,0.0,0.0,1.0,0.0,Japan,41316,35.114,140.0982,-999.0,-999.0,345.0845005,0.332197919,0.0,2J_3J,141.0,141.0,373.0,1.702,1.364,1.157,JMA,2.0,C1,0.0,0.0,C1,0.0,0.0,C1,0.0,0.0,C1,0.0,0.0,C1,0.0,0.0,0.0,C1,0.0,0.0,0.0,C1,0.0,0.0,0.0,C1,0.0,0.0,0.0,0.01,0.04183,16.602,47.991,0.041848,0.04190496,0.0419217,0.04195055,0.04199716,0.0420104,0.04203906,0.04208822,0.04210655,0.04219199,0.04224472,0.04231106,0.042359,0.04240668,0.0425409,0.04258616,0.04294022,0.04346626,0.04385504,0.04416888,0.04424192,0.04474877,0.04551718,0.04432968,0.04690101,0.04765825,0.04651316,0.04433483,0.04911451,0.05120312,0.05105927,0.04902936,0.05232676,0.05314177,0.056196,0.05667596,0.06482014,0.0673823,0.07127379,0.08405304,0.08814257,0.09190539,0.1014082,0.1029589,0.1064174,0.1040917,0.1160019,0.1354467,0.1568761,0.1738599,0.1525874,0.1491792,0.1588763,0.1648798,0.1717974,0.1790702,0.1496186,0.1393328,0.1416347,0.112201,0.1002451,0.09170163,0.1000754,0.1297852,0.1235655,0.1157545,0.1043737,0.08665541,0.07861898,0.07147229,0.07799486,0.07267179,0.06830566,0.0779365,0.07183624,0.06178927,0.05575711,0.05062466,0.04344396,0.04247659,0.04101862,0.03866747,0.04028777,0.04024033,0.05024177,0.05134147,0.04920471,0.04715985,0.04590737,0.03836026,0.03383961,0.0330377,0.03082273,0.02825752,0.02366492,0.01679193,0.01659498,0.01544438,0.01656613,0.01526082,0.0162938,0.01449405,0.01443057,0.01461742,0.013691,0.009431544,0.009982447,0.01084259,0.01150355,0.01023742,0.0123683,-999,-999,-999.0,-999.0,-999.0,-999.0,-999.0,-999.0,-999.0,-999.0,-999,-999,-999.0,-999,378.431978131194,393.06156017662,424.340548554386,431.546574051942,297.853642737466,331.364448935797,391.519815506449,409.401951820592,GP
4000038.0,Japan,4000001,4000038.0,Tohoku,2011,311.0,546.0,9.12,38.1165,142.823,17.4965,200.0,12.3,88.0,8.65,47.263,0.0,1.0,0.0,3.0,482.0,186.0,0.0,2.0,Japan_Pac,8.2,7.6,74.0,37.0,8.31,2.0,-999,-999.0,-999,A,0.241100512608508,0.224934398775321,0.0949059507550715,-999.0,0.0,49.823041014,M,-999.0,375.1572739,375.5650512,80.9730691,93.757389,229.809981,238.05,290.4,49.39999999999998,531.4,200.7603133,243.773131786193,RmaxTruncRegr_km,36.0075,140.6872,-47.2632,0.519861768274507,-999.0,2.0,0.0,0.0,1.0,0.0,Japan,41317,35.7071,139.8687,-999.0,-999.0,187.5095521,0.321002318,0.0,2J_3J,1640.0,1640.0,2874.0,1.702,1.364,1.157,JMA,2.0,C1,0.0,0.0,C1,0.0,0.0,C1,0.0,0.0,C1,0.0,0.0,C1,0.0,0.0,0.0,C1,0.0,0.0,0.0,C1,0.0,0.0,0.0,C1,0.0,0.0,0.0,0.01,0.22876,25.602,40.774,0.2294899,0.2315448,0.2317462,0.2335483,0.2397068,0.2393826,0.2413828,0.245509,0.2465131,0.2576487,0.2549226,0.2532828,0.252922,0.2534333,0.2602532,0.2662256,0.283883,0.300348,0.3355419,0.3401176,0.3380674,0.3489756,0.3779809,0.4312417,0.462347,0.45665,0.4448905,0.4836541,0.5138356,0.7120523,0.7603431,0.8163822,0.6919327,0.6115361,0.5990047,0.5675113,0.5341566,0.5984341,0.5359431,0.7029482,0.6591544,0.6307266,0.7331852,0.7296706,0.6779779,0.6072459,0.6650345,0.6459552,0.5964149,0.4632342,0.4754125,0.4130791,0.3864052,0.3892115,0.3763002,0.3292986,0.285089,0.2307799,0.2875022,0.3251788,0.3426492,0.3111883,0.2875535,0.2963435,0.3045867,0.3389562,0.3283284,0.3016443,0.275909,0.2672926,0.2530918,0.2376529,0.2731977,0.2681889,0.223413,0.1996005,0.1764492,0.1564833,0.1091797,0.09204246,0.09353121,0.1001639,0.09255079,0.09130064,0.0988799,0.09285444,0.09590691,0.08953235,0.08007214,0.06598794,0.0544954,0.05184025,0.04870182,0.04361499,0.04655418,0.04029785,0.03997441,0.04025922,0.03745619,0.04099124,0.04274633,0.02954587,0.02315833,0.02218821,0.02144383,0.01513955,0.01285293,0.01100122,0.009960528,0.009762669,0.009003962,-999,-999,-999.0,-999.0,-999.0,-999.0,-999.0,-999.0,-999.0,-999.0,-999,-999,-999.0,-999,349.076724549348,363.135859519202,390.77218647991,399.247508751922,266.903261516069,295.759339249196,355.477753602261,373.080758341667,GP
4000039.0,Japan,4000001,4000039.0,Tohoku,2011,311.0,546.0,9.12,38.1165,142.823,17.4965,200.0,12.3,88.0,8.65,47.263,0.0,1.0,0.0,3.0,482.0,186.0,0.0,2.0,Japan_Pac,8.2,7.6,74.0,37.0,8.31,2.0,-999,-999.0,-999,A,0.122844528454898,0.0912743775482283,0.0583400657008821,-999.0,0.0,52.135662468,M,-999.0,390.4282621,390.8201062,100.6695999,111.2123123,252.0152955,257.77,297.54999999999995,56.54999999999996,538.55,200.7603133,243.773131786193,RmaxTruncRegr_km,36.0075,140.6872,-47.2632,-0.167941271054626,-999.0,2.0,0.0,0.0,1.0,0.0,Japan,41318,35.7,139.6366,-999.0,-999.0,239.9,0.292,0.0,2J,1829.0,1829.0,3223.0,1.702,1.364,1.157,JMA,2.0,C1,0.0,0.0,C1,0.0,0.0,C1,0.0,0.0,C1,0.0,0.0,C1,0.0,0.0,0.0,C1,0.0,0.0,0.0,C1,0.0,0.0,0.0,C1,0.0,0.0,0.0,0.01,0.1042,18.522,48.207,0.1047554,0.1065731,0.1071369,0.1081116,0.1097775,0.1102567,0.1113483,0.1132516,0.1139683,0.117767,0.1203094,0.1232095,0.1246983,0.1264805,0.1311523,0.1408217,0.1791171,0.2116313,0.2518437,0.2790208,0.2940545,0.3090905,0.3058285,0.3215069,0.3068483,0.3060453,0.2788073,0.2350694,0.2402308,0.2118945,0.209646,0.2402068,0.2504446,0.272476,0.3171426,0.2783005,0.2845838,0.2489008,0.215284,0.2385559,0.2218201,0.2338701,0.2219007,0.2599456,0.2648032,0.230663,0.1871156,0.183382,0.1706395,0.1824725,0.2081205,0.2119157,0.221171,0.2362685,0.2616747,0.2823862,0.2722341,0.2031641,0.2079317,0.1836601,0.1729611,0.1853082,0.181067,0.1689536,0.207349,0.2086452,0.1986941,0.170852,0.1595523,0.134444,0.1119006,0.1116004,0.1259245,0.1130999,0.09774279,0.09849025,0.1041008,0.0888527,0.0894655,0.08722883,0.08276835,0.08256291,0.07746649,0.07220118,0.07203205,0.06608094,0.06575026,0.06609119,0.06058552,0.05679959,0.05544547,0.0532233,0.04938971,0.04389873,0.04791731,0.04023262,0.03603644,0.03245849,0.03081891,0.02669043,0.02136301,0.02252606,0.0232053,0.01972361,0.01795706,0.01536387,0.01484051,0.01338069,0.01004875,0.01025346,0.009357706,-999,-999,-999.0,-999.0,-999.0,-999.0,-999.0,-999.0,-999.0,-999.0,-999,-999,-999.0,-999,370.999524579087,381.479064503567,406.535762283957,414.913639995173,290.679209599244,317.168203986758,370.262220316544,386.682853770896,GP
4000040.0,Japan,4000001,4000040.0,Tohoku,2011,311.0,546.0,9.12,38.1165,142.823,17.4965,200.0,12.3,88.0,8.65,47.263,0.0,1.0,0.0,3.0,482.0,186.0,0.0,2.0,Japan_Pac,8.2,7.6,74.0,37.0,8.31,2.0,-999,-999.0,-999,A,0.14669237792439,0.116473085913357,0.0512311248064664,-999.0,0.0,52.135662468,M,-999.0,400.9528929,401.3344613,115.2015249,124.5198836,267.3277596,273.16,301.12,60.120000000000005,542.12,200.7603133,243.773131786193,RmaxTruncRegr_km,36.0075,140.6872,-47.2632,0.617981391539809,-999.0,2.0,0.0,0.0,1.0,0.0,Japan,41319,35.7114,139.4622,-999.0,-999.0,269.8,0.292,0.0,2J,1277.0,1277.0,2207.0,1.702,1.364,1.157,JMA,2.0,C1,0.0,0.0,C1,0.0,0.0,C1,0.0,0.0,C1,0.0,0.0,C1,0.0,0.0,0.0,C1,0.0,0.0,0.0,C1,0.0,0.0,0.0,C1,0.0,0.0,0.0,0.01,0.14379,17.231,45.231,0.144041,0.144835,0.1449916,0.1452576,0.1456796,0.1457984,0.146163,0.1466138,0.14679,0.147638,0.1477748,0.1483015,0.1483256,0.1482562,0.1484236,0.1512836,0.1538878,0.1563181,0.160885,0.16535,0.1671233,0.1568592,0.158083,0.1618382,0.1796504,0.1760427,0.1778907,0.1770161,0.2014492,0.2269231,0.2222047,0.2136575,0.2464675,0.3030262,0.3197817,0.3577104,0.3648735,0.3899103,0.5607154,0.425054,0.4095785,0.4217505,0.4432236,0.4226632,0.4187808,0.4636393,0.3490162,0.3328716,0.3094968,0.2670341,0.2576143,0.2189693,0.2083052,0.2170986,0.2207025,0.2289054,0.2393955,0.2000314,0.2061086,0.2268021,0.220431,0.197367,0.2044115,0.1875794,0.1974125,0.2070537,0.1617966,0.1257922,0.1363027,0.1198271,0.1015939,0.09846055,0.09008536,0.08695898,0.08689137,0.08086362,0.07820712,0.07099444,0.08750942,0.08864765,0.08672933,0.07838476,0.08250719,0.07542448,0.05422476,0.04754764,0.05137923,0.04994417,0.04894146,0.04709236,0.04220898,0.03834269,0.0392355,0.03918605,0.0379152,0.03736235,0.03144525,0.02852619,0.02579827,0.02364337,0.02035007,0.01550703,0.01426151,0.01322462,0.01109288,0.009998607,0.008894973,0.009413786,0.00823102,0.007302542,0.007798456,-999,-999,-999.0,-999.0,-999.0,-999.0,-999.0,-999.0,-999.0,-999.0,-999,-999,-999.0,-999,385.345603246958,394.041006900645,417.772158476054,425.822113701205,306.953242486707,332.572692403453,381.13008916966,396.858214584259,GP
4000041.0,Japan,4000001,4000041.0,Tohoku,2011,311.0,546.0,9.12,38.1165,142.823,17.4965,200.0,12.3,88.0,8.65,47.263,0.0,1.0,0.0,3.0,482.0,186.0,0.0,2.0,Japan_Pac,8.2,7.6,74.0,37.0,8.31,2.0,-999,-999.0,-999,A,0.0746867774021823,0.0800159602384323,0.0385701532605143,-999.0,0.0,54.55562669,M,-999.0,413.4612373,413.8312727,128.3939353,136.816712,282.8346458,283.21,309.77,68.76999999999998,550.77,200.7603133,243.773131786193,RmaxTruncRegr_km,36.0075,140.6872,-47.2632,-0.0332185257989113,-999.0,2.0,0.0,0.0,1.0,0.0,Japan,41320,35.6645,139.3272,-999.0,-999.0,371.4234828,0.33449142,0.0,2J_3J,440.0,440.0,777.0,1.702,1.364,1.157,JMA,2.0,C1,0.0,0.0,C1,0.0,0.0,C1,0.0,0.0,C1,0.0,0.0,C1,0.0,0.0,0.0,C1,0.0,0.0,0.0,C1,0.0,0.0,0.0,C1,0.0,0.0,0.0,0.01,0.076158,18.01,38.521,0.07624704,0.07656352,0.07667459,0.07682381,0.07710471,0.07717653,0.07733972,0.07771565,0.07792097,0.07871239,0.07912096,0.0797351,0.08001213,0.08023998,0.08113846,0.08233807,0.08891309,0.09486947,0.09889238,0.1005862,0.09543473,0.09492061,0.1037196,0.1156237,0.1163425,0.1114779,0.1061385,0.1216652,0.1353998,0.1368048,0.1433946,0.1481616,0.1382748,0.1415464,0.153907,0.1684739,0.160567,0.1418865,0.1358006,0.1238444,0.1383577,0.1410946,0.1420619,0.1523123,0.1525823,0.173885,0.1758105,0.1795571,0.1717037,0.1822222,0.1885302,0.1839955,0.1904361,0.1830119,0.1731938,0.1611667,0.1478421,0.1302252,0.1399823,0.1750284,0.1750004,0.1679509,0.1958947,0.1881361,0.1669284,0.1541957,0.1315375,0.1261077,0.1288744,0.1237973,0.1403371,0.1625637,0.1416998,0.1572107,0.1517211,0.1491122,0.1309413,0.1166093,0.09298132,0.09068716,0.08210178,0.07341377,0.06042135,0.05442152,0.04599378,0.03318613,0.0287392,0.02720464,0.02475203,0.02351702,0.0209417,0.01796912,0.01640094,0.01408024,0.01274046,0.01053302,0.009427824,0.00924224,0.00656216,0.00655462,0.006129568,0.006165402,0.005766361,0.005375348,0.005063866,0.004156488,0.004306981,0.004474002,0.004485829,0.004301184,0.005738665,-999,-999,-999.0,-999.0,-999.0,-999.0,-999.0,-999.0,-999.0,-999.0,-999,-999,-999.0,-999,398.881811115776,407.792576764556,430.549224813646,438.171008278961,322.258112576088,347.687425634463,393.681395675862,408.640166168503,GP
4000042.0,Japan,4000001,4000042.0,Tohoku,2011,311.0,546.0,9.12,38.1165,142.823,17.4965,200.0,12.3,88.0,8.65,47.263,0.0,1.0,0.0,3.0,482.0,186.0,0.0,2.0,Japan_Pac,8.2,7.6,74.0,37.0,8.31,2.0,-999,-999.0,-999,A,0.111830842056156,0.107263234814584,0.0415072154892627,-999.0,0.0,61.572293145,M,-999.0,398.1671312,398.5513667,104.1707006,114.3911925,259.0243334,252.34,309.02,68.01999999999998,550.02,200.7603133,243.773131786193,RmaxTruncRegr_km,36.0075,140.6872,-47.2632,-0.0658978046198496,-999.0,2.0,0.0,0.0,1.0,0.0,Japan,41322,35.5869,139.6551,-999.0,-999.0,369.5072551,0.38200571,0.0,2J_3J,1794.0,1794.0,3195.0,1.702,1.364,1.157,JMA,2.0,C1,0.0,0.0,C1,0.0,0.0,C1,0.0,0.0,C1,0.0,0.0,C1,0.0,0.0,0.0,C1,0.0,0.0,0.0,C1,0.0,0.0,0.0,C1,0.0,0.0,0.0,0.01,0.1049,19.005,46.394,0.1050506,0.1054567,0.1056237,0.1057433,0.1064636,0.1062441,0.1060998,0.1068924,0.1073149,0.1081041,0.1075556,0.1066389,0.1066324,0.1068216,0.1062854,0.1073439,0.1076623,0.1085251,0.1156105,0.1183478,0.1254723,0.1274301,0.1434834,0.156457,0.1874397,0.2013254,0.1982891,0.2488922,0.2501163,0.2094323,0.2107092,0.2105031,0.2063468,0.2408582,0.2690829,0.295131,0.2588111,0.2780272,0.2620107,0.2474989,0.2646101,0.2780469,0.261899,0.2581036,0.2562966,0.269469,0.2122946,0.2142266,0.2076253,0.1992602,0.2158113,0.2382604,0.2129104,0.2067888,0.2003064,0.1816119,0.1868673,0.2389992,0.2548923,0.2146812,0.1976073,0.1973245,0.1857638,0.1808513,0.1992029,0.1995675,0.1991985,0.1899875,0.1650245,0.1795352,0.1325825,0.1271767,0.1390883,0.1368864,0.1326005,0.1082686,0.08803119,0.08734912,0.080817,0.08971233,0.08557407,0.07405501,0.07796711,0.08989497,0.09683155,0.07832365,0.08061862,0.08401039,0.07657748,0.0591335,0.04846837,0.04689115,0.04749676,0.04297661,0.04414476,0.03874602,0.03988003,0.03424323,0.02604209,0.0208673,0.01804909,0.01794676,0.0172651,0.01340393,0.01113813,0.0113362,0.01091204,0.0115422,0.01035486,0.008894573,0.01064242,-999,-999,-999.0,-999.0,-999.0,-999.0,-999.0,-999.0,-999.0,-999.0,-999,-999,-999.0,-999,377.324840108556,388.820937213923,413.484947025829,421.781335282076,296.592671497377,323.01301608417,377.479921717103,393.967931260313,GP
4000043.0,Japan,4000001,4000043.0,Tohoku,2011,311.0,546.0,9.12,38.1165,142.823,17.4965,200.0,12.3,88.0,8.65,47.263,0.0,1.0,0.0,3.0,482.0,186.0,0.0,2.0,Japan_Pac,8.2,7.6,74.0,37.0,8.31,2.0,-999,-999.0,-999,A,0.112661866261721,0.0993664589241141,0.0599203381711931,-999.0,0.0,28.145801726,M,-999.0,417.4207036,417.7872321,127.9802859,136.4286027,285.2343378,276.04,318.37,77.37,559.37,200.7603133,243.773131786193,RmaxTruncRegr_km,36.0075,140.6872,-47.2632,0.453989729469268,-999.0,2.0,0.0,0.0,1.0,0.0,Japan,41323,35.5714,139.3741,-999.0,-999.0,278.7,0.292,0.0,2J,846.0,846.0,1480.0,1.702,1.364,1.157,JMA,2.0,C1,0.0,0.0,C1,0.0,0.0,C1,0.0,0.0,C1,0.0,0.0,C1,0.0,0.0,0.0,C1,0.0,0.0,0.0,C1,0.0,0.0,0.0,C1,0.0,0.0,0.0,0.01,0.10756,16.562,29.611,0.1077252,0.1082112,0.1083511,0.1085895,0.1090166,0.1091261,0.1094146,0.1099045,0.110083,0.1108819,0.1113411,0.1118846,0.1121931,0.1125613,0.1133474,0.1136128,0.1166734,0.1209144,0.1268375,0.1285851,0.1310939,0.143811,0.1547381,0.1704958,0.1841996,0.1924604,0.1969772,0.2270243,0.2253467,0.2015237,0.1979418,0.2046954,0.2241052,0.2444499,0.2463154,0.2701707,0.2722354,0.3140723,0.3523054,0.4013107,0.3925711,0.3890964,0.4319332,0.4274032,0.4112071,0.3645588,0.3321372,0.3470706,0.3326441,0.2768541,0.2508794,0.2279012,0.1829679,0.164022,0.1850107,0.2237987,0.2104329,0.1703249,0.1825688,0.1581701,0.1597984,0.1668426,0.1805772,0.1762535,0.1487864,0.1393242,0.1567592,0.1730391,0.1302882,0.1355133,0.1659584,0.1825496,0.1566504,0.140482,0.1311078,0.1307117,0.1234086,0.1058959,0.07936323,0.07472206,0.0651255,0.06043454,0.06117832,0.06076767,0.05693258,0.04559629,0.04445245,0.04479153,0.05219311,0.05321204,0.05287499,0.04296824,0.03680786,0.03273847,0.029679,0.02535958,0.02006978,0.01965091,0.01569753,0.01364976,0.01124623,0.00991437,0.009120342,0.007740818,0.007411838,0.006410217,0.006386201,0.005835471,0.005466485,0.005187583,0.006806887,-999,-999,-999.0,-999.0,-999.0,-999.0,-999.0,-999.0,-999.0,-999.0,-999,-999,-999.0,-999,401.379956695673,411.093543208453,433.356569362038,441.453874792695,323.480060294784,349.269005433878,396.195110215314,411.620895335905,GP
