NGAsubRSN,DatabaseRegion,NGAsubEQID,NGAsubSSN,Earthquake_Name,YEAR,MODY,HRMN,Earthquake_Magnitude,Hypocenter_Latitude_deg,Hypocenter_Longitude_deg,Hypocenter_Depth_km,Strike_deg,Dip_deg,Rake_deg,Ztor_km,Zbor_km,Intra_Inter_Flag,Finite_Fault_Model,Multiple_Event,Number_of_Segment,Length_km,Width_km,Source_review_flag,Fault_Type,Subduction_Zone_Name,Alternate_Saturation_Magnitude_10MPa,Preferred_Saturation_Magnitude_10MPa,Alternate_Fault_maximum_width_km,Preferred_Fault_maximum_width_km,Magnitude_break_interface,VolcanicArcFlag_Hypocenter,Interface_Event_FromHypocenterDepth,InterfaceFlag_FromHypocenterDepth,Instrument_Type,Accelerograph_Seismograph,Unfiltered_PGA_H1_g,Unfiltered_PGA_H2_g,Unfiltered_PGA_V_g,Late_P_trigger_flag_1ptYes_0ptNo,Shortest_Usable_Period_for_PSa_Ave_Component_sec,Longest_Usable_Period_for_PSa_Ave_Component_sec,Magnitude_Type,DbQualityFlag,EpiD_km,HypD_km,Rjb_km,ClstD_km,Rrms_km,Rx_km,Ry_km,Ry0_km,U_km,LocalStrikeParallelDirection,RmaxForAnalysis_km,RmaxForAnalysisModel,PcLat,PcLon,PcZ,Epsilon_Phi_pt7,Station_review_flag,VolcanicArcFlag_ClosestPoint,Distance_fraction_in_VolcanicArcFlag_0,Distance_fraction_in_VolcanicArcFlag_1,Distance_fraction_in_VolcanicArcFlag_2,Distance_fraction_in_VolcanicArcFlag_3,StationDatabaseRegion,Station_Name,Station_Latitude_deg,Station_Longitude_deg,Sensor_Depth_m,Geomatrix_Site_Code_1st_Letter,Vs30_Selected_for_Analysis_m_s,Sigma_of_Vs30_Selected_for_Analysis_ln_Units,Vs30_Measured_Inferred_Class,Vs30_Code,Z1pt0_selected_for_analysis_m,Z1pt5_selected_for_analysis_m,Z2pt5_selected_for_analysis_m,Sigma_Z1pt0,Sigma_Z1pt5,Sigma_Z2pt5,Network,VolcanicArcFlag_Station,C1C2Class_M1_Rcutoff10km,C1NGAsubEQID_M1_Rcutoff10km,Rclosest_M1_Rcutoff10km,C1C2Class_M1_Rcutoff20km,C1NGAsubEQID_M1_Rcutoff20km,Rclosest_M1_Rcutoff20km,C1C2Class_M1_Rcutoff40km,C1NGAsubEQID_M1_Rcutoff40km,Rclosest_M1_Rcutoff40km,C1C2Class_M1_Rcutoff80km,C1NGAsubEQID_M1_Rcutoff80km,Rclosest_M1_Rcutoff80km,C1C2Class_M2_Rcutoff10km,C1NGAsubEQID_M2_Rcutoff10km,Rclosest_M2_Rcutoff10km,FractC2WithinRmax_M2_Rcutoff10km,C1C2Class_M2_Rcutoff20km,C1NGAsubEQID_M2_Rcutoff20km,Rclosest_M2_Rcutoff20km,FractC2WithinRmax_M2_Rcutoff20km,C1C2Class_M2_Rcutoff40km,C1NGAsubEQID_M2_Rcutoff40km,Rclosest_M2_Rcutoff40km,FractC2WithinRmax_M2_Rcutoff40km,C1C2Class_M2_Rcutoff80km,C1NGAsubEQID_M2_Rcutoff80km,Rclosest_M2_Rcutoff80km,FractC2WithinRmax_M2_Rcutoff80km,dtH1,PGA_g,PGV_cm_sec,PGD_cm,T = 0.01,T = 0.02,T = 0.022,T = 0.025,T = 0.029,T = 0.03,T = 0.032,T = 0.035,T = 0.036,T = 0.04,T = 0.042,T = 0.044,T = 0.045,T = 0.046,T = 0.048,T = 0.05,T = 0.055,T = 0.06,T = 0.065,T = 0.067,T = 0.07,T = 0.075,T = 0.08,T = 0.085,T = 0.09,T = 0.095,T = 0.1,T = 0.11,T = 0.12,T = 0.13,T = 0.133,T = 0.14,T = 0.15,T = 0.16,T = 0.17,T = 0.18,T = 0.19,T = 0.2,T = 0.22,T = 0.24,T = 0.25,T = 0.26,T = 0.28,T = 0.29,T = 0.3,T = 0.32,T = 0.34,T = 0.35,T = 0.36,T = 0.38,T = 0.4,T = 0.42,T = 0.44,T = 0.45,T = 0.46,T = 0.48,T = 0.5,T = 0.55,T = 0.6,T = 0.65,T = 0.667,T = 0.7,T = 0.75,T = 0.8,T = 0.85,T = 0.9,T = 0.95,T = 1.0,T = 1.1,T = 1.2,T = 1.3,T = 1.4,T = 1.5,T = 1.6,T = 1.7,T = 1.8,T = 1.9,T = 2.0,T = 2.2,T = 2.4,T = 2.5,T = 2.6,T = 2.8,T = 3.0,T = 3.2,T = 3.4,T = 3.5,T = 3.6,T = 3.8,T = 4.0,T = 4.2,T = 4.4,T = 4.6,T = 4.8,T = 5.0,T = 5.5,T = 6.0,T = 6.5,T = 7.0,T = 7.5,T = 8.0,T = 8.5,T = 9.0,T = 9.5,T = 10.0,T = 11.0,T = 12.0,T = 13.0,T = 14.0,T = 15.0,T = 20.0,EarthquakeTime,EarthquakeMagnitudeType,BackAzimuth,RuptureDistanceVar,JoynerBooreDistanceVar,GC2_ry,GC2_rx,GC2_ry0,GC2_U,GC2_T,DataProvider,StationDescription,SamplingRate,SourceFile,Rehd_median_km,Rhm_median_km,Rasp_median_km,Rrms_median_km,Rehd_unit_median_km,Rhm_unit_median_km,Rasp_unit_median_km,Rrms_unit_median_km,Database_Name
4000030.0,Japan,4000001,4000030.0,Tohoku,2011,311.0,546.0,9.12,38.1165,142.823,17.4965,200.0,12.3,88.0,8.65,47.263,0.0,1.0,0.0,3.0,482.0,186.0,0.0,2.0,Japan_Pac,8.2,7.6,74.0,37.0,8.31,2.0,-999,-999.0,-999,A,0.0794205083455274,0.0990870528388616,0.0283975434441595,-999.0,0.0,208.1389619,M,-999.0,405.4328425,405.8101986,164.7768972,171.4212236,294.5905796,341.56,258.16,17.160000000000025,499.16,200.7603133,243.773131786193,RmaxTruncRegr_km,36.0075,140.6872,-47.2632,0.912108607894334,-999.0,2.0,0.0,0.0,1.0,0.0,Japan,41306,36.2639,138.8803,-999.0,-999.0,457.7935379,0.333294122,0.0,2J_3J,168.0,168.0,511.0,1.702,1.364,1.157,JMA,2.0,C1,0.0,0.0,C1,0.0,0.0,C1,0.0,0.0,C1,0.0,0.0,C1,0.0,0.0,0.0,C1,0.0,0.0,0.0,C1,0.0,0.0,0.0,C1,0.0,0.0,0.0,0.01,0.095464,9.4674,58.1,0.09646819,0.1011695,0.1035028,0.1061151,0.1088705,0.109973,0.1134864,0.1191409,0.1132843,0.1168785,0.1188677,0.1179075,0.1183275,0.1188845,0.122685,0.1247927,0.1278098,0.1460173,0.1589512,0.170001,0.1765804,0.2023258,0.262611,0.2959943,0.3265979,0.3751814,0.4021812,0.3521564,0.2890802,0.2603327,0.2641027,0.2454559,0.2455147,0.2289775,0.226759,0.2052187,0.192507,0.1826526,0.1571683,0.1667896,0.1618148,0.1441946,0.1377902,0.1409211,0.137965,0.1366575,0.1236413,0.1187763,0.1147303,0.111185,0.1148985,0.1255796,0.1395675,0.1352335,0.1267866,0.1229824,0.1249465,0.1062064,0.1050775,0.1017237,0.1020245,0.09077283,0.08299453,0.07517134,0.06731436,0.06425746,0.0596981,0.06440772,0.04812338,0.05936629,0.04743962,0.04122644,0.0417995,0.03885259,0.0480106,0.04331991,0.0404999,0.04057886,0.03811508,0.02848377,0.02418427,0.02746539,0.02798234,0.02740506,0.02726898,0.02955732,0.03027081,0.02825464,0.02133068,0.02043565,0.02262178,0.02127047,0.02126334,0.01831641,0.01670273,0.01478216,0.01189263,0.01220061,0.01021539,0.007821375,0.006788098,0.005570675,0.004859308,0.005218582,0.004871104,0.003820158,0.004139685,0.004426498,0.00449993,0.003922628,0.004904984,-999,-999,-999.0,-999.0,-999.0,-999.0,-999.0,-999.0,-999.0,-999.0,-999,-999,-999.0,-999,402.091334010975,410.177091715125,429.829379750344,434.784731586755,342.541333182186,360.581328684413,401.187221419815,410.41189994805,GP
4000031.0,Japan,4000001,4000031.0,Tohoku,2011,311.0,546.0,9.12,38.1165,142.823,17.4965,200.0,12.3,88.0,8.65,47.263,0.0,1.0,0.0,3.0,482.0,186.0,0.0,2.0,Japan_Pac,8.2,7.6,74.0,37.0,8.31,2.0,-999,-999.0,-999,A,0.227332615167032,0.171216440272672,0.116785942852271,-999.0,0.0,24.037462626,M,-999.0,362.8528796,363.2744688,129.4488178,137.8071352,247.9436493,307.71,231.06,0.0,472.06,200.7603133,243.773131786193,RmaxTruncRegr_km,36.0326,140.6979,-47.2632,1.17517969376724,-999.0,2.0,0.0,0.0,1.0,0.0,Japan,41307,36.4055,139.3313,-999.0,-999.0,358.2484954,0.325401116,0.0,2J_3J,150.0,150.0,386.0,1.702,1.364,1.157,JMA,2.0,C1,0.0,0.0,C1,0.0,0.0,C1,0.0,0.0,C1,0.0,0.0,C1,0.0,0.0,0.0,C1,0.0,0.0,0.0,C1,0.0,0.0,0.0,C1,0.0,0.0,0.0,0.01,0.17472,14.685,25.076,0.1756092,0.179122,0.1809201,0.1817696,0.1863374,0.1874616,0.1909445,0.1950141,0.2047499,0.2128786,0.2055162,0.2078515,0.2101978,0.2134648,0.2161819,0.2182576,0.2291411,0.2548834,0.2816706,0.308883,0.3578582,0.3783379,0.3464403,0.3233228,0.3339162,0.3611563,0.3697344,0.384806,0.3454575,0.3474281,0.3456189,0.3635412,0.380154,0.4056783,0.4502254,0.482617,0.4422341,0.3839819,0.4053141,0.373909,0.3479137,0.3390535,0.363837,0.4076304,0.4285177,0.4237737,0.425179,0.39515,0.3575712,0.3945884,0.4411727,0.4426137,0.4633232,0.4789559,0.528258,0.6275982,0.6923285,0.5543702,0.5259798,0.4470626,0.3978312,0.3118714,0.2540584,0.1916245,0.1478888,0.1346417,0.1287638,0.1213731,0.102224,0.08521768,0.07502218,0.06480239,0.05468349,0.05535349,0.04899544,0.04245212,0.0357258,0.02867768,0.02674876,0.02169937,0.02155686,0.02341146,0.02056811,0.0160564,0.01424696,0.01553953,0.01595933,0.01503205,0.01295459,0.01264741,0.01265707,0.01179588,0.01125224,0.01151944,0.01149563,0.01250369,0.0139466,0.01265578,0.009744026,0.007592726,0.006463314,0.005252947,0.004630269,0.004507612,0.004444626,0.004225265,0.004182735,0.004540958,0.004581254,0.003780079,0.004912034,-999,-999,-999.0,-999.0,-999.0,-999.0,-999.0,-999.0,-999.0,-999.0,-999,-999,-999.0,-999,357.428993479858,365.867248058095,387.870575407152,393.661402932176,296.213271154077,315.143381670019,360.296818056578,370.386642175492,GP
4000032.0,Japan,4000001,4000032.0,Tohoku,2011,311.0,546.0,9.12,38.1165,142.823,17.4965,200.0,12.3,88.0,8.65,47.263,0.0,1.0,0.0,3.0,482.0,186.0,0.0,2.0,Japan_Pac,8.2,7.6,74.0,37.0,8.31,2.0,-999,-999.0,-999,A,0.107661691131358,0.113330845642158,0.0625773100990994,-999.0,0.0,63.253212334,M,-999.0,386.2337799,386.629875,109.9370292,119.6660372,254.5226159,278.59,280.79,39.78999999999997,521.79,200.7603133,243.773131786193,RmaxTruncRegr_km,36.0075,140.6872,-47.2632,0.167636905809002,-999.0,2.0,0.0,0.0,1.0,0.0,Japan,41309,35.9003,139.4731,-999.0,-999.0,207.0766781,0.276832872,0.0,2J_3J,948.0,948.0,2749.0,1.702,1.364,1.157,JMA,2.0,C1,0.0,0.0,C1,0.0,0.0,C1,0.0,0.0,C1,0.0,0.0,C1,0.0,0.0,0.0,C1,0.0,0.0,0.0,C1,0.0,0.0,0.0,C1,0.0,0.0,0.0,0.01,0.11409,19.29,49.216,0.1145923,0.1162722,0.116803,0.1177205,0.1190981,0.1198869,0.1192449,0.1188175,0.1197961,0.1197963,0.1208708,0.124237,0.1250941,0.1251141,0.1251295,0.1256799,0.1366378,0.1419652,0.1513759,0.1552595,0.157131,0.1750259,0.1889371,0.2012427,0.2237809,0.2569686,0.2543353,0.2852888,0.3545094,0.4180458,0.4381369,0.4791827,0.5707509,0.4551877,0.3474014,0.3367947,0.321048,0.3227557,0.2530999,0.2049269,0.219592,0.2006077,0.1923053,0.1842875,0.2043252,0.1986981,0.1938457,0.1852615,0.1782943,0.1593073,0.1424113,0.1647845,0.1802678,0.1846467,0.1884686,0.1820773,0.1930027,0.2295294,0.2272428,0.1701698,0.1735782,0.165401,0.1266141,0.1251819,0.1242835,0.1072222,0.1111315,0.1338094,0.1192969,0.1013652,0.1052815,0.08689813,0.08191994,0.08578333,0.07896926,0.08686729,0.09367783,0.08387186,0.0839517,0.08418519,0.07883438,0.07395481,0.06490582,0.06060654,0.05697216,0.06181611,0.05772256,0.04985777,0.04602149,0.04384663,0.04053676,0.03801067,0.03194941,0.03447926,0.03442486,0.03750745,0.03275761,0.03197211,0.03479927,0.02635414,0.02117969,0.0155554,0.01309949,0.01204528,0.01040482,0.009595501,0.008761716,0.008210762,0.008275282,0.007157187,0.007802686,-999,-999,-999.0,-999.0,-999.0,-999.0,-999.0,-999.0,-999.0,-999.0,-999,-999,-999.0,-999,372.618329355835,380.097596919056,404.948503802743,412.120037321314,296.962591607678,321.132010268512,370.479402267326,384.448296176141,GP
4000033.0,Japan,4000001,4000033.0,Tohoku,2011,311.0,546.0,9.12,38.1165,142.823,17.4965,200.0,12.3,88.0,8.65,47.263,0.0,1.0,0.0,3.0,482.0,186.0,0.0,2.0,Japan_Pac,8.2,7.6,74.0,37.0,8.31,2.0,-999,-999.0,-999,A,0.308619924277574,0.317766431443629,0.0882083860554941,-999.0,0.0,63.253212334,M,-999.0,361.479066,361.9022557,91.938247,103.3752936,227.3477585,267.36,258.63,17.629999999999995,499.63,200.7603133,243.773131786193,RmaxTruncRegr_km,36.0075,140.6872,-47.2632,1.26040305815492,-999.0,2.0,0.0,0.0,1.0,0.0,Japan,41310,36.0595,139.6669,-999.0,-999.0,150.9,0.448,0.0,2J,1284.0,1284.0,3722.0,1.702,1.364,1.157,JMA,2.0,C1,0.0,0.0,C1,0.0,0.0,C1,0.0,0.0,C1,0.0,0.0,C1,0.0,0.0,0.0,C1,0.0,0.0,0.0,C1,0.0,0.0,0.0,C1,0.0,0.0,0.0,0.01,0.32174,26.015,52.103,0.3223966,0.3242402,0.3247228,0.3236541,0.3335803,0.334267,0.3316374,0.3350039,0.3364909,0.3354362,0.3363225,0.3359517,0.3350984,0.3428842,0.3492998,0.3475105,0.3455392,0.3475825,0.3491668,0.3484881,0.3445719,0.3683541,0.3789774,0.3967206,0.4029169,0.4096114,0.4429097,0.5332199,0.671303,0.7149638,0.6985193,0.7070071,0.6914145,0.7401553,0.7373263,0.6880339,0.7545281,0.8258549,0.9720023,1.267336,1.258121,1.260407,1.390766,1.405682,1.432281,1.393482,1.473857,1.383183,1.239481,0.9717925,0.8089935,0.752628,0.7441205,0.7218904,0.6668482,0.5559097,0.4951916,0.4124064,0.3558402,0.3997315,0.4301386,0.415238,0.3789918,0.3253786,0.2866904,0.2957771,0.2757042,0.254819,0.2210739,0.1995081,0.1562354,0.144384,0.1338059,0.1340253,0.1533943,0.1468469,0.1294283,0.1393645,0.1329837,0.1229775,0.1053473,0.09497529,0.07087458,0.0683023,0.07326064,0.06699853,0.06511222,0.06923186,0.08276016,0.07285254,0.06882428,0.07870167,0.07960069,0.07472328,0.06493029,0.05305995,0.04927731,0.05244179,0.04796395,0.0378396,0.0307466,0.0230697,0.01968194,0.01598075,0.01429035,0.01379659,0.01489293,0.01597028,0.01330577,0.01070362,0.008247076,-999,-999,-999.0,-999.0,-999.0,-999.0,-999.0,-999.0,-999.0,-999.0,-999,-999,-999.0,-999,346.812632079823,355.505969607608,380.917645901307,388.574456447493,271.308769940809,295.410398327191,348.213387274002,362.216304222581,GP
4000034.0,Japan,4000001,4000034.0,Tohoku,2011,311.0,546.0,9.12,38.1165,142.823,17.4965,200.0,12.3,88.0,8.65,47.263,0.0,1.0,0.0,3.0,482.0,186.0,0.0,2.0,Japan_Pac,8.2,7.6,74.0,37.0,8.31,2.0,-999,-999.0,-999,A,0.343201350560306,0.266852683468191,0.134928391899035,-999.0,0.0,58.149233466,M,-999.0,357.2915632,357.7197068,67.6101049,82.4920382,209.6642842,235.55,271.72,30.720000000000027,512.72,200.7603133,243.773131786193,RmaxTruncRegr_km,36.0075,140.6872,-47.2632,0.481999901431372,-999.0,2.0,0.0,0.0,1.0,0.0,Japan,41311,35.86,139.9587,-999.0,-999.0,210.2,0.292,0.0,2J,937.0,937.0,1454.0,1.702,1.364,1.157,JMA,2.0,C1,0.0,0.0,C1,0.0,0.0,C1,0.0,0.0,C1,0.0,0.0,C1,0.0,0.0,0.0,C1,0.0,0.0,0.0,C1,0.0,0.0,0.0,C1,0.0,0.0,0.0,0.01,0.28132,24.988,53.898,0.2824192,0.285978,0.2874453,0.2866784,0.2987861,0.3024824,0.3039964,0.3130065,0.314222,0.3010928,0.304435,0.3035848,0.3038925,0.302372,0.3054621,0.3032256,0.3223715,0.3470471,0.3262281,0.3430209,0.3534804,0.3683221,0.4253374,0.4620433,0.5161616,0.5868444,0.624302,0.6560391,0.7179056,0.8693447,0.8493773,0.7968028,0.8151655,1.048068,1.202514,0.994615,0.9641892,0.9176483,0.6685985,0.7651879,0.8316676,0.8191471,0.6761266,0.6660789,0.7038326,0.6226193,0.6186719,0.5627528,0.5424663,0.5618527,0.5577413,0.5333177,0.4517914,0.4528553,0.4580507,0.4535886,0.4080244,0.3930743,0.3132727,0.2680461,0.2653846,0.2817508,0.2596466,0.2632899,0.2223261,0.1875352,0.2040052,0.1854438,0.1766584,0.1531353,0.1419541,0.1268,0.1158309,0.09279341,0.0987547,0.09561077,0.08963741,0.08469789,0.08393757,0.08775561,0.09125723,0.08781823,0.08210427,0.07285188,0.06915276,0.05781265,0.05155859,0.0504911,0.04354124,0.04396799,0.04205922,0.04212815,0.03988525,0.03888153,0.04200293,0.05203284,0.05060901,0.05287379,0.0479216,0.03864666,0.03045212,0.02387498,0.02012698,0.01711386,0.01604427,0.01421371,0.01094344,0.009567301,0.007625993,0.007119527,0.006864967,-999,-999,-999.0,-999.0,-999.0,-999.0,-999.0,-999.0,-999.0,-999.0,-999,-999,-999.0,-999,331.5059965602,345.802925633934,373.833400045109,382.440486100611,246.361396143471,276.931356633295,338.693947104226,356.81512535657,GP
4000035.0,Japan,4000001,4000035.0,Tohoku,2011,311.0,546.0,9.12,38.1165,142.823,17.4965,200.0,12.3,88.0,8.65,47.263,0.0,1.0,0.0,3.0,482.0,186.0,0.0,2.0,Japan_Pac,8.2,7.6,74.0,37.0,8.31,2.0,-999,-999.0,-999,A,0.0652998903380189,0.0644661678923089,0.0350680454901068,-999.0,0.0,127.51783975,M,-999.0,398.0180651,398.4024444,96.8758372,107.7902495,253.4684506,220.26,323.04999999999995,82.04999999999995,564.05,200.7603133,243.773131786193,RmaxTruncRegr_km,36.0075,140.6872,-47.2632,-0.90238294036914,-999.0,2.0,0.0,0.0,1.0,0.0,Japan,41314,35.3786,139.9448,-999.0,-999.0,256.7691118,0.363741107,0.0,2J_3J,1467.0,1467.0,3443.0,1.702,1.364,1.157,JMA,2.0,C1,0.0,0.0,C1,0.0,0.0,C1,0.0,0.0,C1,0.0,0.0,C1,0.0,0.0,0.0,C1,0.0,0.0,0.0,C1,0.0,0.0,0.0,C1,0.0,0.0,0.0,0.01,0.065216,20.875,61.2,0.06523173,0.06527699,0.06528827,0.06530741,0.06533444,0.06534137,0.06535523,0.06537479,0.06538949,0.06545345,0.06545693,0.06546552,0.06548221,0.06550466,0.06558305,0.06557321,0.06614868,0.06604125,0.06799211,0.06810777,0.0689309,0.06927744,0.07025128,0.07225937,0.07372298,0.07577721,0.0790034,0.07813198,0.08044807,0.07719149,0.07837033,0.08543853,0.09135027,0.0976446,0.1051539,0.1111918,0.1215409,0.1245389,0.1321033,0.1284779,0.1305168,0.1284494,0.1451525,0.1347641,0.1425559,0.1424286,0.1509281,0.157755,0.167111,0.1780746,0.1985064,0.2034526,0.1909666,0.1802213,0.1685568,0.1684522,0.1499688,0.14595,0.149095,0.1368247,0.1283891,0.1288565,0.1442607,0.1632668,0.1630704,0.1507023,0.1499619,0.1509193,0.1245805,0.1172624,0.1222006,0.1172794,0.1199978,0.1312333,0.1395462,0.12816,0.119804,0.1141974,0.1127526,0.09584545,0.08883127,0.09332507,0.09626613,0.08621831,0.1005551,0.09132819,0.08975904,0.08904027,0.08312371,0.07025848,0.06109482,0.06481279,0.052173,0.04759393,0.04598381,0.04808881,0.04316557,0.03668119,0.03029244,0.02927278,0.03176292,0.02841667,0.0272853,0.02525541,0.02068814,0.01896147,0.01664339,0.01640984,0.01435801,0.01238303,0.01386321,-999,-999,-999.0,-999.0,-999.0,-999.0,-999.0,-999.0,-999.0,-999.0,-999,-999,-999.0,-999,367.446673739823,381.790392492866,411.29948265359,419.16339029762,284.674988642023,317.133685618032,377.019795106242,394.702391432696,GP
4000036.0,Japan,4000001,4000036.0,Tohoku,2011,311.0,546.0,9.12,38.1165,142.823,17.4965,200.0,12.3,88.0,8.65,47.263,0.0,1.0,0.0,3.0,482.0,186.0,0.0,2.0,Japan_Pac,8.2,7.6,74.0,37.0,8.31,2.0,-999,-999.0,-999,A,0.206867042684188,0.194490503989073,0.0573616373526581,-999.0,0.0,63.463172638,M,-999.0,358.4370845,358.8638614,57.4197183,74.1418474,199.6317257,190.08,291.92999999999995,50.92999999999995,532.93,200.7603133,243.773131786193,RmaxTruncRegr_km,35.9914,140.7446,-45.2742,-0.257914156554561,-999.0,2.0,0.0,0.0,1.0,0.0,Japan,41315,35.5607,140.3681,-999.0,-999.0,386.1,0.149,0.0,3J,1636.0,1636.0,2939.0,1.702,1.364,1.157,JMA,2.0,C1,0.0,0.0,C1,0.0,0.0,C1,0.0,0.0,C1,0.0,0.0,C1,0.0,0.0,0.0,C1,0.0,0.0,0.0,C1,0.0,0.0,0.0,C1,0.0,0.0,0.0,0.01,0.20201,25.041,45.034,0.2033919,0.2071077,0.2081172,0.2097882,0.2129423,0.2137575,0.2155872,0.2191502,0.2202781,0.2256321,0.2288878,0.2323856,0.2345393,0.2375955,0.2457573,0.2507286,0.2609184,0.2937585,0.3289092,0.3373524,0.3692904,0.5019855,0.6480135,0.7402468,0.7093269,0.7075189,0.7096907,0.6585138,0.5655788,0.5821966,0.5810414,0.5797748,0.5719368,0.5969966,0.6007931,0.584878,0.5749131,0.5292637,0.4789701,0.4255635,0.4143099,0.4361369,0.4099393,0.4460991,0.4998252,0.4557508,0.4272448,0.3831369,0.3654119,0.392745,0.3754844,0.3172829,0.308156,0.2989463,0.2962309,0.2693354,0.2328542,0.2697645,0.3169101,0.2825192,0.271573,0.2118568,0.2181835,0.2235847,0.2395682,0.2228814,0.2563056,0.250193,0.1818818,0.1640399,0.1634803,0.1564849,0.1442628,0.1481525,0.1223383,0.1063101,0.1235348,0.1339091,0.1410484,0.1272947,0.1230075,0.11042,0.1071762,0.0959618,0.0923624,0.08819191,0.08880252,0.08398585,0.07729382,0.06414925,0.04800443,0.04320269,0.04010755,0.04113616,0.03699421,0.03044042,0.03228655,0.0368325,0.03387143,0.02918697,0.02535548,0.02755108,0.03029126,0.02871509,0.02685935,0.02221564,0.01731881,0.01521319,0.01378404,0.01282394,0.01028968,-999,-999,-999.0,-999.0,-999.0,-999.0,-999.0,-999.0,-999.0,-999.0,-999,-999,-999.0,-999,318.555012304276,338.797531504871,371.424645003999,379.660675594018,228.327299932843,268.16755412074,339.23767535603,359.340515126595,GP
